stock_name,stock_code,address1,address2,city,zip,phone,website,industry,sector,fullTimeEmployees
7-ELEVEN MALAYSIA HOLDINGS BERHAD,5250,Level 3A,"Podium Block Plaza Berjaya No. 12, Jalan Imbi",Kuala Lumpur,55100,60321421136,https://www.7eleven.com.my,Grocery Stores,Consumer Defensive,10511.0
ABF MALAYSIA BOND INDEX FUND,0800EA,,,,,,,,,
ABLE GLOBAL BERHAD,7167,PTD 124298,Jalan Kempas Lama Kampung Seelong Jaya,Sekudai,81300,6075998990,https://www.ableglobalbhd.com.my,Packaged Foods,Consumer Defensive,199.0
ABLEGROUP BERHAD,7086,Block D4-U2-10,"Level 2 Solaris Dutamas No. 1, Jalan Dutamas 1",Kuala Lumpur,50480,60362078186,https://www.ablegroup.com.my,Building Products & Equipment,Industrials,
ABM FUJIYA BERHAD,5198,"Lot 2224, Section 66",Lorong Pangkalan Off Jalan Pangkalan Pending Industrial Estate,Kuching,93450,6082333344,https://www.abmfujiya.com.my,Auto Parts,Consumer Cyclical,
ACE INNOVATE ASIA BERHAD,03028,No. 19-1,Jalan USJ 10/1D Taipan Business Centre,Subang Jaya,47620,60380817198,https://goinno2u.com,Capital Markets,Financial Services,
ACME HOLDINGS BERHAD,7131,488A-16-01 Office Tower,Kompleks Midlands Park Jalan Burma,Georgetown,10350,6042109911,https://acmeholdings.com.my,Packaging & Containers,Consumer Cyclical,
ACO GROUP BERHAD,0218,"PLO 264, No. 14",Jalan Firma 3 Kawasan Perindustrian Tebrau 4,Johor Bahru,81100,6073619399,https://www.acogroup.com.my,Electronics & Computer Distribution,Technology,150.0
ADVANCE INFORMATION MARKETING BERHAD,0122,"No. 18, Jalan Balam",,Kuala Lumpur,51100,60340432699,https://www.aim-net.com.my,Specialty Business Services,Industrials,
ADVANCE SYNERGY BERHAD,1481,Synergy 9,Ground Floor 9 Jalan Kajibumi U1/70 Temasya Glenmarie,Shah Alam,40150,60351928822,https://www.asb.com.my,Travel Services,Consumer Cyclical,607.0
ADVANCECON HOLDINGS BERHAD,5281,"No. 16, 18 & 20, Jalan Pekaka 8/3",Seksyen 8 Kota Damansara,Petaling Jaya,47810,60361579563,https://www.advancecon.com.my,Engineering & Construction,Industrials,1353.0
ADVANCED PACKAGING TECHNOLOGY (M) BHD,9148,"Lot 2, Jalan P/2A",Kawasan MIEL Bangi Industrial Estate,Bandar Baru Bangi,43650,60389257101,https://www.advancedpack.com.my,Packaging & Containers,Consumer Cyclical,
ADVENTA BERHAD,7191,"No. 21, Jalan Tandang 51/205A",Seksyen 51,Petaling Jaya,46050,60392130520,https://www.adventa.com.my,Medical Instruments & Supplies,Healthcare,
AE MULTI HOLDINGS BERHAD,7146,Jalan PKNK 1/4,Plot 19-7 Kawasan Perindustrian Sungai Petani Taman Ria Jaya,Sungai Petani,08000,6044446538,https://www.amallionpcb.com/en/About-AE-Multi-Holdings-Berhad.php,Electronic Components,Technology,
AEMULUS HOLDINGS BERHAD,0181,"No.25, Jalan Sultan Azlan Shah",Zon Perindustrian Bayan Lepas Phase 1,Bayan Lepas,11900,6046846000,https://www.aemulus.com,Semiconductor Equipment & Materials,Technology,
AEON CO. (M) BHD,6599,AEON Taman Maluri Shopping Centre,"3rd Floor Jalan Jejaka, Taman Maluri Cheras",Kuala Lumpur,55100,60392072005,https://www.aeonretail.com.my,Department Stores,Consumer Cyclical,11917.0
AEON CREDIT SERVICE (M) BERHAD,5139,UOA Corporate Tower Avenue 10,"Level 18 The Vertical, Bangsar South City No. 8, Jalan Kerinchi",Kuala Lumpur,59200,60327729000,https://www.aeoncredit.com.my,Credit Services,Financial Services,3078.0
AFFIN BANK BERHAD,5185,Menara AFFIN,Level 19 Lingkaran TRX Tun Razak Exchange,Kuala Lumpur,55188,60323021000,https://www.affinbank.com.my,Banks - Regional,Financial Services,5237.0
AGESON BERHAD,7145,"Dataran PHB, Saujana Resort",Level 5 Block B Section U2,Shah Alam,4015,60378900638,https://agesonberhad.com,Engineering & Construction,Industrials,
AGMO HOLDINGS BERHAD,0258,MYEG Tower,"Level 38 Empire City Damansara, Jalan PJU 8",Petaling Jaya,47820,60376648515,https://www.agmo.group,Software - Application,Technology,
AHB HOLDINGS BERHAD,7315,UBN Tower 10,"Office 22F, 22nd Floor Jalan P. Ramlee",Kuala Lumpur,50250,60320222228,https://www.ahb.com.my,Business Equipment & Supplies,Industrials,
AHMAD ZAKI RESOURCES BERHAD,7078,Menara AZRB,"No. 71, Persiaran Gurney",Kuala Lumpur,54000,60326987171,https://www.azrb.com,Engineering & Construction,Industrials,
AIMFLEX BERHAD,0209,"12-2, Jalan Persiaran Teknologi",Taman Teknologi Johor,Senai,81400,6075955545,https://www.aimflex.com.my,Specialty Industrial Machinery,Industrials,279.0
AIRASIA X BERHAD,5238,"Tower A, Vertical Business Suite Avenue 3","Unit 30-01, Level 30 Bangsar South No.8, Jalan Kerinchi",Kuala Lumpur,59200,60327839191,https://www.airasiax.com,Airlines,Industrials,
AJINOMOTO (MALAYSIA) BERHAD,2658,Lot L1-E-5A and L1-E-5B,"Enterprise 4, Technology Park Malaysia Lebuhraya Puchong - Sg. Besi, Bukit Jali",Kuala Lumpur,57000,60379806958,https://www.ajinomoto.com.my,Packaged Foods,Consumer Defensive,704.0
AJIYA BERHAD,7609,"Lot 153, Kawasan Perindustrian",Batu 3 Jalan Genuang,Segamat,85000,6079434211,https://www.ajiya.com,Building Products & Equipment,Industrials,
AL-`AQAR HEALTHCARE REIT,5116,"Unit 1-19-02, Level 19, Block 1","V SQUARE, Jalan Utara Bandar Petaling Jaya",Petaling Jaya,46200,60379321692,https://www.alaqar.com.my,REIT - Healthcare Facilities,Real Estate,
ALAM MARITIM RESOURCES BERHAD,5115,Jalan Radin Anum,"No. 38F, Level 3 Bandar Baru Sri Petaling",Kuala Lumpur,57000,60390582244,https://www.alam-maritim.com.my,Oil & Gas Equipment & Services,Energy,
ALCOM GROUP BERHAD,2674,"No. 3, Persiaran Waja",Bukit Raja Industrial Estate PO Box 233,Klang,41050,60333466262,https://www.alcom.com.my,Aluminum,Basic Materials,
ALDRICH RESOURCES BERHAD,0079,"B-21-1, Tower B","Level 21 Northpoint Mid Valley City No 1, Medan Syed Putra Utara",Kuala Lumpur,59200,60397702200,https://aldrich.my,Information Technology Services,Technology,
ALLIANCE BANK MALAYSIA BERHAD,2488,Menara Multi-Purpose,"3rd Floor Capital Square No. 8, Jalan Munshi Abdullah",Kuala Lumpur,50100,60326043333,https://www.alliancebank.com.my,Banks - Regional,Financial Services,
ALLIANZ MALAYSIA BERHAD,1163,Menara Allianz Sentral,"Level 29 203, Jalan Tun Sambanthan Kuala Lumpur Sentral",Kuala Lumpur,50470,60322641188,https://www.allianz.com.my,Insurance - Diversified,Financial Services,
ALPHA OCEAN RESOURCES BERHAD,03051,"SO 33A-1 & 33A-8, Menara 1","Strata Offices, KL Eco City No.3, Jalan Bangsar",Kuala Lumpur,59200,,https://www.aorb.com.my,Farm Products,Consumer Defensive,
AL-SALAM REAL ESTATE INVESTMENT TRUST,5269,"Unit 1-19-02, Level 19, Block 1","V SQUARE, Jalan Utara, Bander",Petaling Jaya,46200,60379321692,https://www.alsalamreit.com.my,REIT - Diversified,Real Estate,
AMANAHRAYA REAL ESTATE INVESTMENT TRUST,5127,Level 2,"Wisma AmanahRaya No. 2, Jalan Ampang",Kuala Lumpur,50508,60320780898,https://www.amanahrayareit.com.my,REIT - Diversified,Real Estate,
AME ELITE CONSORTIUM BERHAD,5293,"No. 2, Jalan I-Park SAC 1/1",Taman Perindustrian I-Park SAC,Senai,81400,6075959666,https://www.ame-elite.com,Engineering & Construction,Industrials,313.0
AME REAL ESTATE INVESTMENT TRUST,5307,"Suite 9D, Level 9, Menara Ansar",65 Jalan Trus,Johor Bahru,80000,6075959999,https://www.amereit.com.my,REIT - Industrial,Real Estate,
AMFIRST REAL ESTATE INVESTMENT TRUST,5120,Menara AmFIRST,"Penthouse No. 1, Jalan 19/3",Petaling Jaya,46300,60379558780,https://www.amfirstreit.com.my,REIT - Diversified,Real Estate,17.0
AMLEX HOLDINGS BERHAD,03011,"799, Lorong Perindustrian Bukit Minyak 7",Taman Perindustrian Bukit Minyak,Simpang Ampat,14100,6045013986,https://www.amlextech.com,Electronic Components,Technology,
AMMB HOLDINGS BERHAD,1015,Bangunan AmBank Group,"22nd Floor No. 55, Jalan Raja Chulan",Kuala Lumpur,50200,60320362633,https://www.ambankgroup.com,Banks - Regional,Financial Services,8000.0
AMTEL HOLDINGS BERHAD,7031,Wisma Amtel,"Level 3, No. 12, Jalan Pensyarah U1/28 Hicom Glenmarie Industrial Park",Shah Alam,40150,60355673500,https://www.amtel.com.my,Scientific & Technical Instruments,Technology,
AMWAY (MALAYSIA) HOLDINGS BERHAD,6351,"28, Jalan 223",,Petaling Jaya,46100,60379462800,https://www.amway.my,Specialty Retail,Consumer Cyclical,250.0
ANALABS RESOURCES BERHAD,7083,Lot 750,Jalan Haji Sirat,Klang,42100,,https://www.analabs.com.my,Specialty Chemicals,Basic Materials,
ANCOM LOGISTICS BERHAD,0048,"No. 2A, Jalan 13/2",Seksyen 13,Petaling Jaya,46200,60374955000,https://www.ancomlogistics.com.my,Integrated Freight & Logistics,Industrials,
ANCOM NYLEX BERHAD,4758,"No. 2A, Jalan 13/2",Seksyen 13,Petaling Jaya,46200,60374955000,https://www.ancomnylex.com,Specialty Chemicals,Basic Materials,949.0
ANEKA JARINGAN HOLDINGS BERHAD,0226,"K-2-1, Pusat Perdagangan",Bandar Bukit Jalil Persiaran Jalil 2,Kuala Lumpur,57000,60386575150,https://www.anekajaringan.com,Engineering & Construction,Industrials,366.0
ANN JOO RESOURCES BERHAD,6556,Wisma Ann Joo,Lot 19391 Batu 8 ½ Jalan Klang Lama,Petaling Jaya,46000,60378770028,https://www.annjoo.com.my,Steel,Basic Materials,2030.0
ANNUM BERHAD,5082,"8.7 KM, Jalan Batu Sapi",Locked Bag No. 13,Sandakan,90009,,https://www.annumberhad.com,Lumber & Wood Production,Basic Materials,
APB RESOURCES BERHAD,5568,"No. 47 (Lot 540), Jalan TUDM",Kampung Baru Subang Seksyen U6,Shah Alam,40150,60378461389,https://www.apb-resources.com,Metal Fabrication,Industrials,
APEX EQUITY HOLDINGS BERHAD,5088,Menara UAC,"Level 5 12, Jalan PJU 7/5 Mutiara Damansara",Petaling Jaya,47800,60378908888,https://www.apexequity.com.my,Capital Markets,Financial Services,
APEX HEALTHCARE BERHAD,7090,"1-5, Jalan TTC 1",Cheng Industrial Estate,Melaka,75250,6063370980,https://www.apexhealthcare.com.my,Medical Distribution,Healthcare,1887.0
APM AUTOMOTIVE HOLDINGS BERHAD,5015,Lot 600,Pandamaran Industrial Estate Locked Bag No. 218,Port Klang,42009,60331618888,https://www.apm.com.my,Auto Parts,Consumer Cyclical,
APOLLO FOOD HOLDINGS BERHAD,6432,"No. 70, Jalan Langkasuka",Larkin Industrial Area,Johor Bahru,80350,6072365096,https://www.apollofood.com.my,Confectioners,Consumer Defensive,771.0
APPASIA BERHAD,0119,"1-40-1, Menara Bangkok Bank",Berjaya Central Park No. 105 Jalan Ampang,Kuala Lumpur,50450,60321813666,https://www.appasia.com,Software - Application,Technology,
A-RANK BERHAD,7214,Jalan Perindustrian Mahkota 7,Lot 2-33 Taman Perindustrian Mahkota,Beranang,43700,60387244662,https://www.arank.com.my,Aluminum,Basic Materials,
ARB BERHAD,7181,Menara Exchange 106,"No. 22.08, Level 22 Lingkaran TRX Tun Razak Exchange",Kuala Lumpur,55188,60322761143,https://www.arbberhad.com,Conglomerates,Industrials,
ARK RESOURCES HOLDINGS BERHAD,7007,1-01-9 (1-SKY),Tingkat Mahsuri 2,Bayan Lepas,11950,6046118808,https://www.ark-resources.com.my,Engineering & Construction,Industrials,8.0
ARTRONIQ BERHAD,0038,No 12 Jalan Pelukis U1/46B,Temasya Industrial Park,Shah Alam,40150,60355697728,https://www.artroniq.com,Electronics & Computer Distribution,Technology,
ASDION BERHAD,0068,"SO-13A-3A, KL Eco City",Menara 1 No. 3 Jalan Bangsar,Kuala Lumpur,59200,60322423885,https://www.asdiongroup.com,Conglomerates,Industrials,
ASIA BRANDS BERHAD,7722,"Lot 10449, Jalan Nenas",Batu 4½ Kampung Jawa,Klang,41000,60351618822,https://www.asiabrands.com.my,Apparel Retail,Consumer Cyclical,
ASIA FILE CORPORATION BHD,7129,Plot 16,Kawasan Perindustrian Bayan Lepas Phase IV Mukim 12,Bayan Lepas,11900,6046426601,https://www.asia-file.com,Business Equipment & Supplies,Industrials,
ASIA MEDIA GROUP BERHAD,0159,Menara Choy Fook On,"Unit 15-2, Level 15 1B, Jalan Yong Shook Lin Seksyen 7",Petaling Jaya,46050,60376635088,https://www.asiamedia.my,Advertising Agencies,Communication Services,
ASIA POLY HOLDINGS BERHAD,0105,Oasis Square,"E-G-3A, Block E No. 2, Jalan PJU 1A/7A Ara Damansara",Petaling Jaya,47301,60378319178,https://www.asiapoly.com.my,Specialty Chemicals,Basic Materials,189.0
ASIAN PAC HOLDINGS BERHAD,4057,Menara SMI,"12th Floor No.6, Lorong P. Ramlee",Kuala Lumpur,50250,60327863388,https://www.asianpac.com.my,Real Estate - Diversified,Real Estate,456.0
ASTINO BERHAD,7162,1499 & 1500 (Lot Baru 10030),Mukim 11 Jalan Changkat,Nibong Tebal,14300,6045856666,https://www.astino.com.my,Building Materials,Basic Materials,
ASTRAL ASIA BERHAD,7054,Menara TSR,"Level 12 No. 12, Jalan PJU 7/3 Mutiara Damansara",Petaling Jaya,47810,60377175588,https://www.astralasia.com,Farm Products,Consumer Defensive,189.0
ASTRAMINA GROUP BERHAD,03032,"No. 102, Jalan Metro Perdana Barat 13",Sri Edaran Industrial Park Off Jalan Kepong,Kuala Lumpur,52100,60362587181,https://astraminagroup.com,Packaged Foods,Consumer Defensive,
ASTRO MALAYSIA HOLDINGS BERHAD,6399,All Asia Broadcast Centre,Technology Park Malaysia Lebuhraya Puchong-Sungai Besi Bukit Jalil,Kuala Lumpur,57000,60395436688,https://www.astro.com.my,Entertainment,Communication Services,
AT SYSTEMATIZATION BERHAD,0072,Menara Lien Hoe,"Lot 11.2, Level 11 No. 8, Persiaran Tropicana Tropicana Golf & Country Resort",Petaling Jaya,47410,60378878330,https://www.atsys.com.my,Specialty Industrial Machinery,Industrials,
ATA IMS BERHAD,8176,"No.6, Jalan Dewani 1",Kawasan Perindustrian Dewani,Johor Bahru,81100,6073340911,https://www.ataims.com.my,Electronic Components,Technology,3967.0
ATLAN HOLDINGS BHD,7048,Menara Atlan,"17th Floor 161B, Jalan Ampang",Kuala Lumpur,50450,60321792000,https://www.atlan.com.my,Discount Stores,Consumer Defensive,1095.0
ATRIUM REAL ESTATE INVESTMENT TRUST,5130,"36-2, Jalan 5/101C",Off Jalan Kaskas Jalan Cheras,Kuala Lumpur,56100,60391322810,https://www.atriumreit.com.my,REIT - Industrial,Real Estate,
ATTA GLOBAL GROUP BERHAD,7099,"No. 17, Jalan Perusahaan Sungai Lokan 3",Taman Industri Sungai Lokan,Butterworth,13800,6046857324,https://www.attaglobalgroup.com,Metal Fabrication,Industrials,
AURELIUS TECHNOLOGIES BERHAD,5302,"Plot 21, Jalan Hi-Tech 4",Kulim Hi-Tech Park Phase 1,Kulim,09090,6044033180,https://www.atechgroup.com.my,Semiconductor Equipment & Materials,Technology,1286.0
AURORA ITALIA INTERNATIONAL BERHAD,03037,Menara Public Gold @ TRX,Level 5 249 Jalan Tun Razak Imbi,Kuala Lumpur,50400,60321106916,https://www.auroraitalia.net,Luxury Goods,Consumer Cyclical,
AVILLION BERHAD,8885,"Unit 8E, Wisma YPR","Level 8 No. 1, Lorong Kapar Off Jalan Syed Putra",Kuala Lumpur,58000,60322620100,https://www.avillionberhad.com,Lodging,Consumer Cyclical,
AWANBIRU TECHNOLOGY BERHAD,5204,Star Central,Block 11B Lingkaran Cyber Point Timur Cyber 12,Cyberjaya,63000,60386897000,https://www.awantec.my,Education & Training Services,Consumer Defensive,
AWC BERHAD,7579,"20-2, Subang Business Centre",Jalan USJ 9/5T UEP Subang Jaya,Subang Jaya,47620,60380244503,https://www.awc.com.my,Engineering & Construction,Industrials,
AXIATA GROUP BERHAD,6888,Axiata Tower,9 Jalan Stesen Sentral 5 Kuala Lumpur Sentral,Kuala Lumpur,50470,60322638888,https://www.axiata.com,Telecom Services,Communication Services,
AXIS REAL ESTATE INVESTMENT TRUST,5106,Penthouse Menara Axis,"No. 2, Jalan 51A/223",Petaling Jaya,46100,60379584882,https://www.axis-reit.com.my,REIT - Diversified,Real Estate,78.0
AXTERIA GROUP BERHAD,7120,Wisma Teras Eco,"Suite 02-01, Level 2 No.56, Jalan Setia Tropika 1/14 Taman Setia Tropika",Johor Bahru,81200,6072330911,https://axteria-group.com.my,Real Estate - Development,Real Estate,20.0
AYER HOLDINGS BERHAD,2305,Bangunan Yee Seng,"5th Floor No. 15, Jalan Raja Chulan",Kuala Lumpur,50200,60320342366,https://www.ayer.com.my,Real Estate - Development,Real Estate,
AYS VENTURES BERHAD,5021,Lot 6488,Jalan Haji Abdul Manan,Klang,42100,60333775597,https://www.ays-group.com,Steel,Basic Materials,284.0
B.I.G. INDUSTRIES BERHAD,7005,Pending Industrial Estate,"Lot 2225, Section 66 Jalan Dermaga",Kuching,93450,6082486321,https://www.bigind.com.my,Specialty Chemicals,Basic Materials,
BABA ECO GROUP BERHAD,03012,"No. 1384, Atas Lot 841","Mk 1, Jalan Tasek Seberang Perai Selatan",Simpang Ampat,14120,,https://www.baba.com.my,Home Improvement Retail,Consumer Cyclical,
BAHVEST RESOURCES BERHAD,0098,KUBOTA SENTRAL,"LOT 81-2, 2ND FLOOR KM 6,  OFF JALAN APAS",Tawau,91000,6089747747,https://www.bahvest.com.my,Gold,Basic Materials,
BANK ISLAM MALAYSIA BERHAD,5258,Menara Bank Islam,"Level 32 No. 22, Jalan Perak",Kuala Lumpur,50450,60327078000,https://www.bankislam.com,Banks - Regional,Financial Services,4744.0
BARAKAH OFFSHORE PETROLEUM BERHAD,7251,Menara Mitraland,"Level 6, No. 13A, Jalan PJU 5/1 Kota Damansara PJU 5",Petaling Jaya,47810,60376638900,https://www.barakahpetroleum.com,Oil & Gas Equipment & Services,Energy,
BATU KAWAN BERHAD,1899,Wisma Taiko,"No. 1, Jalan S.P. Seenivasagam",Ipoh,30000,6052408000,https://www.bkawan.com.my,Conglomerates,Industrials,
BCB BERHAD,6602,"No. 4B, Jalan Sentol",2nd & 3rd Floor South Wing-Kluang Parade,Kluang,86000,6077760089,https://bcbbhd.com.my,Real Estate - Diversified,Real Estate,
BCM ALLIANCE BERHAD,0187,"No. 73-2, Jalan Equine 10",Taman Equine,Seri Kembangan,43300,60389530031,https://www.bcmalliance.com.my,Medical Distribution,Healthcare,
BENALEC HOLDINGS BERHAD,5190,"No. 23, Jalan Perintis U1/52",Glenmarie Temasya Seksyen U1,Shah Alam,40150,60355697366,https://www.benalec.com.my,Engineering & Construction,Industrials,94.0
BERJAYA ASSETS BERHAD,3239,Berjaya Times Square,"Level 8, Lot 08-16 No.1 Jalan Imbi PO Box. 08-23",Kuala Lumpur,55100,60321449821,https://www.berjaya.com/berjaya-assets,Conglomerates,Industrials,
BERJAYA CORPORATION BERHAD,3395,Berjaya Times Square,"Lot 13-01A, Level 12 (East Wing) No. 1 Jalan Imbi",Kuala Lumpur,55100,60321491999,https://www.berjaya.com,Conglomerates,Industrials,
BERJAYA FOOD BERHAD,5196,Lot 13-01A,"Level 13 (East Wing) No.1, Jalan Imbi Berjaya Times Square",Kuala Lumpur,55100,60321491999,https://www.berjaya.com/berjaya-food/index.php,Restaurants,Consumer Cyclical,
BERJAYA LAND BERHAD,4219,Berjaya Times Square,Level 12 (East Wing) No. 1 Jalan Imbi,Kuala Lumpur,55100,60321491999,https://www.berjaya.com/berjaya-land/,Conglomerates,Industrials,
BERMAZ AUTO BERHAD,5248,Temasya Industrial Park,"No 7, Jalan Pelukis U1/46 Seksyen U1",Shah Alam,40150,60376278888,https://www.bauto.com.my,Auto & Truck Dealerships,Consumer Cyclical,987.0
BERTAM ALLIANCE BERHAD,9814,Wisma Damai Point,"Luyang Lot 10, 8th Floor Kota Kinabalu",Sabah,88300,6088201832,https://www.bertamalliance.com,Real Estate Services,Real Estate,
BESHOM HOLDINGS BERHAD,7668,Wisma Hai-O,Lot 11995 Batu 2 Jalan Kapar,Klang,41400,60333423322,https://www.beshom.com,Pharmaceutical Retailers,Healthcare,479.0
BETAMEK BERHAD,0263,Lingkaran Taman Industri Integra,Lot 137 Taman Industri Integrasi Rawang,Rawang,48000,60360942999,https://www.betamek.com.my,Auto Parts,Consumer Cyclical,
BINA DARULAMAN BERHAD,6173,Menara BDB,"Level 9 88, Lebuhraya Darulaman",Alor Setar,05100,6047300303,https://bdb.com.my,Engineering & Construction,Industrials,602.0
BINA PURI HOLDINGS BHD,5932,Wisma Bina Puri,"88, Jalan Bukit Idaman 8/1 Bukit Idaman",Selayang,68100,60361363333,https://www.binapuri.com.my,Engineering & Construction,Industrials,
BINASAT COMMUNICATIONS BERHAD,0195,Menara Binasat,"Lot PT 13824, Jalan Teknologi 4 Technology Park Malaysia Bukit Jalil",Kuala Lumpur,57000,60395461881,https://binacom.com.my,Telecom Services,Communication Services,
BINTAI KINDEN CORPORATION BERHAD,6998,10-01-02 PJX-HM Shah Tower,Jalan Persiaran Barat,Petaling Jaya,46050,60376620488,https://www.bintai.com.my,Engineering & Construction,Industrials,
BINTULU PORT HOLDINGS BERHAD,5032,"Block 20, Kemena Land District",Lot 15 12th Mile Tanjung Kidurong Road P.O Box 996,Bintulu,97008,6086255101,https://www.bintuluport.com.my,Marine Shipping,Industrials,
BIOALPHA HOLDINGS BERHAD,0179,"No. 1, Jalan Perindustrian Suntrack","Hub Perindustrian Suntrack Off Jalan P1A, Seksyen 13",Bandar Baru Bangi,43000,60389222286,https://bioa.com.my,Packaged Foods,Consumer Defensive,
BLD PLANTATION BHD.,5069,Crown Towers,"Level 6 88, Jalan Pending",Kuching,93450,6082335311,https://www.bldpb.com.my,Farm Products,Consumer Defensive,
BOILERMECH HOLDINGS BERHAD,0168,Lot 875,Jalan Subang 8 Taman Perindustrian Subang,Subang Jaya,47620,60380239137,https://www.boilermech.com,Specialty Industrial Machinery,Industrials,470.0
BONIA CORPORATION BERHAD,9288,Ikon Connaught,Level 6 Lot 160 Jalan Cerdas Taman Connaught Cheras,Kuala Lumpur,56000,60391089000,https://www.bonia.com,Footwear & Accessories,Consumer Cyclical,
BORNEO OIL BERHAD,7036,Section 19 KTLD,Lot 18,Kuching,93400,,https://www.borneo-oil.com.my,Conglomerates,Industrials,
BOUSTEAD HEAVY INDUSTRIES CORPORATION BHD,8133,Menara Boustead,"17th Floor 69, Jalan Raja Chulan",Kuala Lumpur,50200,60320787770,https://www.bhic.com.my,Aerospace & Defense,Industrials,982.0
BOUSTEAD HOLDINGS BERHAD,2771,,,,,,,,,
BOUSTEAD PLANTATIONS BERHAD,5254,The Bousteador,"Level 23 No. 10, Jalan PJU 7/6 Mutiara Damansara",Petaling Jaya,47800,60321419044,https://www.bousteadplantations.com.my,Farm Products,Consumer Defensive,5154.0
BOX-PAK (MALAYSIA) BERHAD,6297,Jalan Perusahaan 2,Lot 4,Batu Caves,68100,60361896688,https://boxpak.com.my,Packaging & Containers,Consumer Cyclical,2075.0
BP PLASTICS HOLDING BHD,5100,"5A, Jalan Wawasan 2",Kawasan Perindustrian Sri Gading,Batu Pahat,83300,6074557633,https://www.bpplas.com,Packaging & Containers,Consumer Cyclical,461.0
BRIGHT PACKAGING INDUSTRY BERHAD,9938,"No. 23, Jalan Delima 1/3",Subang Hi-Tech Industrial Park,Shah Alam,40000,60356351949,https://www.brightpack.net,Packaging & Containers,Consumer Cyclical,
BRITE-TECH BERHAD,0011,Jalan Pendamar 27/90,Lot 14 (PT 5015) Seksyen 27,Shah Alam,40400,60351928188,https://www.brite-tech.com,Pollution & Treatment Controls,Industrials,
BRITISH AMERICAN TOBACCO (MALAYSIA) BERHAD,4162,Guoco Tower,"Level 19 Damansara City No. 6, Jalan Damanlela, Bukit Damansara",Kuala Lumpur,50490,60327208188,https://www.batmalaysia.com,Tobacco,Consumer Defensive,350.0
BSL CORPORATION BERHAD,7221,"E-10-4, Megan Avenue 1 189",Jalan Tun Razak,Kuala Lumpur,50400,6021810516,https://www.bslcorp.com.my,Metal Fabrication,Industrials,
BTM RESOURCES BERHAD,7188,"No. 101, 3rd Floor",Wisma Kam Choon Jalan Kampung Tiong,Kuala Terengganu,20100,6096223633,https://www.btmresources.com.my,Lumber & Wood Production,Basic Materials,
BUMI ARMADA BERHAD,5210,Menara Perak,"Level 21 24, Jalan Perak",Kuala Lumpur,50450,60321715799,https://www.bumiarmada.com,Oil & Gas Equipment & Services,Energy,700.0
BURSA MALAYSIA BERHAD,1818,Exchange Square,15th Floor Bukit Kewangan,Kuala Lumpur,50200,60320347000,https://www.bursamalaysia.com,Financial Data & Stock Exchanges,Financial Services,
BV LAND HOLDINGS BERHAD,03042,"No. 3, Lorong Landasan",Off Jalan Bukit Kuda,Klang,41300,60333444023,https://www.bvland.com.my,Real Estate - Development,Real Estate,
C.I. HOLDINGS BERHAD,2828,Hampshire Place Office,"Suite A-11-1, Level 11 157 Hampshire No. 1, Jalan Mayang Sari",Kuala Lumpur,50450,60321827333,https://www.cih.com.my,Packaged Foods,Consumer Defensive,
CAB CAKARAN CORPORATION BERHAD,7174,Plot 21,Lorong Jelawat 4 Seberang Jaya Industrial Park Seberang Jaya,Perai,13700,6043982233,https://www.cab.com.my,Farm Products,Consumer Defensive,3160.0
CABNET HOLDINGS BERHAD,0191,No.18 (PLO 184) Jalan Angkasa Mas 6,Kawasan Perindustrian Tebrau II,Johor Bahru,81100,6073539008,https://www.cabnet.asia,Engineering & Construction,Industrials,170.0
CAHYA MATA SARAWAK BERHAD,2852,Wisma Mahmud,Level 6 Jalan Sungai Sarawak,Kuching,93100,6082238888,https://www.cahyamata.com,Building Materials,Basic Materials,2000.0
CAM RESOURCES BERHAD,7128,Batu 12,Jalan Hutan Melintang,Hutan Melintang,36400,6056411046,https://www.camres.com.my,Farm Products,Consumer Defensive,409.0
CAN-ONE BERHAD,5105,Jalan SS 6/6,"2B-4, Level 4 Kelana Jaya",Petaling Jaya,47301,60378048590,https://www.canone.com.my,Packaged Foods,Consumer Defensive,5782.0
CAPE EMS BERHAD,5311,"PLO 227A, Jalan Cyber 1A",Kawasan perindustrian senai III,Senai,81400,6072133333,https://www.cape-group.com.my,Electronic Components,Technology,375.0
CAPITAL A BERHAD,5099,"RedQ, Jalan Pekeliling 5",Lapangan Terbang Antarabangsa,Kuala Lumpur,64000,60386604333,https://capitala.airasia.com,Airlines,Industrials,16149.0
CAPITALAND MALAYSIA TRUST,5180,"Unit No. 1-27, Level 27, Naza Tower","No. 10, Persiaran KLCC",Kuala Lumpur,50088,60322799888,https://www.clmt.com.my,REIT - Retail,Real Estate,
CAREPLUS GROUP BERHAD,0163,Lorong Senawang 3/2,Lot 17479 Off Jalan Senawang 3 Senawang Industrial Estate,Seremban,70450,6066782377,https://www.careplus.com,Medical Instruments & Supplies,Healthcare,
CARIMIN PETROLEUM BERHAD,5257,"B-1-6, Megan Avenue 1","Block B 189, Jalan Tun Razak",Kuala Lumpur,50400,60321687000,https://www.carimin.com,Oil & Gas Equipment & Services,Energy,
CARLO RINO GROUP BERHAD,03016,"No. 160, Ikon Connaught","L2-05, 2nd Floor Jalan Cerdas Taman Connaught",Kuala Lumpur,56000,60391089600,https://corporate.carlorino.net,Footwear & Accessories,Consumer Cyclical,
CARLSBERG BREWERY MALAYSIA BERHAD,2836,"No. 55, Persiaran Selangor",Section 15,Shah Alam,40200,60355226688,https://www.carlsbergmalaysia.com.my,Beverages - Brewers,Consumer Defensive,600.0
CARZO HOLDINGS BERHAD,03048,"No 6, Bangunan Carzo",Persiaran Industri Bandar Sri Damansara,Kuala Lumpur,52200,60103677725,https://www.carzo.com.my,Food Distribution,Consumer Defensive,
CATCHA DIGITAL BERHAD,0173,Co-labs Coworking,"The Starling Plus, Lot PT297 Level 4, Uptown, 7 Jalan SS 21/39, Damansara Utama",Petaling Jaya,47400,60376604908,https://www.catchadigital.com.my,Publishing,Communication Services,
CB INDUSTRIAL PRODUCT HOLDING BERHAD,7076,"No. 1, Jalan Astaka U8/83",Section 8 Bukit Jelutong,Shah Alam,40150,60378454115,https://cbip.com.my,Specialty Industrial Machinery,Industrials,
CC INTERNATIONAL BERHAD,03053,"16-G, Jalan 2/114",Kuchai Business Centre Off Jalan Klang Lama,Kuala Lumpur,58200,60379859999,https://chengco.com.my,Specialty Business Services,Industrials,
CCK CONSOLIDATED HOLDINGS BERHAD,7035,Jalan Keluli,Lot 999 Section 66 Bintawa Industrial Estate,Kuching,93450,6082336520,https://www.cck.com.my,Farm Products,Consumer Defensive,2800.0
CE TECHNOLOGY BERHAD,03024,"11528, Jalan Logam 4",Kawasan Perindustrian Kamunting Raya,Taiping,34000,6058910716,https://www.ceglobal.com.my,Specialty Chemicals,Basic Materials,
CEKD BERHAD,0238,Resource Industrial Centre,"10, Jalan 1/137B Batu 5 Jalan Kelang Lama",Kuala Lumpur,58200,60179886450,https://www.cekd.com.my,Metal Fabrication,Industrials,162.0
CENGILD MEDICAL BERHAD,0243,"Unit 2-3 & 2-4, Nexus @ Bangsar South","No. 7, Jalan Kerinchi",Kuala Lumpur,59200,60322427000,https://www.cengild.com,Biotechnology,Healthcare,
CENSOF HOLDINGS BERHAD,5195,"A-G, Block A","Level G, Sunway PJ51A Jalan SS9A/19 Seri Setia",Petaling Jaya,47300,60379627888,https://censof.com,Software - Application,Technology,304.0
CENTRAL GLOBAL BERHAD,8052,Plaza Dwi Tasik,A5-06 Block A Jalan 5/106 Bandar Sri Permaisuri,Kuala Lumpur,56000,60391718966,https://www.cgbgroup.com.my,Specialty Chemicals,Basic Materials,
CEPATWAWASAN GROUP BERHAD,8982,Prima Square,"Lot 70, Block 6 Mile 4 North Road",Sandakan,90000,6089272773,https://cepatgroup.com,Farm Products,Consumer Defensive,
CHEETAH HOLDINGS BERHAD,7209,Jalan KPB 6,Lot 1846 Kawasan Perindustrian Kg. Bahru Balakong,Seri Kembangan,43300,60389473888,https://www.cheetah-online.com,Apparel Manufacturing,Consumer Cyclical,
CHIN HIN GROUP BERHAD,5273,"A-1-9, Pusat Perdagangan Kuchai","No.2, Jalan 1/127 Off Jalan Kuchai Lama",Kuala Lumpur,58200,60379817878,https://www.chinhingroup.com,Building Materials,Basic Materials,1734.0
CHIN HIN GROUP PROPERTY BERHAD,7187,"1177, Jalan Dato Keramat",,Nibong Tebal,14300,6045931504,https://www.chinhinproperty.com,Auto Manufacturers,Consumer Cyclical,474.0
CHIN TECK PLANTATIONS BERHAD,1929,Plaza Sentral,"Suite 2B-3A-2, Block 2B Level 3A, Jalan Stesen Sentral 5 Kuala Lumpur Sentral",Kuala Lumpur,50470,60322614633,https://www.chinteck.com.my,Farm Products,Consumer Defensive,
CHIN WELL HOLDINGS BERHAD,5007,"No. 1586, MK11",Lorong Perusahaan Utama 1 Bukit Tengah Industrial Park,Bukit Mertajam,14000,6045075858,https://www.chinwell.com.my,Tools & Accessories,Industrials,
CHINA OUHUA WINERY HOLDINGS LIMITED,5188,No. 3 North Wolong Road,,Yantai,,865356020999,https://www.ohuawine.com.my,Beverages - Wineries & Distilleries,Consumer Defensive,
CHOO BEE METAL INDUSTRIES BHD,5797,Wisma Soon Teik Aun,Jalan Bendahara,Ipoh,31650,6052558111,https://choobee.com,Steel,Basic Materials,
CHUAN HUAT RESOURCES BHD,7016,Wisma Lim Kim Chuan,"Lot 50A Jalan 1/89B 3½ Miles, Off Jalan Sungai Besi",Kuala Lumpur,57100,60379833333,https://www.chuanhuat.com.my,Building Products & Equipment,Industrials,
CIMB GROUP HOLDINGS BERHAD,1023,Menara CIMB,Level 13 Jalan Stesen Sentral 2 Kuala Lumpur Sentral,Kuala Lumpur,50470,60322618888,https://www.cimb.com,Banks - Regional,Financial Services,33000.0
CITAGLOBAL BERHAD,7245,Menara TH Plaza Sentral,"Level 9, Block 4 Jalan Stesen Sentral 5 KL Sentral",Kuala Lumpur,50470,60327738800,https://www.wzs.my,Engineering & Construction,Industrials,369.0
CITRA NUSA HOLDINGS BERHAD,5104,Wisma CNI,No.2 Jalan Perunding U1/17 Seksyen U1 Hicom-Glenmarie Industrial Park,Shah Alam,40150,60355694000,https://www.citranusaholdings.com,Conglomerates,Industrials,298.0
CJ CENTURY LOGISTICS HOLDINGS BERHAD,7117,"No. 12, Persiaran Astana/KU2",Bandar Bukit Raja,Klang,41050,60333855888,https://www.cjcentury.com,Integrated Freight & Logistics,Industrials,
CLASSIC SCENIC BERHAD,7202,"Lot 12, Jalan RP3",Taman Rawang Perdana,Rawang,48000,60360917477,https://www.classicscenic.com,Lumber & Wood Production,Basic Materials,391.0
CLASSITA HOLDINGS BERHAD,7154,Wisma Caely,"Lot 2661, 3rd Mile Jalan Maharaja Lela",Teluk Intan,36000,6056218888,https://www.classita.com.my,Apparel Manufacturing,Consumer Cyclical,
CLOUDARON GROUP BERHAD,03001,"Unit 2-13A, Bangunan Perdagangan D7",800 Jalan Sentul,Kuala Lumpur,51000,60186050205,https://www.cloudaron.com,Software - Infrastructure,Technology,
CME GROUP BERHAD,7018,"Lot 19, Jalan Delima 1/1",Taman Perindustrian Teknologi Tinggi Subang,Subang Jaya,47500,60356331188,https://www.cme.com.my,Auto Manufacturers,Consumer Cyclical,
CN ASIA CORPORATION BHD,7986,"Lot 7907, Batu 11",Jalan Balakong,Seri Kembangan,43300,60389426888,https://www.cnasia.com,Specialty Industrial Machinery,Industrials,
CNERGENZ BERHAD,0246,"No. 34, 36, 38 & 40, Lorong IKS Bukit Tengah",Taman IKS Bukit Tengah,Bukit Mertajam,14000,6045088318,https://cnergenz.com,Electrical Equipment & Parts,Industrials,58.0
COASTAL CONTRACTS BHD,5071,Bandar Leila,Block G Lot 3B W.D.T. 259,Sandakan,90009,6089616263,https://www.coastalcontracts.com,Aerospace & Defense,Industrials,
COMFORT GLOVES BERHAD,2127,Lot 821,Jalan Matang,Taiping,34750,6058472777,https://www.comfort-rubber.com.my,Medical Instruments & Supplies,Healthcare,1703.0
COMINTEL CORPORATION BHD,7195,"No. 1 & 3, Jalan Jalil Jaya 3",Jalil Link Bukit Jalil,Kuala Lumpur,57000,60389987666,https://www.comcorp.com.my/comcorp,Electronic Components,Technology,83.0
COMPUGATES HOLDINGS BERHAD,5037,"No. 3, Jalan PJU 1/41",Block C1 Dataran Prima,Petaling Jaya,47301,60378808133,https://www.compugates.com,Electronics & Computer Distribution,Technology,
COMPUTER FORMS (MALAYSIA) BERHAD,8044,"Lot 2, Jalan Usahawan 5",PKNS Setapak Industrial Area Off Jalan Genting Kelang,Kuala Lumpur,53300,60340233611,https://www.cfm.com.my,Specialty Business Services,Industrials,
CONCRETE ENGINEERING PRODUCTS BERHAD,8435,Menara KH (Promet),22nd Floor Jalan Sultan Ismail,Kuala Lumpur,50250,60321441066,https://www.cepco.com.my,Building Materials,Basic Materials,
CORAZA INTEGRATED TECHNOLOGY BERHAD,0240,"Lot 2777, Lorong Industri 5",Kawasan Industri Bukit Panchor,Nibong Tebal,14300,6045958888,https://www.corazaintech.com,Metal Fabrication,Industrials,
COSMOS TECHNOLOGY INTERNATIONAL BERHAD,0261,"No. 11, Jalan Mega 2/1",Kawasan Perindustrian Mega 2,Semenyih,43500,60387276029,https://www.ctib.com.my,Pollution & Treatment Controls,Industrials,75.0
COUNTRY HEIGHTS HOLDINGS BHD,5738,Mines Waterfront Business Park,"8th Floor, Block A No. 3, Jalan Tasik Mines Resort City",Seri Kembangan,43300,60389438811,https://www.countryheights.com.my,Lodging,Consumer Cyclical,325.0
COUNTRY VIEW BERHAD,5049,Menara Landmark,"Unit 26-01, Level 26 No. 12, Jalan Ngee Heng Mail Box 261",Johor Bahru,80000,6072236799,https://www.countryview.com.my,Real Estate - Development,Real Estate,
CRESCENDO CORPORATION BERHAD,6718,Public Bank Tower,"18th Floor No. 19, Jalan Wong Ah Fook",Johor Bahru,80000,6072248316,https://www.crescendo.com.my,Real Estate - Diversified,Real Estate,383.0
CREST BUILDER HOLDINGS BERHAD,8591,Penthouse,The Crest 3 Two Square No. 2 Jalan 19/1,Petaling Jaya,46300,60378416000,https://crestbuilder.com.my,Engineering & Construction,Industrials,195.0
CSC STEEL HOLDINGS BERHAD,5094,180 Kawasan Industri Ayer Keroh,,Ayer Keroh,75450,6062310169,https://www.cscmalaysia.com,Steel,Basic Materials,677.0
CSH ALLIANCE BERHAD,7165,No.3 Taman Perindustrian UEP,"Level 2, Jalan TP 2",Subang Jaya,47600,60378903535,https://www.cshalliance.com.my,Building Products & Equipment,Industrials,
CTOS DIGITAL BERHAD,5301,"Tower A, Vertical Business Suite","Unit 01-12, Level 8 Avenue 3, Bangsar South No. 8 Jalan Kerinchi",Kuala Lumpur,59200,60327228888,https://ctosdigital.com,Software - Application,Technology,508.0
CUSCAPI BERHAD,0051,Empire City Damansara,"Level 27 & 28, Block N No 8, Jalan Damansara",Petaling Jaya,47820,60376237777,https://www.cuscapi.com,Software - Application,Technology,
CWG HOLDINGS BERHAD,9423,6428 Lorong Mak Mandin Tiga,Mak Mandin Industrial Estate,Butterworth,13400,6043329299,https://www.cwgholdings.com.my,Paper & Paper Products,Basic Materials,
CYL CORPORATION BERHAD,7157,"12, Jalan Teluk Gadung 27/93",Section 27,Shah Alam,40000,60351913888,https://www.cylcorporation.com,Packaging & Containers,Consumer Cyclical,
CYPARK RESOURCES BERHAD,5184,Phileo Damansara II,"Unit 13A-09, Block A No. 15, Jalan 16/11",Petaling Jaya,46350,60376606170,https://www.crbenv.com,Waste Management,Industrials,124.0
D & O GREEN TECHNOLOGIES BERHAD,7204,Batu Berendam Free Trade Zone,Lot 6 Phase III,Melaka,75350,6062833566,https://www.do.com.my,Semiconductor Equipment & Materials,Technology,2700.0
DAGANG NEXCHANGE BERHAD,4456,"Cyber 12, Dagang Net Tower",Block 10 (A&B) Corporate Park Star Central Lingkaran Cyberpoint Timur,Cyberjaya,63000,60382306900,https://www.dnex.com.my,Information Technology Services,Technology,
DAMANSARA HOLDINGS BERHAD,3484,,,,,,,,,
DANAINFRA NASIONAL BERHAD,0400GB,,,,,,,,,
DANCOMECH HOLDINGS BERHAD,5276,"No. 19, Jalan Pelukis U1/46","Temasya, Industrial Park Seksyen U1",Shah Alam,40150,60355692929,https://www.dancomech.com.my,Pollution & Treatment Controls,Industrials,
DATAPREP HOLDINGS BHD,8338,Widad Semantan,"Level 8 Damansara Heights No. 3, Jalan Semantan",Kuala Lumpur,50490,60378431600,https://www.dp.com.my,Information Technology Services,Technology,
DATASONIC GROUP BERHAD,5216,Bangunan Setia 1,"Level 6 No. 15, Lorong Dungun Damansara Heights",Kuala Lumpur,50490,60326329699,https://www.datasonic.com.my,Computer Hardware,Technology,
DAYANG ENTERPRISE HOLDINGS BERHAD,5141,Sublot 5–10,"Lot 46, Block 10 Jalan Taman Raja Miri Concession Land District",Miri,98000,6085420185,https://www.desb.net,Oil & Gas Equipment & Services,Energy,2161.0
DELEUM BERHAD,5132,"No. 2, Jalan Bangsar Utama 9",Bangsar Utama,Kuala Lumpur,59000,60322957788,https://www.deleum.com,Oil & Gas Equipment & Services,Energy,592.0
DESTINI BERHAD,7212,No. 10 Jalan Jurunilai U1/20,Hicom Glenmarie Industrial Park,Shah Alam,40150,60355670333,https://www.destinigroup.com,Aerospace & Defense,Industrials,466.0
DFCITY GROUP BERHAD,5165,Jalan Sungai Putat,Lot 197 Batu Berendam,Malacca,75350,6063172028,https://www.dfcitygroup.com.my,Building Materials,Basic Materials,
DGB ASIA BERHAD,0152,"Lot 13.5, Menara Lien Hoe","13th Floor No. 8, Persiaran Tropicana",Petaling Jaya,47410,60376226986,https://www.dgbasia.com,Software - Application,Technology,
DIALOG GROUP BERHAD,7277,DIALOG TOWER,"No. 15, Jalan PJU 7/5 Mutiara Damansara",Petaling Jaya,47810,60377171111,https://www.dialogasia.com,Oil & Gas Equipment & Services,Energy,
CELCOMDIGI BERHAD,6947,"Level 31, Menara CelcomDigi",No. 6. Persiaran Barat Seksyen 52,Petaling Jaya,46200,60372002222,https://corporate.celcomdigi.com,Telecom Services,Communication Services,3818.0
DIGISTAR CORPORATION BERHAD,0029,"B6/4/4, One Ampang Business Avenue",3rd Floor Jalan Ampang Utama 1/2,Ampang,68000,60342534319,https://www.digistar.com.my,Conglomerates,Industrials,
DIVFEX BERHAD,0131,"No. 8, Jalan Serendah 26/41",Sekitar 26,Shah Alam,40400,60390783220,https://www.dgsbgroup.com,Information Technology Services,Technology,
DKLS INDUSTRIES BHD,7528,Ipoh Tower,16th Floor and Penthouse Jalan Dato’ Seri Ahmad Said,Ipoh,30450,6052532688,https://www.dkls.com.my,Engineering & Construction,Industrials,231.0
DKSH HOLDINGS (MALAYSIA) BERHAD,5908,"B-11-01, The Ascent","Paradigm No. 1, Jalan SS7/26A Kelana Jaya",Petaling Jaya,47301,60378828888,https://www.dksh.com.my,Industrial Distribution,Industrials,2989.0
D'NONCE TECHNOLOGY BHD,7114,51-14-B&C Menara BHL,Jalan Sultan Ahmad Shah,Georgetown,10050,6042281198,https://www.dnoncetech.com,Packaging & Containers,Consumer Cyclical,
DOLOMITE CORPORATION BERHAD,5835,,,,,,,,,
DOLPHIN INTERNATIONAL BERHAD,5265,"E-G-2, Block E",Oasis Square No. 2 Jalan PJU 1A/7A Ara Damansara,Petaling Jaya,47301,60378327563,https://www.dolphinbhd.com,Specialty Industrial Machinery,Industrials,
DOMINANT ENTERPRISE BERHAD,7169,"No. 2, Jalan Gemilang 1",Taman Perindustrian Maju Jaya,Johor Bahru,81300,6075588318,https://www.dominant.com.my,Lumber & Wood Production,Basic Materials,
DPI HOLDINGS BERHAD,0205,"K69, Jalan Perindustrian 6",Kawasan Perindustrian Tanjung Agas Kesang,Tangkak,84000,6069522854,https://www.dpiaerosol.com,Specialty Chemicals,Basic Materials,160.0
DPS RESOURCES BERHAD,7198,Kawasan Perindustrian Bukit Rambai,Lot 76 & 77,Bukit Rambai,75250,6063513111,https://www.dps.com.my/newsite,Conglomerates,Industrials,
DRB-HICOM BERHAD,1619,Wisma DRB-HICOM,"Level 5 No. 2, Jalan Usahawan U1/8 Seksyen U1",Shah Alam,40150,60320528000,https://www.drb-hicom.com,Auto Manufacturers,Consumer Cyclical,45000.0
DS SIGMA HOLDINGS BERHAD,0269,"No. 36, Jalan BP 5/6",Bandar Bukit Puchong,Puchong,47100,60380601678,https://www.dssigma.com.my,Packaging & Containers,Consumer Cyclical,
DSR TAIKO BERHAD,03055,"No. 6-1, Jalan Eco Santuari 8/2A",Eco Santuari,Telok Panglima Garang,42500,60351317661,https://dsrfruits.com,Farm Products,Consumer Defensive,
DUFU TECHNOLOGY CORP. BERHAD,7233,"19, Hilir Sungai Keluang 2",Taman Perindustrian Bayan Lepas Phase IV,Penang,11900,6046161300,https://www.dufutechnology.com,Metal Fabrication,Industrials,389.0
DUOPHARMA BIOTECH BERHAD,7148,CIMB HUB,"Suite 18.06, Level 18 No. 26, Jalan Sultan Ismail Taman Klang Jaya",Kuala Lumpur,50250,60321620218,https://duopharmabiotech.com,Drug Manufacturers - Specialty & Generic,Healthcare,1650.0
DUTALAND BERHAD,3948,Menara Olympia,"Level 23 No. 8, Jalan Raja Chulan",Kuala Lumpur,50200,60320723993,https://www.dutaland.com.my,Food Distribution,Consumer Defensive,
DUTCH LADY MILK INDUSTRIES BERHAD,3026,Quill 9,"Level 5 No 112, Jalan Prof Khoo Kay Kim",Petaling Jaya,46300,60379532600,https://www.dutchlady.com.my,Packaged Foods,Consumer Defensive,600.0
DYNAFRONT HOLDINGS BERHAD,03046,"Corporate Office Tower, Block C","C-8-1, 8th Floor KL Trillion 338 Jalan Tun Razak",Kuala Lumpur,50400,60327135778,https://www.dynafront.com,Software - Application,Technology,
E.A.TECHNIQUE (M) BERHAD,5259,Setiawangsa Business Suites,"Unit C-3A-3A No. 2, Jalan Setiawangsa 11 Taman Setiawangsa",Kuala Lumpur,54200,60342525422,https://www.eatechnique.com.my,Marine Shipping,Industrials,
EA HOLDINGS BERHAD,0154,"Unit 25-5, Level 25","Oval Damansara No. 685, Jalan Damansara",Kuala Lumpur,60000,60377339762,https://www.eah.com.my,Software - Infrastructure,Technology,
EASTERN & ORIENTAL BERHAD,3417,Menara Milenium,"Level 3A (Annexe) No. 8, Jalan Damanlela Damansara Heights",Kuala Lumpur,50490,60320956868,https://www.easternandoriental.com,Real Estate - Development,Real Estate,479.0
ECA INTEGRATED SOLUTION BERHAD,0267,Plot 248,Lorong Perindustrian Bukit Minyak 16 Kawasan Perindustrian Bukit Minyak,Simpang Ampat,14100,6045062388,https://www.eca.com.my,Specialty Industrial Machinery,Industrials,76.0
ECM LIBRA GROUP BERHAD,2143,Bangunan ECM Libra,"Ground Floor, East Wing 8 Jalan Damansara Endah Damansara Heights",Kuala Lumpur,50490,60326329800,https://www.ecmlibra.com,Asset Management,Financial Services,153.0
ECO WORLD DEVELOPMENT GROUP BERHAD,8206,Setia Avenue,"Suite 52 and 60 No. 2, Jalan Setia Prima S U13/S Setia Alam, Seksyen U13",Shah Alam,40170,60333442552,https://www.ecoworld.my,Real Estate - Development,Real Estate,
ECO WORLD INTERNATIONAL BERHAD,5283,"No. 2, Jalan Setia Prima S U13/S","Suite 59 Setia Avenue Setia Alam, Seksyen U13",Shah Alam,40170,60333612552,https://www.ecoworldinternational.com,Real Estate - Diversified,Real Estate,151.0
ECOBUILT HOLDINGS BERHAD,0059,Medan Connaught,"D-G-11 & D-1-11 No.1, Jalan 3/144A",Kuala Lumpur,56000,60391082802,https://www.eco-built.com.my,Engineering & Construction,Industrials,67.0
ECOFIRST CONSOLIDATED BHD,3557,"A-19, Menara Allianz Sentral","203, Jalan Tun Sambanthan KL Sentral",Kuala Lumpur,50470,60327251888,https://www.ecofirst.my,Real Estate - Diversified,Real Estate,
ECOMATE HOLDINGS BERHAD,0239,Lot PTD 7274,Kawasan Perindustrian Bakri Batu 7 1/2 Jalan Bakri,Muar,84200,6069868558,https://www.ecomate.com.my,"Furnishings, Fixtures & Appliances",Consumer Cyclical,137.0
ECONFRAME BERHAD,0227,"No. 1 and 3, Jalan 27A",Kawasan 16 Sungai Rasau Industrial Area,Klang,41300,60333487268,https://www.econframe.com,Building Products & Equipment,Industrials,
ECONPILE HOLDINGS BERHAD,5253,"Tower Block, Plaza Dwitasik",Level 8 Jalan Sri Permaisuri Bandar Sri Permaisuri,Kuala Lumpur,56000,60391719999,https://www.econpile.com.my,Engineering & Construction,Industrials,
ECOSCIENCE INTERNATIONAL BERHAD,0255,PLO 555,Jalan Keluli 8 Pasir Gudang Industrial Estate,Pasir Gudang,81700,6072553126,https://www.ecosciencegroup.com,Engineering & Construction,Industrials,113.0
EDARAN BERHAD,5036,"No. 2, Jalan 4/76C",Desa Pandan,Kuala Lumpur,55100,60392067200,https://www.edaran.com,Information Technology Services,Technology,
EDEN INC. BERHAD,7471,Amcorp Tower,"15th Floor Amcorp Trade Centre 18, Jln Persiaran Barat, Off Jln Timur",Petaling Jaya,46050,60379577781,https://www.edenzil.com,Conglomerates,Industrials,
EDUSPEC HOLDINGS BERHAD,0107,Tiong Nam Industrial Park,No. 10 Jalan 15/22 Section 15,Shah Alam,40200,60355231781,https://www.eduspec.com.my,Education & Training Services,Consumer Defensive,
EFFICIENT E-SOLUTIONS BERHAD,0064,"No. 3, Jalan Astaka U8/82",Taman Perindustrian Bukit Jelutong Seksyen U8 Bukit Jelutong,Shah Alam,40150,60378472777,https://www.efficient.com.my,Specialty Business Services,Industrials,
EG INDUSTRIES BERHAD,8907,"Plot 102, Bakar Arang Industrial Estate",Jalan 4,Sungai Petani,08000,6044229881,https://www.eg.com.my,Electronic Components,Technology,3000.0
EITA RESOURCES BERHAD,5208,"Lot 4, Block A",Jalan SS13/7 Subang Jaya Industrial Estate,Subang Jaya,47500,60356378099,https://www.eita.com.my,Specialty Industrial Machinery,Industrials,640.0
EKOVEST BERHAD,8877,Wisma EKOVEST,"Ground Floor No.18, Jalan Gombak",Kuala Lumpur,53000,60340215948,https://ekovest.com.my,Engineering & Construction,Industrials,
EKSONS CORPORATION BERHAD,9016,Jalan Prima Tropika Barat 2,"Unit No. 1, 2, 3 Taman Prima Tropika",Seri Kembangan,43300,60389493199,https://eksons.com.my,Lumber & Wood Production,Basic Materials,115.0
ELK-DESA RESOURCES BERHAD,5228,"15-17, Jalan Brunei Utara",Off Jalan Pudu,Kuala Lumpur,55100,60321457000,https://www.elk-desa.com.my,Credit Services,Financial Services,299.0
ELSOFT RESEARCH BERHAD,0090,Lintang Bayan Lepas 9,Plot 85B Bayan Lepas Industrial Park Phase 4,Bayan Lepas,11900,6046468122,https://www.elsoftresearch.com,Semiconductor Equipment & Materials,Technology,
EMICO HOLDINGS BERHAD,9091,"18, Lebuhraya Kampung Jawa",,Bayan Lepas,11900,6046438501,https://www.emico.com.my,Leisure,Consumer Cyclical,221.0
ENCORP BERHAD,6076,"No. 45-G, Jalan PJU 5/21",Pusat Perdagangan Kota Damansara Kota Damansara PJU 5,Petaling Jaya,47810,60362867777,https://www.encorp.com.my,Real Estate - Diversified,Real Estate,
ENEST GROUP BERHAD,03025,"No.2B-G, Jalan Semenyih",Bandar Kajang,Kajang,43000,60387416609,https://bailengyen.com.my,Farm Products,Consumer Defensive,
ENG KAH CORPORATION BERHAD,7149,Plot 95 & 97,Hala Kampung Jawa 2 Kawasan Perindustrian Bayan Lepas,Bayan Lepas,11900,6046435180,https://www.engkah.com,Household & Personal Products,Consumer Defensive,
ENGTEX GROUP BERHAD,5056,Putra Industrial Park,"Lot 36, Jalan BRP 9/2B Bukit Rahman Putra",Sungai Buloh,47000,60361401111,https://www.engtex.com.my,Industrial Distribution,Industrials,1507.0
ENRA GROUP BERHAD,8613,"D3-U6-15, Block D3 Solaris Dutamas No.1",Jalan Dutamas 1,Kuala Lumpur,50480,60323003555,https://www.enra.my,Conglomerates,Industrials,31.0
EONMETALL GROUP BERHAD,7217,MK 12 Jalan Seruling,Lot 1258 & 1259 Kawasan Perusahaan Valdor,Sungai Bakap,14200,6045828323,https://www.eonmetall.com,Steel,Basic Materials,
EP MANUFACTURING BHD,7773,"No. 8 & 10, Jalan Jurutera U1/23",Seksyen U1 Kawasan Perindustrian Hicom Glenmarie,Shah Alam,40150,60378036663,https://www.epmb.com.my,Auto Parts,Consumer Cyclical,
EQUITIESTRACKER HOLDINGS BERHAD,03021,"01-8, Menara Symphony","8th Floor No. 5, Jalan Professor Khoo Kay Kim Seksyen 13",Petaling Jaya,46200,60384082070,https://www.equitiestracker.com,Financial Data & Stock Exchanges,Financial Services,
ES CERAMICS TECHNOLOGY BHD,0100,Lengkok Rishah 2,"Lot 37, 39 & 41 Kawasan Perindustrian Silibin",Ipoh,30100,6055283041,https://www.esceramics.com.my,Specialty Chemicals,Basic Materials,415.0
ESTHETICS INTERNATIONAL GROUP BERHAD,5081,Jalan Astaka U8/88,Lot 11 Bukit Jelutong Seksyen U8,Shah Alam,40150,60378096688,https://www.estheticsgroup.com,Household & Personal Products,Consumer Defensive,623.0
EUPE CORPORATION BERHAD,6815,Wisma Ria,5th Floor Taman Ria,Sungai Petani,08000,6044414888,https://www.eupe.com.my,Real Estate - Development,Real Estate,
EURO HOLDINGS BERHAD,7208,Wisma Euro,Lot 21 Jalan RP3 Rawang Industrial Estate,Rawang,48000,60360926666,https://www.euroholdings.com.my,"Furnishings, Fixtures & Appliances",Consumer Cyclical,
EUROSPAN HOLDINGS BERHAD,7094,1168 Kampung Teluk,Sungai Dua Kawasan Perusahaan Sungai Lokan,Butterworth,13800,6043563727,https://www.eurospan.com.my,"Furnishings, Fixtures & Appliances",Consumer Cyclical,
EVD BERHAD,0174,"No. 5, Jalan Kajibumi U1/70",Kawasan Perindustrian Temasya,Shah Alam,40150,60351914390,https://www.evd-berhad.com,Software - Application,Technology,
EVERGREEN FIBREBOARD BERHAD,5101,Parit Raja Industrial Estate,PLO 22 Parit Raja,Batu Pahat,86400,6074541933,https://evergreengroup.com.my,"Furnishings, Fixtures & Appliances",Consumer Cyclical,2056.0
EVERSAFE RUBBER BERHAD,0190,Lebuh Portland,Lot 94 Tasek Industrial Estate,Ipoh,31400,6052910599,https://www.eversafe.com.my,Auto Parts,Consumer Cyclical,
EVERSENDAI CORPORATION BERHAD,5205,Jalan Industri 3/6,Lot 19956 Rawang Integrated Industrial Park,Rawang,48000,60360912575,https://www.eversendai.com,Engineering & Construction,Industrials,
EWEIN BERHAD,7249,Menara IJM Land,"Suite 1-01-02 No. 1, Lebuh Tunku Kudin 3",Gelugor,11700,6042910036,https://www.eweinberhad.com,Real Estate - Development,Real Estate,
EXCEL FORCE MSC BERHAD,0065,MYEG Tower,"Level 31 Empire City No. 8, Jalan Damansara, PJU 8",Petaling Jaya,47820,60377352288,https://www.excelforce.com.my,Software - Application,Technology,
FACB INDUSTRIES INCORPORATED BERHAD,2984,Etiqa Twins,"Level 13, Tower 1 11 Jalan Pinang",Kuala Lumpur,50450,60321620060,https://www.facbi.com,"Furnishings, Fixtures & Appliances",Consumer Cyclical,
FAJARBARU BUILDER GROUP BHD,7047,"No. 61 & 63, Jalan SS6/12",Kelana Jaya,Petaling Jaya,47301,60378049698,https://fajarbaru.com.my,Engineering & Construction,Industrials,
FAR EAST HOLDINGS BERHAD,5029,Menara Zenith,Level 23 Jalan Putra Square 6,Kuantan,25200,6095141936,https://fehb.com.my,Farm Products,Consumer Defensive,948.0
FARLIM GROUP (MALAYSIA) BHD,6041,"No. 1, Lintang Angsana",Bandar Baru,Ayer Itam,11500,6048298899,https://www.farlim.com.my,Real Estate - Diversified,Real Estate,59.0
FARM FRESH BERHAD,5306,"No.11-1, Jalan Petaling",Kawasan Perindustrian Larkin,Johor Bahru,80350,6072323463,https://www.farmfresh.com.my,Packaged Foods,Consumer Defensive,
FAST ENERGY HOLDINGS BERHAD,0084,"No. 1, Jalan Dutamas 1",B2-1-12 Solaris Dutamas,Kuala Lumpur,50480,60364136680,https://fastenergy.com.my,Tools & Accessories,Industrials,18.0
FAVELLE FAVCO BERHAD,7229,"Lot 586, 2nd Mile",Jalan Batu Tiga Lama,Klang,41300,60333495465,https://www.favellefavco.com,Farm & Heavy Construction Machinery,Industrials,439.0
FCW HOLDINGS BERHAD,2755,Menara JKG,"29th Floor No.282, Jalan Raja Laut",Kuala Lumpur,50350,60327758199,https://www.fcw.com.my,Household & Personal Products,Consumer Defensive,
FEDERAL INTERNATIONAL HOLDINGS BERHAD,8605,Menara Choy Fook On,"Level P1 No. 1B, Jalan Yong Shook Lin Section 7",Petaling Jaya,46050,60379559937,https://www.fihb.my,Residential Construction,Consumer Cyclical,
FGV HOLDINGS BERHAD,5222,Wisma FGV,Level 21 Jalan Raja Laut,Kuala Lumpur,50350,60327890000,https://www.fgvholdings.com,Farm Products,Consumer Defensive,16812.0
FIAMMA HOLDINGS BERHAD,6939,Wisma Fiamma,"No. 20, Jalan 7A/62A Bandar Manjalara",Kuala Lumpur,52200,60362798888,https://www.fiamma.com.my,"Furnishings, Fixtures & Appliances",Consumer Cyclical,
FIBON BERHAD,0149,"12A, Jalan 20",Taman Sri Kluang,Kluang,86000,6077736918,https://www.fibon.com.my,Electrical Equipment & Parts,Industrials,
FIBROMAT (M) BERHAD,03026,,,,,,,,,
FIMA CORPORATION BERHAD,3107,"Plaza Damansara, Block C","Suite 4.1, Level 4 No.45 Jalan Medan Setia 1 Bukit Damansara",Kuala Lumpur,50490,60320921211,https://www.fimacorp.com,Specialty Business Services,Industrials,1176.0
FINTEC GLOBAL BERHAD,0150,Menara Lien Hoe,"Lot 13.1, Level 13 No. 8, Persiaran Tropicana Tropicana Golf & Country Resort",Petaling Jaya,47410,60376226988,https://www.fintec.global,Asset Management,Financial Services,
FITTERS DIVERSIFIED BERHAD,9318,"No. 1, Jalan Tembaga SD 5/2",Bandar Sri Damansara,Kuala Lumpur,52200,60362767155,https://www.fittersgroup.com,Conglomerates,Industrials,
FLEXIDYNAMIC HOLDINGS BERHAD,0231,"A-3A-28, IOI Boulevard",Jalan Kenari 5 Bandar Puchong Jaya,Puchong,47170,60380791878,https://www.flexidynamic.com,Specialty Industrial Machinery,Industrials,75.0
FM GLOBAL LOGISTICS HOLDINGS BERHAD,7210,Lebuh Sultan Mohamed 1,Lot 37 Kawasan Perindustrian Bandar Sultan Sule,Port Klang,42000,60331761111,https://www.fmgloballogistics.com,Integrated Freight & Logistics,Industrials,
FOCUS DYNAMICS GROUP BERHAD,0116,"Lot 12.1, Menara Lien Hoe","12th Floor No. 8, Persiaran Tropicana Tropicana Golf & Country Resort",Petaling Jaya,47410,60378037333,https://www.focusdynamics.com.my,Restaurants,Consumer Cyclical,
FOCUS LUMBER BERHAD,5197,Mile 3,Jalan Masak Kampung Ulu Patikang Locked Bag 13SM-88,Keningau,89009,6087335457,https://www.focuslumber.com.my,Lumber & Wood Production,Basic Materials,557.0
FOCUS POINT HOLDINGS BERHAD,0157,"Unit 1, 3, 5 & 7, Jalan PJU 1/37",Dataran Prima,Petaling Jaya,47301,60378805520,https://www.focus-point.com.my,Medical Instruments & Supplies,Healthcare,569.0
FORMOSA PROSONIC INDUSTRIES BERHAD,9172,Taiwanese Industrial Park,"2, Jalan Sultan Mohamed 1 Bandar Sultan Suleiman",Port Klang,42000,60331762700,https://www.fp-group.com,Consumer Electronics,Technology,2672.0
FOUNDPAC GROUP BERHAD,5277,"Plot 35, Hilir Sungai Keluang 2",Bayan Lepas Industrial Estate Non-Free Industrial Zone Phase IV,Bayan Lepas,11900,6046309336,https://www.foundpac.com,Semiconductor Equipment & Materials,Technology,
FRASER & NEAVE HOLDINGS BHD,3689,"No. 1, Jalan Bukit Belimbing 26/38",Persiaran Kuala Selangor Seksyen 26,Shah Alam,40400,60351014288,https://www.fn.com.my,Beverages - Non-Alcoholic,Consumer Defensive,2472.0
FRONTKEN CORPORATION BERHAD,0128,Pusat Dagangan Phileo Damansara 1,"Suite 301, Block F No. 9, Jalan 16/11 Off Jalan Damansara",Petaling Jaya,46350,60379683312,https://frontken.com,Specialty Business Services,Industrials,
FSBM HOLDINGS BERHAD,9377,"A-2-6, Glomac Damansara","No. 699, Jalan Damansara",Kuala Lumpur,6000,60379322313,https://www.fsbm.com.my,Electronics & Computer Distribution,Technology,
FTSE BURSA MALAYSIA KLCI ETF,0820EA,,,,,,,,,
G CAPITAL BERHAD,7676,Pusat Komersial Southgate,"D-5-10, Block D No 2 Jalan Dua, off Jalan Chan Sow Lin",Kuala Lumpur,55200,60392261222,https://www.gcapital.com.my,Railroads,Industrials,
G3 GLOBAL BERHAD,7184,Gamuda Walk,"L2-17 & L2-18, Level 2 Persiaran Anggerik Vanilla Seksyen 31, Kota Kemuning",Shah Alam,40460,60358858578,https://www.g3global.com.my,Communication Equipment,Technology,14.0
GABUNGAN AQRS BERHAD,5226,"G-58, Blok G","Jalan Teknologi 3/9 Bistari 'De' Kota Kota Damansara, PJU 5",Petaling Jaya,47810,60361418181,https://www.gbg.com.my,Engineering & Construction,Industrials,183.0
GADANG HOLDINGS BHD,9261,Wisma Gadang,"No. 52, Jalan Tago 2 Off Jalan Persiaran Utama Sri Damansara",Kuala Lumpur,52200,60362796288,https://www.gadang.com.my,Engineering & Construction,Industrials,575.0
GAGASAN NADI CERGAS BERHAD,0206,F-1 @ 8 Suria,33 Jalan PJU 1/42,Petaling Jaya,47301,60378873388,https://www.nadicergas.com,Real Estate - Development,Real Estate,132.0
GAMUDA BERHAD,5398,Menara Gamuda,"D-16-01, Block D, PJ Trade Centre No. 8, Jalan PJU8/8A Bandar Damansara Perdana",Petaling Jaya,47820,60374918288,https://gamuda.com.my,Engineering & Construction,Industrials,
GAS MALAYSIA BERHAD,5209,"No. 5, Jalan Serendah 26/17",Seksyen 26 Peti Surat 7901,Shah Alam,40732,60351923000,https://www.gasmalaysia.com,Utilities - Regulated Gas,Utilities,581.0
GDB HOLDINGS BERHAD,0198,Sekitar 26 Enterprise,"A-02-01, F-02-01 & F-02-02 Persiaran Hulu Selangor Seksyen 26",Shah Alam,40400,60351038162,https://www.gdbhb.com.my,Engineering & Construction,Industrials,115.0
GDEX BERHAD,0078,No. 19 Jalan Tandang,,Petaling Jaya,46050,60377872222,https://www.gdexpress.com,Integrated Freight & Logistics,Industrials,219.0
GENETEC TECHNOLOGY BERHAD,0104,Seksyen 10,"Lot 7, Jalan P10/11 Kawasan Perusahaan Bangi",Bandar Baru Bangi,43650,60389266388,https://www.genetec.net,Specialty Industrial Machinery,Industrials,345.0
GENTING BERHAD,3182,Wisma Genting,24th Floor Jalan Sultan Ismail,Kuala Lumpur,50250,60321782288,https://www.genting.com,Resorts & Casinos,Consumer Cyclical,
GENTING MALAYSIA BERHAD,4715,Wisma Genting,14th Floor Jalan Sultan Ismail,Kuala Lumpur,50250,60321782288,https://www.gentingmalaysia.com,Resorts & Casinos,Consumer Cyclical,
GENTING PLANTATIONS BERHAD,2291,Wisma Genting,10th Floor Jalan Sultan Ismail,Kuala Lumpur,50250,60321782255,https://www.gentingplantations.com,Farm Products,Consumer Defensive,
GEORGE KENT (MALAYSIA) BERHAD,3204,George Kent Technology Centre,"1115, Blok A Jalan Puchong Taman Meranti Jaya",Puchong,47120,60380648000,https://www.georgekent.net,Engineering & Construction,Industrials,225.0
GE-SHEN CORPORATION BERHAD,7197,Menara MBMR,Unit No. 13-05 & 13-07 Level 13 No. 1 Jalan Syed Putra Utara,Kuala Lumpur,58000,60327850975,https://www.gscorp.com.my,Metal Fabrication,Industrials,1046.0
GFM SERVICES BERHAD,0039,"A-3A-1, Melawati Corporate Centre",Jalan Bandar Melawati Taman Melawati,Kuala Lumpur,53100,60341010555,https://www.gfmservices.com.my,Specialty Business Services,Industrials,
GHL SYSTEMS BERHAD,0021,"C-G-15, Block C","Jalan Dataran SD1 Dataran SD, PJU 9 Bandar Sri Damansara",Kuala Lumpur,52200,60362863388,https://www.ghl.com,Information Technology Services,Technology,899.0
GIIB HOLDINGS BERHAD,7192,Nilai Industrial Estate,"Lot PT 1654 & PT 1657 UOA Business Park Jln Pengaturcara U1/51A, Kawasan Perindu",Nilai,71800,6067994833,https://www.giibworld.com,Auto Parts,Consumer Cyclical,
GLOBAL ORIENTAL BERHAD,1147,Persiaran Equine Perdana,"G1-08, Galleria 2 Taman Equine",Seri Kembangan,43300,60389417878,https://www.gob.com.my,Real Estate - Development,Real Estate,155.0
GLOBALTEC FORMATION BERHAD,5220,Menara Q Sentral,"Unit 23A-12 No. 2A, Jalan Stesen Sentral 2 Kuala Lumpur Sentral",Kuala Lumpur,50470,60322760195,https://www.globaltec.com.my,Auto Parts,Consumer Cyclical,
GLOBETRONICS TECHNOLOGY BERHAD,7022,Free Industrial Zone,Plot 2 Phase 4,Bayan Lepas,11900,6046444906,https://www.globetronics.com.my,Semiconductors,Technology,733.0
GLOMAC BERHAD,5020,Menara Glomac,Level 15 Glomac Damansara Jalan Damansara,Kuala Lumpur,60000,60377239000,https://www.glomac.com.my,Real Estate - Diversified,Real Estate,182.0
GOLDEN LAND BERHAD,7382,"A-09-03, Empire Tower",Empire Subang Jalan SS16/1,Subang Jaya,47500,60356118844,https://www.glbhd.com,Real Estate - Development,Real Estate,
GOLDEN PHAROS BERHAD,5649,"66-2, Taman Sri Intan",Jalan Sultan Omar,Kuala Terengganu,20300,6096301330,https://www.goldenpharos.com.my,Lumber & Wood Production,Basic Materials,298.0
GOPENG BERHAD,2135,"A-17-15, Menara UOA Bangsar","Level 17 No. 5, Jalan Bangsar Utama 1",Kuala Lumpur,59000,60322877577,https://www.gopeng.com.my,Farm Products,Consumer Defensive,
GPP RESOURCES BERHAD,03029,"No. 7, Jalan Sungai Tiram 1",,Ulu Tiram,81800,6072882202,https://www.gppresources.com,Solar,Technology,
GRAND CENTRAL ENTERPRISES BHD,5592,Hotel Grand Continental,10th Floor Jalan Belia/Jalan Raja Laut,Kuala Lumpur,50350,60326939333,https://www.ghihotels.com.my,Lodging,Consumer Cyclical,274.0
GREATECH TECHNOLOGY BERHAD,0208,Plot 287(A),Lengkok Kampung Jawa Satu Bayan Lepas Free Industrial Zone Phase 3,Bayan Lepas,11900,6046463260,https://greatech-group.com,Specialty Industrial Machinery,Industrials,1259.0
GREEN OCEAN CORPORATION BERHAD,0074,Persoft Tower,"DF2-10-01 (Unit 2), Level 10 6B Persiaran Tropicana Tropicana Golf & Country Resort",Petaling Jaya,47410,60376126538,https://www.greenoceancorp.com,Farm Products,Consumer Defensive,
GREEN PACKET BERHAD,0082,"The Ascent, Paradigm","B-23A-3 No. 1, Jalan SS 7/26A Kelana Jaya",Petaling Jaya,47301,60327146288,https://www.greenpacket.com,Telecom Services,Communication Services,186.0
GREENYIELD BERHAD,0136,"No. 1-19, MKH Boulevard",Jalan Bukit,Kajang,43000,60387368777,https://www.greenyield.com.my,Farm Products,Consumer Defensive,129.0
GROMUTUAL BERHAD,9962,"PH1, Austin 18",Jalan Austin Perdana 3 Taman Austin Perdana,Johor Bahru,81100,6072121333,https://www.gromutual.com,Real Estate - Diversified,Real Estate,55.0
GUAN CHONG BERHAD,5102,"Plo 273, Jalan Timah 2",Kawasan Perindustrian Pasir Gudang,Pasir Gudang,81700,6072548888,https://www.gcbcocoa.com,Confectioners,Consumer Defensive,1594.0
GUH HOLDINGS BERHAD,3247,Part of Plot 1240 & 1241,Phase 3 Bayan Lepas Free Industrial Zone,Bayan Lepas,11900,6046166333,https://www.guh.com.my,Electronic Components,Technology,
GUOCOLAND (MALAYSIA) BERHAD,1503,Guoco Tower,"Level 13 No. 6, Jalan Damanlela Damansara City, Bukit Damansara",Kuala Lumpur,50490,60327261000,https://www.guocoland.com.my,Real Estate - Development,Real Estate,
HAILY GROUP BERHAD,0237,"No. 3339, Jalan Pekeliling Tanjung 27",Kawasan Perindustrian Indahpura Kulai,Johor,81000,6076609888,https://www.haily.my,Engineering & Construction,Industrials,
HANDAL ENERGY BERHAD,7253,"C-L29-08, KL Trillion","338, Jalan Tun Razak",Kuala Lumpur,50400,60327335555,https://www.handalenergy.com,Oil & Gas Equipment & Services,Energy,118.0
HAP SENG CONSOLIDATED BERHAD,3034,Menara Hap Seng,21st Floor Jalan P. Ramlee,Kuala Lumpur,50250,60321725228,https://www.hapseng.com.my,Conglomerates,Industrials,9983.0
HAP SENG PLANTATIONS HOLDINGS BERHAD,5138,Menara Hap Seng,21st Floor Jalan P. Ramlee,Kuala Lumpur,50250,60321725228,https://www.hapsengplantations.com.my,Farm Products,Consumer Defensive,7747.0
HARBOUR-LINK GROUP BERHAD,2062,Wisma Harbour,Parkcity Commerce Square Jalan Tun Ahmad Zaidi,Bintulu,97000,6086318998,https://www.harbour.com.my,Integrated Freight & Logistics,Industrials,
HARN LEN CORPORATION BHD,7501,Johor Tower,6th Floor 15 Jalan Gereja,Johor Bahru,80100,6072221777,https://www.harnlen.com.my,Farm Products,Consumer Defensive,667.0
HARRISONS HOLDINGS (MALAYSIA) BERHAD,5008,Wisma Bumi Raya,"9th Floor, Unit 9A 10, Jalan Raja Laut",Kuala Lumpur,50350,60326983733,https://www.harrisons.com.my,Industrial Distribution,Industrials,1803.0
HARTALEGA HOLDINGS BERHAD,5168,"C-G-9, Jalan Dataran SD1","Dataran SD, PJU 9 Bandar Sri Damansara",Kuala Lumpur,52200,60362771733,https://www.hartalega.com.my,Specialty Chemicals,Basic Materials,7562.0
HARVEST MIRACLE CAPITAL BERHAD,0060,"9-3A, Oval Tower","No. 685, Jalan Damansara TTDI",Kuala Lumpur,60000,60377339340,https://www.hmcap.my,Information Technology Services,Technology,
HB GLOBAL LIMITED,5187,VIDA Bukit Ceylon,"6th Floor 1D, Jalan Ceylon Bukit Ceylon",Kuala Lumpur,50200,60327333388,https://www.hbglob.com,Packaged Foods,Consumer Defensive,
HCK CAPITAL GROUP BERHAD,7105,HCK Tower (J-40-1),"No. 8 Jalan Damansara Level 40 Empire City, PJU 8",Petaling Jaya,47820,60379688668,https://www.hckgroup.my,Real Estate - Development,Real Estate,
HEINEKEN MALAYSIA BERHAD,3255,Sungei Way Brewery,"Lot 1135, Batu 9 Jalan Klang Lama",Petaling Jaya,46000,60378614688,https://www.heinekenmalaysia.com,Beverages - Brewers,Consumer Defensive,549.0
HEITECH PADU BERHAD,5028,HeiTech Village,"Level 15 Persiaran Kewajipan, USJ 1 UEP Subang Jaya",Subang Jaya,47600,60380268888,https://www.heitech.com.my,Information Technology Services,Technology,529.0
HEKTAR REAL ESTATE INVESTMENT TRUST,5121,"D1-U3-10, Solaris Dutamas","No 1, Jalan Dutamas 1 Sri Hartamas",Kuala Lumpur,50480,60362055570,https://www.hektarreit.com,REIT - Retail,Real Estate,
HENG HUAT RESOURCES GROUP BERHAD,0175,"Lot 2945 (Plot A2), Jalan Sungai Baong",Kawasan Perindustrian Perabut Mukim 5 Sungai Baong,Sungai Bakap,14200,6045825888,https://www.hhrg.com.my,Farm Products,Consumer Defensive,
HENGYUAN REFINING COMPANY BERHAD,4324,Batu 1,Jalan Pantai,Port Dickson,71000,6066412000,https://www.hrc.com.my,Oil & Gas Refining & Marketing,Energy,327.0
HEVEABOARD BERHAD,5095,Batu 3 Jalan Tampin,Lot 1942,Gemas,73400,6079484745,https://www.heveaboard.com.my,Lumber & Wood Production,Basic Materials,1958.0
HEXTAR GLOBAL BERHAD,5151,"No. 64, Jalan Bayu Laut 4/KS09",Kota Bayuemas Selangor Darul Ehsan,Klang,41200,60330033333,https://www.hextarglobal.com,Agricultural Inputs,Basic Materials,500.0
HEXTAR HEALTHCARE BERHAD,7803,"Lot 138201, Off 3/4 Mile",Jalan Bercham Kawasan Perindustrian Bercham,Ipoh,31400,6055482723,https://www.rubberex.com.my,Specialty Chemicals,Basic Materials,775.0
HEXTAR INDUSTRIES BERHAD,0161,"No.63 & 64, Jalan Bayu Laut 4/KS09",Kota Bayuemas,Klang,41200,60330033333,https://www.hextarindustries.com,Agricultural Inputs,Basic Materials,319.0
HEXTAR TECHNOLOGIES SOLUTIONS BERHAD,5136,"No. 64, Jalan Bayu Laut 4/KS09",Kota Bayuemas,Klang,41200,60330033333,https://hextartech.com,Integrated Freight & Logistics,Industrials,107.0
HEXZA CORPORATION BERHAD,3298,Persiaran Tasek,Lot 6 & 20 Kawasan Perindustrian Tasek,Ipoh,31400,6052917823,https://www.hexza.com.my,Specialty Chemicals,Basic Materials,
HIAP HUAT HOLDINGS BERHAD,0160,"Lot 102521, Jalan Sungai Pinang 5/3",Kawasan Perindustrian Pulau Indah Fasa 2 Pulau Indah,Klang,42920,60338849368,https://www.hiaphuat.com,Oil & Gas Refining & Marketing,Energy,
HIAP TECK VENTURE BERHAD,5072,"Lot 6096, Jalan Haji Abdul Manan",Batu 5-1/2 Off Jalan Meru,Klang,41050,60333778888,https://www.htgrp.com.my,Steel,Basic Materials,
HIBISCUS PETROLEUM BERHAD,5199,Syed Kechik Foundation Building,2nd Floor Jalan Kapas Bangsar,Kuala Lumpur,59100,60320921300,https://www.hibiscuspetroleum.com,Oil & Gas E&P,Energy,
HIL INDUSTRIES BERHAD,8443,"Lot 3, Jalan Lada Sulah 16/11",Section 16,Shah Alam,40000,60355100501,https://www.hil.com.my,Metal Fabrication,Industrials,
HLT GLOBAL BERHAD,0188,"No.6, Jalan Industri Mas 7",Taman Mas,Puchong,47130,60380683616,https://www.hltglobal.com.my,Specialty Industrial Machinery,Industrials,
HO HUP CONSTRUCTION COMPANY BHD,5169,Hohup Tower,"Level 18 No. 1, Persiaran Jalil 1 Bandar Bukit Jalil",Kuala Lumpur,57000,60350332788,https://www.hohupgroup.com.my,Engineering & Construction,Industrials,211.0
HO WAH GENTING BERHAD,9601,Wisma Ho Wah Genting,"1st Floor, No. 35, Jalan Maharajalela",Kuala Lumpur,50150,60321438811,https://www.hwgenting.com.my,Electrical Equipment & Parts,Industrials,513.0
HOMERITZ CORPORATION BERHAD,5160,Lot 8726,PTD 6023 Batu 8 Kawasan Perindustrian Bukit Bakri,Muar,84200,6069865000,https://www.homeritzcorp.com,"Furnishings, Fixtures & Appliances",Consumer Cyclical,
HONG LEONG BANK BERHAD,5819,Menara Hong Leong,"No. 6, Jalan Damanlela Bukit Damansara",Kuala Lumpur,50490,60320809888,https://www.hlb.com.my,Banks - Regional,Financial Services,8073.0
HONG LEONG CAPITAL BERHAD,5274,Menara Hong Leong,Level 28 No. 6 Jalan Damanlela Bukit Damansara,Kuala Lumpur,50490,60320831800,https://www.hlcap.com.my,Capital Markets,Financial Services,535.0
HONG LEONG FINANCIAL GROUP BERHAD,1082,Menara Hong Leong,"Level 30 No. 6, Jalan Damanlela Bukit Damansara",Kuala Lumpur,50490,60320809888,https://www.hlfg.com.my,Banks - Regional,Financial Services,
HONG LEONG INDUSTRIES BERHAD,3301,Menara Hong Leong,"Level 31 No. 6, Jalan Damanlela Bukit Damansara",Kuala Lumpur,50490,60320809200,https://www.hli.com.my,Auto Manufacturers,Consumer Cyclical,2435.0
HONG SENG CONSOLIDATED BERHAD,0041,Plaza Glomac,"C-01-3, Block C No. 6, Jalan SS 7/19 Kelana Jaya",Petaling Jaya,47301,60378871666,https://www.hongseng.com.my,Conglomerates,Industrials,
HPMT HOLDINGS BERHAD,5291,"No. 5, Jalan Sungai Kayu Ara 32/39",Taman Berjaya Seksyen 32,Shah Alam,40460,60357402218,https://www.hpmt-industries.com,Tools & Accessories,Industrials,305.0
HPP HOLDINGS BERHAD,0228,"No. 37, Jalan TTC 29",Taman Teknologi Cheng,Malacca,75250,6063356485,https://www.hppholdings.com,Packaging & Containers,Consumer Cyclical,330.0
HSS ENGINEERS BERHAD,0185,"B1 (1-4), Block B, Plaza Dwitasik","No. 21, Jalan 5/106 Bandar Sri Permaisuri",Kuala Lumpur,56000,60391730355,https://www.hssgroup.com.my,Engineering & Construction,Industrials,860.0
HUA YANG BERHAD,5062,"C-21, Jalan Medan Selayang 1",4th Floor Medan Selayang,Batu Caves,68100,60361884488,https://www.huayang.com.my,Real Estate - Development,Real Estate,79.0
HUBLINE BERHAD,7013,Jalan Krokop Utama,"2nd Floor, Block 7A-F Lot 12, MCLD",Miri,98000,,https://www.hubline.com,Marine Shipping,Industrials,
HUME CEMENT INDUSTRIES BERHAD,5000,Wisma Hume,"Level 5 Block D 15A, Jalan 51A/219",Petaling Jaya,46100,60378669000,https://www.humecementind.com,Building Materials,Basic Materials,
HUP SENG INDUSTRIES BERHAD,5024,"14, Jalan Kilang",Kawasan Perindustrian Tongkang Pecah,Batu Pahat,83010,6074151211,https://www.hsib.com.my,Packaged Foods,Consumer Defensive,969.0
HWA TAI INDUSTRIES BERHAD,8478,"No. L9, Jalan ML 16",ML-16 Industrial Park,Seri Kembangan,43300,60389645600,https://www.hwatai.com,Packaged Foods,Consumer Defensive,
I-BERHAD,4251,Mercu Maybank,Level 31 i-City Selangor Golden Triangle,Shah Alam,40000,60355218800,https://www.i-bhd.com,Real Estate - Development,Real Estate,232.0
IBRACO BERHAD,5084,No.6 The NorthBank,Off Kuching-Samarahan Expressway,Kuching,93350,6082361111,https://www.ibraco.com,Real Estate - Diversified,Real Estate,
ICAPITAL.BIZ BERHAD,5108,,,,,,,,,
ICON OFFSHORE BERHAD,5255,"16-01, Menara Tan & Tan",Level 16 207 Jalan Tun Razak,Kuala Lumpur,50450,60327700500,https://www.iconoffshore.com.my,Oil & Gas Equipment & Services,Energy,65.0
ICONIC WORLDWIDE BERHAD,9113,"No. 1-2, Jalan Icon City",Icon City,Bukit Mertajam,14000,6045040588,https://www.iconicworldwide.com.my,Medical Instruments & Supplies,Healthcare,
ICT ZONE ASIA BERHAD,03038,"Block H, Excella Business Park",Ground Floor Jalan Ampang Putra,Kuala Lumpur,55100,60342895288,https://www.ictzone.asia,Information Technology Services,Technology,50.0
IDB TECHNOLOGIES BERHAD,03030,"C5-3, Radius Business Park",Jalan Teknokrat 2/1 Cyber 4,Cyberjaya,63000,60388008351,https://www.idb.com.my,Software - Application,Technology,
IDEAL CAPITAL BERHAD,9687,"No. 71-5, Ideal @ The One",Jalan Mahsuri,Bayan Lepas,11950,6046416888,https://www.idealcapital.com.my,Real Estate - Development,Real Estate,
IFCA MSC BERHAD,0023,Wisma IFCA,"No 19, Jalan PJU 1/42A Dataran Prima",Petaling Jaya,47301,60378053838,https://www.ifca.asia,Software - Application,Technology,532.0
IGB BERHAD,5606,The Gardens South Tower,Level 32 Mid Valley City Lingkaran Syed Putra,Kuala Lumpur,59200,60322898989,https://www.igbbhd.com,Real Estate Services,Real Estate,
IGB COMMERCIAL REAL ESTATE INVESTMENT TRUST,5299,The Gardens South Tower,Level 32 Mid Valley City Lingkaran Syed Putra,Kuala Lumpur,59200,60322898989,https://www.igbcomreit.com,REIT - Office,Real Estate,
IGB REAL ESTATE INVESTMENT TRUST,5227,"Level 32, The Gardens South Tower","Mid Valley City, Lingkaran Syed Putra",Kuala Lumpur,59200,603-2289-8989,https://www.igbreit.com/,REIT - Retail,Real Estate,
IHH HEALTHCARE BERHAD,5225,Pantai Hospital Kuala Lumpur,"Level 11, Block A 8 Jalan Bukit Pantai",Kuala Lumpur,59100,60322989898,https://www.ihhhealthcare.com,Medical Care Facilities,Healthcare,65000.0
IHSAN SUKUK-ETBS 4.60%0824,0401GA,,,,,,,,,
IJM CORPORATION BERHAD,3336,Wisma IJM,Jalan Yong Shook Lin,Petaling Jaya,46050,60379858288,https://www.ijm.com,Conglomerates,Industrials,2598.0
ILB GROUP BERHAD,5614,"No. 6, Jalan Sungai Buloh 27/101A",Seksyen 27,Shah Alam,40400,60356142555,https://www.ilb.com.my,Utilities - Renewable,Utilities,35.0
IMASPRO CORPORATION BERHAD,7222,"37, Jalan 5",Kawasan 16 Taman Intan,Klang,41300,60333431633,https://www.imaspro.com,Agricultural Inputs,Basic Materials,
IMPIANA HOTELS BERHAD,7243,HO HUP TOWER - AURORA PLACE,"2-07-01 - LEVEL 7 PLAZA BUKIT JALIL NO. 1, PERSIARAN JALIL 1, BANDAR BUKIT JALIL",Kuala Lumpur,57000,60397791700,https://impianaberhad.com,Lodging,Consumer Cyclical,
INARI AMERTRON BERHAD,0166,"D-07-03, Plaza Kelana Jaya",Jalan SS 7/13A Kelana Jaya,Petaling Jaya,47301,60378760169,https://www.inari-amertron.com,Semiconductor Equipment & Materials,Technology,
INCH KENNETH KAJANG RUBBER PUBLIC LTD CO,2607,Menara KH (Promet),22nd Floor Jalan Sultan Ismail,Kuala Lumpur,50250,60321444446,https://www.ikkr.com.my,Resorts & Casinos,Consumer Cyclical,192.0
INDUSTRONICS BERHAD,9393,MENARA HLX,"LEVEL 23-02 NO. 3, JALAN KIA PENG",Kuala Lumpur,50450,60348114296,https://industronics.com.my,Electronic Components,Technology,
INFOLINE TEC GROUP BERHAD,0253,"No.53-3, Jalan PJU 5/20E",Pusat Perdagangan Kota Damansara,Petaling Jaya,47810,60361480890,https://www.infolinetec.com,Software - Infrastructure,Technology,40.0
INFOMINA BERHAD,0265,"BO3-C-12-1, Menara 3A","No. 3, Jalan Bangsar KL Eco City",Kuala Lumpur,59200,60322017188,https://www.infomina.co,Information Technology Services,Technology,
INFRAHARTA HOLDINGS BERHAD,7240,Wisma Miramas,"Unit 9-1 & 9-2, Level 9 1, Jalan 2/109E Taman Desa",Kuala Lumpur,58100,60379721331,https://www.vertice.com.my,Engineering & Construction,Industrials,
INGENIEUR GUDANG BERHAD,5178,"NO. 3, JALAN TP2",Ground Floor Taman Perindustrian Uep Subang Jaya,Subang Jaya,47600,60378662303,https://www.ingenieur.com.my/landing,Steel,Basic Materials,
INNATURE BERHAD,5295,"No. 5, Jalan USJ 10/1C",,Subang Jaya,47620,60356324313,https://innature.com.my,Specialty Retail,Consumer Cyclical,632.0
INNITY CORPORATION BERHAD,0147,Kelana Square,"C501 & C502, Block C 17, Jalan SS 7/26 Kelana Jaya",Petaling Jaya,47301,60378805611,https://www.innity.com,Advertising Agencies,Communication Services,282.0
INNOPRISE PLANTATIONS BERHAD,6262,Menara Tun Mustapha,6th Floor Likas Bay,Kota Kinabalu,88400,6088326415,https://www.innoprise.com.my,Farm Products,Consumer Defensive,2219.0
INSAS BERHAD,3379,The Gardens South Tower,"Suite 23.02, Level 23 Mid Valley City Lingkaran Syed Putra",Kuala Lumpur,59200,60322829311,https://www.insas.net,Capital Markets,Financial Services,
INTA BINA GROUP BERHAD,0192,Jalan SS15/8A,"No. 13, 15 & 17 (1st Floor) Subang Jaya",Petaling Jaya,47500,60356379093,https://intabina.com,Engineering & Construction,Industrials,739.0
IOI CORPORATION BERHAD,1961,IOI City Tower 2,"Level 29 Lebuh IRC, IOI Resort City",Putrajaya,62502,60389478888,https://www.ioigroup.com,Packaged Foods,Consumer Defensive,
IOI PROPERTIES GROUP BERHAD,5249,IOI City Tower 2,Level 29 Lebuh IRC IOI Resort City,Putrajaya,62502,60389478888,https://www.ioiproperties.com.my,Real Estate - Development,Real Estate,
IQ GROUP HOLDINGS BERHAD,5107,Jalan Sultan Azlan Shah,Plot 149 Taman Perindustrian Bayan Lepas Fasa 1 (FTZ),Bayan Lepas,11900,6046446677,https://www.iq-group.com,Security & Protection Services,Industrials,620.0
IQZAN HOLDING BERHAD,7183,"Vertical Business Suite, Tower A","Unit 25-7, Level 25 Jalan Kerinchi Bangsar South",Kuala Lumpur,59200,6044924422,https://www.iqzan.com,Conglomerates,Industrials,
IREKA CORPORATION BERHAD,8834,Wisma Mont’ Kiara,"Level 18 No. 1, Jalan Kiara Mont’ Kiara",Kuala Lumpur,50480,60364116388,https://www.ireka.com.my,Engineering & Construction,Industrials,
IRIS CORPORATION BERHAD,0010,IRIS Smart Technology Complex,Technology Park Malaysia Bukit Jalil,Kuala Lumpur,57000,60389960788,https://www.iris.com.my,Business Equipment & Supplies,Industrials,512.0
ISKANDAR WATERFRONT CITY BERHAD,1589,"No. G 08, Block 8",Danga Bay Jalan Skudai,Johor Bahru,80200,6072333888,https://www.iwcity.com.my,Real Estate - Development,Real Estate,30.0
ITMAX SYSTEM BERHAD,5309,"No. 30-G & 30-3, Jalan Radin Bagus 3",Seri Petaling,Kuala Lumpur,57000,60390548333,https://www.itmax.com.my,Security & Protection Services,Industrials,152.0
IVORY PROPERTIES GROUP BERHAD,5175,Ivory Tower,"Penang Times Square 81-11-1, Jalan Dato’ Keramat",George Town,10150,6042108000,https://www.ivory.com.my,Real Estate - Diversified,Real Estate,145.0
JADE MARVEL GROUP BERHAD,7043,THE C.E.O.,"Unit 31-16-3, Lebuh Nipah 5",Bayan Lepas,11950,6046046899,https://www.jademarvel.com.my,Building Materials,Basic Materials,
JADI IMAGING HOLDINGS BERHAD,7223,"No. 1, Jalan Peguam U1/25A",Seksyen U1 Hicom-Glenmarie Industrial Park,Shah Alam,40150,60378040333,https://www.jadi.com.my,Specialty Chemicals,Basic Materials,
JAG BERHAD,0024,"D65-3A, Jaya One","Block D 72A, Jalan Universiti",Petaling Jaya,46200,60374972558,https://www.jagb.com.my,Waste Management,Industrials,
JAKS RESOURCES BERHAD,4723,Pacific Towers,"Unit B-09-28, Tower B Jalan 13/6 Section 13",Petaling Jaya,46200,60376603333,https://www.jaks.com.my,Engineering & Construction,Industrials,124.0
JASA KITA BERHAD,8648,"No. 8, Jalan Segambut",3rd Floor,Kuala Lumpur,51200,60361951888,https://www.jasakita.com.my,Tools & Accessories,Industrials,46.0
JAYA TIASA HOLDINGS BHD,4383,"No. 1-9, Pusat Suria Permata",Lorong Upper Lanang 10A,Sibu,96000,6084213255,https://www.jayatiasa.net,Farm Products,Consumer Defensive,
JAYCORP BERHAD,7152,Lot 17.03,17th Floor Menara KH Jalan Sultan Ismail,Kuala Lumpur,50250,60321458108,https://www.jaycorp.com.my,"Furnishings, Fixtures & Appliances",Consumer Cyclical,
JCBNEXT BERHAD,0058,Wisma JcbNext,"8th floor No. 27, Lorong Medan Tuanku 1 Off Jalan Sultan Ismail",Kuala Lumpur,50300,60326922333,https://www.jcbnext.com,Asset Management,Financial Services,
JCY INTERNATIONAL BERHAD,5161,"No. 3, Jalan Firma 3",Kawasan Perindustrian Tebrau IV,Johor Bahru,81100,6073525822,https://www.jcyinternational.com,Computer Hardware,Technology,4727.0
JENTAYU SUSTAINABLES BERHAD,5673,Menara Milenium,Level 7 Pusat Bandar Damansara Damansara Heights,Kuala Lumpur,50490,60320849000,https://www.jentayu-sustainables.com,Conglomerates,Industrials,
JERASIA CAPITAL BERHAD,8931,,,,,,,,,
JF TECHNOLOGY BERHAD,0146,"Lot 6, Jalan Teknologi 3/6",Taman Sains Selangor 1 Kota Damansara,Petaling Jaya,47810,60361408668,https://www.jf-technology.com,Semiconductor Equipment & Materials,Technology,
JHM CONSOLIDATION BERHAD,0127,15-1-21 Bayan Point,Medan Kampung Relau,Penang,11900,6046465121,https://www.jhm.net.my,Electronic Components,Technology,1213.0
JIANKUN INTERNATIONAL BERHAD,8923,PJX-HM Shah Tower,"L21-03, Level 21 No.16A, Persiaran Barat",Petaling Jaya,46050,60379323666,https://www.jki.com.my,Real Estate - Development,Real Estate,
JISHAN BERHAD,03040,Jalan Bukit Panchor,Lot 20384 (PMT1900) Mukim 7,Nibong Tebal,14300,6045936680,https://www.jishan-group.com,Packaging & Containers,Consumer Cyclical,
JKG LAND BERHAD,6769,Wisma Keladi,"No. 11-A, Level 7 Jalan Bank",Sungai Petani,08000,6044232813,https://www.jkgland.com,Real Estate - Development,Real Estate,
JOE HOLDING BERHAD,7096,Lot 5031-5032,Jalan Teratai Off Jalan Meru,Klang,41050,60333929688,https://www.gp-products.com,Auto Parts,Consumer Cyclical,
JOHAN HOLDINGS BERHAD,3441,Wisma E&C,11th Floor No. 2 Lorong Dungun Kiri Damansara Heights,Kuala Lumpur,50490,60320921858,https://www.johanholdings.com,Credit Services,Financial Services,
K. SENG SENG CORPORATION BERHAD,5192,"Lot 3707, Jalan 7/5",Taman Industri Selesa Jaya,Balakong,43300,60389615555,https://www.kssc.com.my,Steel,Basic Materials,253.0
KAMDAR GROUP (M) BERHAD,8672,"No. 113, Jalan Tuanku Abdul Rahman",,Kuala Lumpur,50100,60326020562,https://www.kamdar.com.my,Textile Manufacturing,Consumer Cyclical,
KANGER INTERNATIONAL BERHAD,0170,"1 & 3, Jalan Alfa Impian 2",Taman Perindustrian Alfa Impian Balakong,Balakong,43300,60389644778,https://www.krbamboo.com,Lumber & Wood Production,Basic Materials,
KAREX BERHAD,5247,Persiaran Raja Lumu,Lot 594 Pandamaran Industrial Estate,Port Klang,42000,60331656688,https://www.karex.com.my,Household & Personal Products,Consumer Defensive,
KARYON INDUSTRIES BERHAD,0054,"No.1, Jalan Sri Plentong 6",Taman Perindustrian Sri Plentong,Masai,81750,6073864198,https://www.karyongroup.com.my,Specialty Chemicals,Basic Materials,248.0
KAWAN FOOD BERHAD,7216,Jalan Sungai Pinang 4/19,"Lot 129351 Taman Perindustrian Pulau Indah Selangor Halal Hub,Fasa 2C, Pulau Indah",Klang,42920,60330991188,https://www.kawanfood.com,Packaged Foods,Consumer Defensive,610.0
KECK SENG (MALAYSIA) BERHAD,3476,City Plaza,Suite 1301 13th Floor Jalan Tebrau,Johor Bahru,80300,6073322088,https://my.keckseng.com,Farm Products,Consumer Defensive,1137.0
KEIN HING INTERNATIONAL BERHAD,7199,Lot 1863,Jalan Kolej,Seri Kembangan,43300,60389486820,https://www.keinhing.com,Metal Fabrication,Industrials,498.0
KEJURUTERAAN ASASTERA BERHAD,0193,"No. 18, Jalan Radin Bagus 9",Bandar Baru Sri Petaling,Kuala Lumpur,57000,60390553812,https://www.kinergyadvancement.com,Engineering & Construction,Industrials,215.0
KELINGTON GROUP BERHAD,0151,Bukit Jelutong Industrial Park,"3, Jalan Astaka U8/83 Seksyen U8",Shah Alam,40150,60378455696,https://www.kelington-group.com,Engineering & Construction,Industrials,568.0
KEN HOLDINGS BERHAD,7323,The Space,"Menara KEN TTDI, Level 12 No. 37, Jalan Burhanuddin Helmi Taman Tun Dr. Ismail",Kuala Lumpur,60000,60377279933,https://www.kenholdings.com.my,Engineering & Construction,Industrials,
KENANGA INVESTMENT BANK BERHAD,6483,Kenanga Tower,"Level 17 237, Jalan Tun Razak",Kuala Lumpur,50400,60321722888,https://www.kenanga.com.my,Capital Markets,Financial Services,1355.0
KENANGA KLCI DAILY (-1X) INVERSE ETF,0835EA,,,,,,,,,
KENANGA KLCI DAILY 2X LEVERAGED ETF,0834EA,,,,,,,,,
KERJAYA PROSPEK GROUP BERHAD,7161,"No. 1, Jalan Wangsa Permai",2nd Floor Bangunan One Wangsa Taman Wangsa Permai,Kuala Lumpur,52200,60362772480,https://www.kerjayagroup.com,Engineering & Construction,Industrials,381.0
KERJAYA PROSPEK PROPERTY BERHAD,7077,Bangunan One Wangsa,"First Floor No. 1, Jalan Wangsa Permai Taman Wangsa Permai",Kuala Lumpur,52200,60362772666,https://www.kpproperty.com.my,Real Estate - Development,Real Estate,144.0
KESM INDUSTRIES BERHAD,9334,Sungei Way Free Trade Industrial Zone,Lot 4 Jalan SS 8/4,Petaling Jaya,47300,60378740000,https://www.kesmi.com,Semiconductors,Technology,
KEY ALLIANCE GROUP BERHAD,0036,"Lot 18.2, Menara Lien Hoe",18th Floor No. 8 Persiaran Tropicana Tropicana Golf and Country Resort,Petaling Jaya,47410,60378807725,https://www.kag.com.my,Conglomerates,Industrials,95.0
KEY ASIC BERHAD,0143,"No. 8, First Avenue","6th Floor, Unit 3 Bandar Utama",Petaling Jaya,47800,60376643300,https://www.keyasic.com,Semiconductors,Technology,41.0
KHEE SAN BERHAD,6203,Lot 1819 - 1824 & 1832,Jalan Kolej,Seri Kembangan,43300,60389431390,https://www.kheesanbhd.com,Confectioners,Consumer Defensive,
KHIND HOLDINGS BERHAD,7062,"No. 2, Jalan Astaka U8/82",Seksyen U8 Bukit Jelutong,Shah Alam,40150,60378392000,https://www.khind.com,"Furnishings, Fixtures & Appliances",Consumer Cyclical,
KIA LIM BERHAD,6211,Wisma Ng Hoo Tee,"79, Jalan Muar Parit Sulong",Batu Pahat,83500,6074187100,https://www.kialim.com.my,Building Materials,Basic Materials,
KIM HIN INDUSTRY BERHAD,5371,"4 1/2 Mile, Kung Phin Road",Off Penrissen Road,Kuching,93250,6082451567,https://www.kimhin.com.my,Building Materials,Basic Materials,1345.0
KIM HIN JOO (MALAYSIA) BERHAD,0210,Wisma Pang Cheng Yean,Lot 5205C Jalan Perindustrian Balakong Jaya 1/3 Kawasan Perindustrain Balakong Jaya,Seri Kembangan,43300,60389406638,https://www.khj-my.com,Specialty Retail,Consumer Cyclical,255.0
KIM LOONG RESOURCES BERHAD,5027,Public Bank Tower,"18th Floor Lot 18.01 19, Jalan Wong Ah Fook",Johor Bahru,80000,6072248316,https://www.kimloong.com.my,Farm Products,Consumer Defensive,1331.0
KIM TECK CHEONG CONSOLIDATED BERHAD,0180,"Lot 73, Jalan Kilang","SEDCO Light Industrial Estate Mile 5 1/2, Jalan Tuaran",Kota Kinabalu,88450,60138110111,https://kimteckcheong.com,Food Distribution,Consumer Defensive,
KIMLUN CORPORATION BERHAD,5171,Johor Bahru City Square,"Suite 19.06 Level 19 106-108, Jalan Wong Ah Fook",Johor Bahru,80000,6072228080,https://www.kimlun.com,Engineering & Construction,Industrials,
KIP REAL ESTATE INVESTMENT TRUST,5280,"Unit B-6, Block B","Tingkat 6, Menara KIP No.1, Jalan Seri Utara 1 Sri Utara Off",Kuala Lumpur,68100,60362591133,https://www.kipreit.com.my,REIT - Retail,Real Estate,18.0
KKB ENGINEERING BERHAD,9466,Jalan Kilang,Lot 865 Section 66 Bintawa Industrial Estate,Kuching,93450,6082333877,https://www.kkbeb.com.my,Metal Fabrication,Industrials,625.0
KLCC PROPERTY HOLDINGS BERHAD,5235SS,Levels 33 & 34,Menara Dayabumi Kompleks Dayabumi Jalan Sultan Hishamud,Kuala Lumpur,50050,60327836000,https://www.klcc.com.my,REIT - Diversified,Real Estate,946.0
KLUANG RUBBER COMPANY (MALAYA) BERHAD,2453,Kluang Estate,Batu 2 Jalan Mengkibol PO Box 64,Kluang,86007,,https://www.kluangrubber.com,Farm Products,Consumer Defensive,
KNM GROUP BERHAD,7164,"15, Jalan Dagang SB 4/1",Taman Sungai Besi Indah,Seri Kembangan,43300,60389463000,https://www.knm-group.com,Specialty Industrial Machinery,Industrials,
KNUSFORD BERHAD,5035,Tropez Residen,"#C-G-03, Blok C Persiaran Danga Perdana",Johor Bahru,80200,6072965555,https://www.knusford.com.my,Industrial Distribution,Industrials,
KOBAY TECHNOLOGY BERHAD,6971,Wisma Kobay,"3rd Floor No. 42-B, Jalan Rangoon",Georgetown,10400,6043711338,https://www.kobaytech.com,Metal Fabrication,Industrials,
KOMARKCORP BERHAD,7017,Kawasan Perindustrian Cheras Jaya,"Lot 132, Jalan 16/1 Cheras",Balakong,43200,60390803333,https://www.komark.com.my,Specialty Business Services,Industrials,201.0
K-ONE TECHNOLOGY BERHAD,0111,"66 & 68, Jalan SS 22/21",Damansara Jaya,Petaling Jaya,47400,60377281111,https://www.k-one.com,Electronic Components,Technology,285.0
KONSORTIUM TRANSNASIONAL BERHAD,4847,"No. 38, Jalan Chow Kit",Wisma Wahida,Kuala Lumpur,50350,60340477878,https://epicon.com.my,Railroads,Industrials,
KOSSAN RUBBER INDUSTRIES BERHAD,7153,Wisma Kossan,"Lot 782, Jalan Sungai Putus Off Batu 3 ¾ Jalan Kapar",Klang,42100,60332912657,https://www.kossan.com.my,Medical Instruments & Supplies,Healthcare,6000.0
KOTRA INDUSTRIES BERHAD,0002,Cheng Industrial Estate,"No. 1, 2 & 3, Jalan TTC 12",Malacca,75250,6063362222,https://www.kotrapharma.com,Drug Manufacturers - Specialty & Generic,Healthcare,
KPJ HEALTHCARE BERHAD,5878,Menara KPJ,"Level 12 238, Jalan Tun Razak",Kuala Lumpur,50400,60326816222,https://www.kpjhealth.com.my,Medical Care Facilities,Healthcare,16127.0
KPS CONSORTIUM BERHAD,9121,Jalan Lapis Dua,"Lot 622 Kampung Sementa, Batu 6 Jalan Kapar",Klang,42200,60332915566,https://www.kpsconsortium.com.my,Building Products & Equipment,Industrials,258.0
KRETAM HOLDINGS BERHAD,1996,Lot 6,Block 44 Leboh Tiga,Sandakan,90000,6089218999,https://www.kretam.com,Farm Products,Consumer Defensive,2895.0
KRONOLOGI ASIA BERHAD,0176,Axiata Tower,"Level 28-D No. 9, Jalan Stesen Sentral 5 Kuala Lumpur Sentral",Kuala Lumpur,50470,60327735700,https://kronologi.asia,Software - Application,Technology,
KSL HOLDINGS BERHAD,5038,Wisma KSL,"148, Batu 1 1/2 Jalan Buloh Kasap",Segamat,85000,6079311430,https://www.ksl.my,Real Estate - Diversified,Real Estate,528.0
KUALA LUMPUR KEPONG BERHAD,2445,Wisma Taiko,"No. 1, Jalan S.P. Seenivasagam",Ipoh,30000,6052408000,https://www.klk.com.my,Farm Products,Consumer Defensive,30745.0
KUB MALAYSIA BERHAD,6874,Hampshire Place Office,"Suite A-22-1, Level 22 157 Hampshire No. 1, Jalan Mayang Sari",Kuala Lumpur,50450,60327219600,https://www.kub.com,Utilities - Regulated Gas,Utilities,100.0
KUCHAI DEVELOPMENT BERHAD,2186,Foh Chong Building,8th Floor Jalan Ibrahim,Johor Bahru,80000,,https://www.kuchaidevelopment.com,Asset Management,Financial Services,
KUMPULAN FIMA BERHAD,6491,"Plaza Damansara, Block C","Suite 4.1, Level 4 No.45 Jalan Medan Setia 1 Bukit Damansara",Kuala Lumpur,50490,60320921211,https://www.fima.com.my,Conglomerates,Industrials,2458.0
KUMPULAN H & L HIGH-TECH BERHAD,7033,"No. 6, Jalan TSB 1",Taman Industri Sungai Buloh,Sungai Buloh,47000,60361576339,https://www.hlhightech.com,Metal Fabrication,Industrials,
KUMPULAN JETSON BERHAD,9083,Menara Tokio Marine Life,"11th Floor No. 189, Jalan Tun Razak",Kuala Lumpur,50400,60321622282,https://www.jetson.com.my,Specialty Chemicals,Basic Materials,
KUMPULAN KITACON BERHAD,5310,"No. 24, Jalan Rengas",Taman Selatan,Klang,41200,60333724162,https://www.kitacon.com.my,Real Estate - Development,Real Estate,551.0
KUMPULAN PERANGSANG SELANGOR BERHAD,5843,Plaza Perangsang,17th Floor Persiaran Perbandaran,Shah Alam,40000,60355248400,https://www.kps.com.my,Metal Fabrication,Industrials,2503.0
KYM HOLDINGS BERHAD,8362,KYM Tower,"Level 17 No. 8, Jalan PJU 7/6 Mutiara Damansara",Petaling Jaya,47800,60387033333,https://www.kym.com.my,Packaging & Containers,Consumer Cyclical,
L&P GLOBAL BERHAD,0268,"1328, Jalan Sungai Baong",Furniture Industrial Estate Sungai Bakap,Penang,14200,6045829980,https://lpglobalbhd.com,Integrated Freight & Logistics,Industrials,176.0
LAGENDA PROPERTIES BERHAD,7179,"No. 131, Persiaran PM2/1",Level 4 Pusat Bandar Seri Manjung Seksyen 2,Seri Manjung,32040,6056887179,https://www.lagendaproperties.com,Residential Construction,Consumer Cyclical,374.0
LAMBO GROUP BERHAD,0018,"Lot 11.1, Menara Lien Hoe","11th Floor No. 8, Persiaran Tropicana",Petaling Jaya,47410,,https://www.lambogroup.my,Internet Retail,Consumer Cyclical,
LAND & GENERAL BERHAD,3174,8trium,Level 21 Menara 1 Jalan Cempaka SD 12/5 Bandar Sri Damansara,Kuala Lumpur,52200,60362798000,https://land-general.com,Real Estate - Development,Real Estate,
LANDMARKS BERHAD,1643,Menara Haw Par,20th Floor Jalan Sultan Ismail,Kuala Lumpur,50250,60320260088,https://www.landmarks.com.my,Lodging,Consumer Cyclical,
LAY HONG BERHAD,9385,Wisma Lay Hong,"No. 2, Level 10-12 Jalan Empayar Off Persiaran Sultan Ibrahim/KU1",Klang,41150,60333434888,https://layhong.com.my/website/,Farm Products,Consumer Defensive,
LB ALUMINIUM BERHAD,9326,"Lot 11, Jalan Perusahaan 1",Kawasan Perusahaan Beranang Semenyih,Beranang,43700,60387258822,https://www.lbalum.com,Aluminum,Basic Materials,879.0
LBI CAPITAL BERHAD,8494,Jalan Bukit Kemuning,Lot 1282 Seksyen 32,Shah Alam,40460,60351225128,https://www.lbi-capital.com.my,Real Estate - Diversified,Real Estate,
LBS BINA GROUP BERHAD,5789,Plaza Seri Setia,"Level 1-4 No. 1, Jalan SS9/2",Petaling Jaya,47300,60378777333,https://www.lbs.com.my,Real Estate - Development,Real Estate,468.0
LEADER STEEL HOLDINGS BERHAD,9881,Wisma Leader Steel,"Plot 85, Lorong Perusahaan Utama Kawasan Perusahaan Bukit Tengah Bukit Tengah, Seberang Perai Tengah",Perai,14000,6045071515,https://www.leadersteel.my,Steel,Basic Materials,
LEBTECH BERHAD,9628,Wisma Lebar Daun,"No. 2, Jalan Tengku Ampuan Zabedah J9/J Seksyen 9",Shah Alam,40000,60355111333,https://www.lebtech.com.my,Engineering & Construction,Industrials,
LEE SWEE KIAT GROUP BERHAD,8079,Wisma LSK,"Lot 6122, Jalan Haji Abdul Manan Off Jalan Meru",Klang,41050,60333924488,https://www.lsk.com.my,"Furnishings, Fixtures & Appliances",Consumer Cyclical,395.0
LEFORM BERHAD,0266,"PT 16077 & PT16078, Jalan Kesidang 4",Kawasan Perindustrian Sungai Choh,Serendah,48200,60360990666,https://www.leformgroup.com.my,Steel,Basic Materials,
LEON FUAT BERHAD,5232,Wisma Leon Fuat,"No.11, Lorong Keluli 1B Kawasan Perindustrian Bukit Raja Selatan Seksyen 7",Shah Alam,40000,60333753333,https://www.leonfuat.com.my,Steel,Basic Materials,292.0
LEONG HUP INTERNATIONAL BERHAD,6633,"Wisma Westcourt, Lot 3.05","3rd Floor No. 126, Jalan Klang Lama",Kuala Lumpur,58000,60379808086,https://www.leonghupinternational.com,Farm Products,Consumer Defensive,
LFE CORPORATION BERHAD,7170,Campbell Complex,"Suite 11.01 11th Floor 98, Jalan Dang Wangi",Kuala Lumpur,50100,60326948899,https://www.lfe.com.my,Engineering & Construction,Industrials,
LGMS BERHAD,0249,"A-11-01, Empire Office Tower",Jalan SS16/1,Subang Jaya,47500,60386050155,https://lgms.global,Information Technology Services,Technology,
LIEN HOE CORPORATION BERHAD,3573,Plaza Armada,3rd Floor Lot 6 Lorong Utara C Section 52,Petaling Jaya,46200,60379558808,https://www.lienhoe.com.my,Lodging,Consumer Cyclical,109.0
LII HEN INDUSTRIES BHD.,7089,"Plo 43, Kawasan Perindustrian Bukit Pasi",Jalan Raja Mukim Sungai Raya Bukit Pasir,Muar,84300,6069857202,https://liihenfurniture.com,"Furnishings, Fixtures & Appliances",Consumer Cyclical,2497.0
LIM SEONG HAI CAPITAL BERHAD,03047,Wisma Lim Seong Hai,33 jalan Gombak,Kuala Lumpur,53000,60129283732,https://www.limseonghailighting.com,Specialty Retail,Consumer Cyclical,
LINGKARAN TRANS KOTA HOLDINGS BERHAD,6645,,,,,,,,,
LION INDUSTRIES CORPORATION BERHAD,4235,Lion Office Tower,Level 2-4 No. 1 Jalan Nagasari,Kuala Lumpur,50200,60321420155,https://lionind.com.my,Steel,Basic Materials,
LION POSIM BERHAD,8486,Wisma Posim,Lot 72 Persiaran Jubli Perak,Shah Alam,40000,,https://www.lion.com.my/WebCorp/lionpsim.nsf/corp_profile,Building Materials,Basic Materials,
LKL INTERNATIONAL BERHAD,0182,Wisma LKL,"No. 3, Jalan BS 7/18 Kawasan Perindustrian Bukit Serdang Seksyen 7",Seri Kembangan,43300,60389482990,https://www.lklbeds.com,Medical Instruments & Supplies,Healthcare,
LOTTE CHEMICAL TITAN HOLDING BERHAD,5284,1 POWERHOUSE,"LOT 29.01, LEVEL 29 NO. 1, PERSIARAN BANDAR UTAMA BANDAR UTAMA",Petaling Jaya,47800,60320934222,https://www.lottechem.my,Chemicals,Basic Materials,1497.0
LOTUS KFM BERHAD,8303,Unit T2-L3-1 and 3,Level 3 IOI City Tower Two IOI Resort City,Putrajaya,62502,60389594883,https://www.kfmb.com.my,Packaged Foods,Consumer Defensive,
LPI CAPITAL BHD,8621,"6th Floor, Bangunan Public Bank","6, Jalan Sultan Sulaiman",Kuala Lumpur,50000,60322628688,https://www.lpicapital.com,Insurance - Property & Casualty,Financial Services,827.0
LTKM BERHAD,7085,"No. 102, Batu 1 ½",Jalan Meru Darul Ehsan,Klang,41050,60333422830,https://www.ltkm.com.my,Farm Products,Consumer Defensive,450.0
LUSTER INDUSTRIES BHD.,5068,"Plot 36 & 37, Jalan PKNK Utama",Kawasan Perusahaan Sungai Petani,Sungai Petani,08000,6044417980,https://www.lustergroup.com,Specialty Industrial Machinery,Industrials,
LUXCHEM CORPORATION BERHAD,5143,"No. 6, Jalan SS21/58",Damansara Utama,Petaling Jaya,47400,60377282155,https://www.luxchem.com.my,Chemicals,Basic Materials,262.0
LYC HEALTHCARE BERHAD,0075,"Podium Block, Plaza VADS","2nd & 3rd Floor No.1, Jalan Tun Mohd Fuad Taman Tun Dr. Ismail",Kuala Lumpur,60000,60377339222,https://www.lychealth.com,Information Technology Services,Technology,
LYSAGHT GALVANIZED STEEL BERHAD,9199,"No 11, Jalan Majistret U1/26",Seksyen U1 Hicom-Glenmarie Industrial Park,Shah Alam,40150,60378804728,https://www.lysaghtgalvanizedsteelbhd.com,Steel,Basic Materials,317.0
M N C WIRELESS BERHAD,0103,"Jaya One,100-3.011","129 Offices No. 72A, Jalan Profesor Diraja Ungku Aziz",Petaling Jaya,46200,60374911880,https://www.mnc.com.my,Telecom Services,Communication Services,
MAA GROUP BERHAD,1198,"No. 566, Jalan Ipoh",13th Floor,Kuala Lumpur,51200,60362568000,https://www.maa.my,Insurance - Diversified,Financial Services,
MAG HOLDINGS BERHAD,0095,"B-3-12, Gateway Corporate Suites",Gateway Kiaramas Jalan Desa Kiara Mont Kiara,Kuala Lumpur,50480,60364191385,https://magholdings.com.my,Farm Products,Consumer Defensive,
MAGNA PRIMA BERHAD,7617,IDCC Corporate Tower,"Lot 4.01, Level 4 Jalan Pahat L 15/L Seksyen 15",Shah Alam,40200,60358804810,https://www.magnaprima.com.my,Real Estate - Development,Real Estate,
MAGNI-TECH INDUSTRIES BERHAD,7087,51-21-A,"Menara BHL Jalan Sultan Ahmad Shah 488-A, Jalan Burmah",Penang,10050,6042108833,https://www.magni-tech.com.my,Apparel Manufacturing,Consumer Cyclical,1005.0
MAGNUM BERHAD,3859,Menara Multi-Purpose,"35th Floor Capital Square No. 8, Jalan Munshi Abdullah",Kuala Lumpur,50100,60326988033,https://www.magnum.my,Gambling,Consumer Cyclical,371.0
MAH SING GROUP BERHAD,8583,Wisma Mah Sing,"Penthouse Suite 1 No. 163, Jalan Sungei Besi",Kuala Lumpur,57100,60392218888,https://www.mahsing.com.my,Real Estate - Development,Real Estate,1403.0
MAJUPERAK HOLDINGS BERHAD,8141,"Aras 1, Bazar Ipoh",Jalan Sultan Nazrin Shah Perak Darul Ridzuan,Ipoh,31350,6052262888,https://www.majuperak.com.my,Real Estate - Diversified,Real Estate,
MALAKOFF CORPORATION BERHAD,5264,Plaza Sentral,Level 12 Block 4 Jalan Stesen Sentral 5,Kuala Lumpur,50470,60322633388,https://www.malakoff.com.my,Utilities - Diversified,Utilities,3113.0
MALAYAN BANKING BERHAD,1155,Menara Maybank,14th Floor 100 Jalan Tun Perak,Kuala Lumpur,50050,60320708833,https://www.maybank.com,Banks - Regional,Financial Services,43000.0
MALAYAN CEMENT BERHAD,3794,Menara YTL,33rd Floor No. 205 Jalan Bukit Bintang,Kuala Lumpur,55100,60320380888,https://ytlcement.my,Building Materials,Basic Materials,
MALAYAN FLOUR MILLS BERHAD,3662,Menara Citibank,"Suite 28.01, Level 28 165 Jalan Ampang",Kuala Lumpur,50450,60321700999,https://www.mfm.com.my,Farm Products,Consumer Defensive,
MALAYAN UNITED INDUSTRIES BERHAD,3891,"No. 189, Jalan Ampang",,Kuala Lumpur,50450,60321451366,https://www.muiglobal.com,Lodging,Consumer Cyclical,
MALAYSIA AIRPORTS HOLDINGS BERHAD,5014,Malaysia Airports Corporate Office,Persiaran Korporat KLIA,Sepang,64000,60387777000,https://www.malaysiaairports.com.my,Airports & Air Services,Industrials,
MALAYSIA BUILDING SOCIETY BERHAD,1171,Menara MBSB Bank,"Level 25 PJ Sentral, Lot 12 Persiaran Barat, Seksyen 52",Petaling Jaya,46200,60320963000,https://www.mbsb.com.my,Banks - Regional,Financial Services,2324.0
MALAYSIA MARINE AND HEAVY ENGINEERING HOLDINGS BERHAD,5186,Menara Dayabumi,Level 31 Jalan Sultan Hishamuddin,Kuala Lumpur,50050,60322730266,https://www.mhb.com.my,Oil & Gas Equipment & Services,Energy,1274.0
MALAYSIA SMELTING CORPORATION BERHAD,5916,"Lot 6, 8 and 9, Jalan Perigi Nanas 6/1",Pulau Indah Industrial Park West Port,Port Klang,42920,60331023083,https://www.msmelt.com,Metal Fabrication,Industrials,1179.0
MALAYSIA STEEL WORKS (KL) BHD,5098,Wisma Masteel,"Lot 29C, Off Jalan Tandang Section 51",Petaling Jaya,46050,60377811611,https://www.masteel.com.my,Steel,Basic Materials,821.0
MALAYSIAN BULK CARRIERS BERHAD,5077,Menara Binjai,"Suite 8.01, Level 8 No 2 Jalan Binjai",Kuala Lumpur,50450,60323867899,https://www.maybulk.com.my,Marine Shipping,Industrials,
MALAYSIAN GENOMICS RESOURCE CENTRE BERHAD,0155,Jalan Teknologi 3/6,8th Floor Taman Sains Selangor 1 Kota Damansara (PJU5),Petaling Jaya,47810,60378900015,https://www.mgrc.com.my,Diagnostics & Research,Healthcare,
MALAYSIAN PACIFIC INDUSTRIES BERHAD,3867,Jalan Lapangan Terbang,Perak Darul Ridzuan,Ipoh,31350,,https://www.mpind.my,Semiconductors,Technology,7617.0
MALAYSIAN RESOURCES CORPORATION BERHAD,1651,Menara Allianz Sentral,"Level 30 No. 203, Jalan Tun Sambanthan Kuala Lumpur Sentral",Kuala Lumpur,50470,60327868080,https://www.mrcb.com.my,Conglomerates,Industrials,
MALPAC HOLDINGS BERHAD,4936,"No. 23, Jalan Kong Sang",2nd Floor,Seremban,70000,6067653816,https://www.malpac.com.my,Farm Products,Consumer Defensive,
MALTON BERHAD,6181,Pavilion Tower,"Level 19 No. 75, Jalan Raja Chulan",Kuala Lumpur,50200,60320882888,https://www.malton.com.my,Real Estate - Development,Real Estate,
MANAGEPAY SYSTEMS BERHAD,0156,Wisma MPSB,Lot 107 – 113 Jalan USJ 21/10,Subang Jaya,47630,60380231880,https://www.managepay.com,Software - Infrastructure,Technology,134.0
MANFORCE GROUP BERHAD,03015,"No.13-02, Jalan PJU 5/20E",Pusat Perdagangan Kota Damansara,Petaling Jaya,47810,60361422222,https://www.manforce.net,Staffing & Employment Services,Industrials,
MANULIFE HOLDINGS BERHAD,1058,Menara Manulife,"16th Floor 6, Jalan Gelenggang Damansara Heights",Kuala Lumpur,50490,60327199228,https://www.manulife.com.my,Insurance - Life,Financial Services,489.0
MARCO HOLDINGS BERHAD,3514,"No. 282, Jalan Raja Laut",29th Floor Menara JKG,Kuala Lumpur,50350,60327758199,https://www.marco-groups.com,Electronics & Computer Distribution,Technology,
MARINE & GENERAL BERHAD,5078,Plaza VADS,"Level 23 No. 1, Jalan Tun Mohd Fuad Taman Tun Dr Ismail",Kuala Lumpur,60000,60377356300,https://www.marine-general.com.my,Oil & Gas Equipment & Services,Energy,81.0
MASTER-PACK GROUP BERHAD,7029,"1574, Jalan Bukit Panchor",,Nibong Tebal,14300,6045931550,https://www.master.net.my,Packaging & Containers,Consumer Cyclical,201.0
MATANG BERHAD,0189,"Menara Multi-Purpose, Capital Square","Unit 39.02 Level 39 8, Jalan Munshi Abdullah",Kuala Lumpur,50100,60326930189,https://www.matangbhd.com,Farm Products,Consumer Defensive,
MATRIX CONCEPTS HOLDINGS BERHAD,5236,"No. 57, Jalan Tun Dr.Ismail",,Seremban,70200,6067922877,https://www.mchb.com.my,Real Estate - Development,Real Estate,
MATRIX PARKING SOLUTION HOLDINGS BERHAD,03019,"Y-BG-02, D’aman Kayangan","No 1, Jalan PJU 1A/41, Ara Jaya",Petaling Jaya,47301,60378061210,https://matrixparking.my,Infrastructure Operations,Industrials,
MAXIM GLOBAL BERHAD,4022,"No. 2D, Jalan SS 6/6",Kelana Jaya,Petaling Jaya,47301,60378037008,https://maximglobal.com.my,Real Estate - Development,Real Estate,
MAXIS BERHAD,6012,Menara Maxis,"Level 5 - 9, 11, 14 - 25, 29 & 30 Kuala Lumpur City Centre Off Jalan Ampang",Kuala Lumpur,50088,60323307000,https://www.maxis.com.my,Telecom Services,Communication Services,3978.0
MBM RESOURCES BHD,5983,"No. 23-01, Menara MBMR","Level 23 1, Jalan Syed Putra",Kuala Lumpur,58000,60322738803,https://www.mbmr.com.my,Auto & Truck Dealerships,Consumer Cyclical,
MCE HOLDINGS BERHAD,7004,"No. 2 & 4, Jalan Waja 7",Kawasan Perindustrian Pandan,Johor Bahru,81100,6073553787,https://multicode.com.my,Auto Parts,Consumer Cyclical,
MCLEAN TECHNOLOGIES BERHAD,0167,2 Woodlands,Sector 1 #01-22,Singapore,738068,6567538077,https://www.mclean.com.sg,Specialty Business Services,Industrials,249.0
MCOM HOLDINGS BERHAD,03022,"NO 2-7 & 3-7, Jalan Puteri 4/6",Bandar Puteri Puchong,Puchong,47100,60351921598,https://www.mcommsg.com,Information Technology Services,Technology,
MCT BERHAD,5182,"Lot C-02, Level 2",SkyPark @ One City Jalan USJ 25/1,Subang Jaya,47650,60351159988,https://www.avaland.com.my,Real Estate—Development,Real Estate,293.0
MEDIA CHINESE INTERNATIONAL LIMITED,5090,Ming Pao Industrial Centre,15th Floor Block A 18 Ka Yip Street,Chai Wan,,85225953111,https://www.mediachinesegroup.com,Publishing,Communication Services,2451.0
MEDIA PRIMA BERHAD,4502,Balai Berita,"Anjung Riong No. 31, Jalan Riong Bangsar",Kuala Lumpur,59100,601300300672,https://www.mediaprima.com.my,Entertainment,Communication Services,
MEGA FIRST CORPORATION BERHAD,3069,"A-12-01, 23 Jalan Barat","Level 12 Block A, PJ8 Seksyen 8",Petaling Jaya,46050,60379608818,https://www.mega-first.com,Utilities—Regulated Electric,Utilities,1106.0
MELATI EHSAN HOLDINGS BERHAD,5129,"No 5, Jalan Titiwangsa",,Kuala Lumpur,53200,60340222177,https://melatiehsan.com.my,Engineering & Construction,Industrials,
MELEWAR INDUSTRIAL GROUP BERHAD,3778,No. 566 Jalan Ipoh,15th Floor,Kuala Lumpur,51200,60362506000,https://www.melewar-mig.com,Steel,Basic Materials,
MENANG CORPORATION (M) BERHAD,1694,Wisma OZ,"No. 11-1, Jalan Kuchai Maju 5 Kuchai Entrepreneurs’ Park Jalan Kuchai Lama",Kuala Lumpur,58200,60379711771,https://www.menangcorporation.com,Real Estate Services,Real Estate,
MENTIGA CORPORATION BERHAD,5223,"No. 26 & 26A, Jalan Putra Square 1",Putra Square,Kuantan,25200,6095173710,https://mentiga.com.my,Lumber & Wood Production,Basic Materials,50.0
MERCURY INDUSTRIES BERHAD,8192,South City Plaza,"Lot G57, Ground Floor Persiaran Serdang Perdana Taman Serdang Perdana Seksyen 1",Seri Kembangan,43300,60389401111,https://www.mercury.com.my,Engineering & Construction,Industrials,
MERIDIAN BERHAD,5040,Plaza 138,Suite 20.08 - 20.09 Jalan Ampang,Kuala Lumpur,50450,60327210288,https://www.meda.com.my,Real Estate—Development,Real Estate,
MESB BERHAD,7234,Lot 1903A,1st Floor Jalan KPB 7 Kawasan Perindustrian Kg. Baru Balakong,Seri Kembangan,43300,60389618818,https://www.mesbbhd.com,Apparel Retail,Consumer Cyclical,
MESINIAGA BERHAD,5011,Menara Mesiniaga,"11th Floor 1A, Jalan SS16/1",Subang Jaya,47500,60356358828,https://www.mesiniaga.com.my,Information Technology Services,Technology,1100.0
MESTRON HOLDINGS BERHAD,0207,Jalan MU 1/9,Seksyen 10 Taman Perindustrian Meranti Utama PT 50102,Puchong,47120,60380691815,https://www.mestron.com.my,Metal Fabrication,Industrials,213.0
META BRIGHT GROUP BERHAD,2097,"Lingkaran SV, Sunway Velocity","V06-07-03A, Signature 2",Kuala Lumpur,55100,60392012893,https://www.mbgb.my,Lodging,Consumer Cyclical,
METRO HEALTHCARE BERHAD,03005,"No. 32, Jalan Pasar",,Klang,41400,,https://www.metro.com.my,Medical Care Facilities,Healthcare,
METROD HOLDINGS BERHAD,6149,Bukit Raja Prime Industrial Park,"No. 3, Lengkuk Keluli 2",Klang,41720,60333613422,https://www.metrod.com,Electrical Equipment & Parts,Industrials,752.0
METRONIC GLOBAL BERHAD,0043,"No.2, Jalan Astaka U8/83",Seksyen U8 Bukit Jelutong,Shah Alam,40150,60378472111,https://www.metronic-group.com,Information Technology Services,Technology,
MGB BERHAD,7595,"H-G, Sunway PJ@51A",Jalan SS9A/19 Seksyen 51A,Petaling Jaya,47300,60378745888,https://www.mgbgroup.com.my,Engineering & Construction,Industrials,512.0
MHC PLANTATIONS BHD,5026,Kompleks Pejabat Behrang 2020,Jalan Persekutuan 1 Darul Ridzuan,Tanjung Malim,35900,6054590001,https://www.mhc.com.my,Farm Products,Consumer Defensive,
MI TECHNOVATION BERHAD,5286,"No.20, Medan Bayan Lepas Technoplex","MK 12, Taman Perindustrian",Bayan Lepas,11900,6043738688,https://mi-technovation.com,Semiconductor Equipment & Materials,Technology,
MICROLINK SOLUTIONS BERHAD,0126,Ho Hup Tower-Aurora Place,"02-08-01 - Level 8 Plaza Bukit Jalil No 1, Persiaran Jalil 1, Bandar Bukit Ja",Kuala Lumpur,57000,60397791700,https://www.microlink.com.my,Information Technology Services,Technology,339.0
MIECO CHIPBOARD BERHAD,5001,Jalan Indah 2/6,"No. 1, Block C Taman Indah Batu 11",Cheras,43200,60390759991,https://www.mieco.com.my,Lumber & Wood Production,Basic Materials,638.0
MIKRO MSC BERHAD,0112,"No. 3, Jalan Anggerik Mokara 31/48",Seksyen 31 Kawasan Industri Kota Kemuning,Shah Alam,40460,60355253863,https://itmikro.com.my,Electrical Equipment & Parts,Industrials,
MILUX CORPORATION BERHAD,7935,"No. 31, Lorong Jala 14/KS10",Off Jalan Telok Gong,Pelabuhan Klang,42000,60331341254,https://www.milux.com.my,"Furnishings, Fixtures & Appliances",Consumer Cyclical,97.0
MINDA GLOBAL BERHAD,5166,University of Cyberjaya Campus,"Tower Block Level 8 Persiaran Bestari, Cyber 11",Cyberjaya,63000,60388005295,https://www.mindaglobal.com.my,Education & Training Services,Consumer Defensive,
MINETECH RESOURCES BERHAD,7219,"D-G-5, Block D","Parklane Commercial Hub No. 21, Jalan SS7/26 Kelana Jaya",Petaling Jaya,47301,60378867848,https://www.minetech.com.my,Building Materials,Basic Materials,105.0
MINHO (M) BERHAD,5576,Lot 6476,Lorong Sg. Puluh Batu 6 Off Jalan Kapar,Klang,42100,60332911300,https://www.minhomalaysia.com,Lumber & Wood Production,Basic Materials,
MISC BERHAD,3816,Menara Dayabumi,Level 25 Jalan Sultan Hishamuddin,Kuala Lumpur,50050,60322640888,https://www.misc.com.my,Marine Shipping,Industrials,2720.0
MITRAJAYA HOLDINGS BERHAD,9571,Pusat Perdagangan Puchong Prima,"No. 9, Block D Persiaran Prima Utama Taman Puchong Prima",Puchong,47150,60380609999,https://www.mitrajaya.com.my,Engineering & Construction,Industrials,480.0
MK LAND HOLDINGS BERHAD,8893,"No. 19, Jalan PJU 8/5H",Perdana Business Centre Bandar Damansara Perdana,Petaling Jaya,47820,60377268866,https://www.mkland.com.my,Real Estate—Development,Real Estate,
MKH BERHAD,6114,Wisma MKH,5th Floor Jalan Semenyih,Kajang,43000,60387378228,https://mkhberhad.com,Real Estate—Development,Real Estate,
MLABS SYSTEMS BERHAD,0085,Menara Lien Hoe,"Lot 4.1, 4th Floor No. 8, Persiaran Tropicana Tropicana Golf & Country Resort",Petaling Jaya,47410,60378872896,https://www.mlabs.com,Communication Equipment,Technology,
MMAG HOLDINGS BERHAD,0034,"No.3, Jalan TP2",Taman Perindustrian UEP Subang Jaya,Subang Jaya,47600,60378903535,https://www.mmag.com.my,Software—Application,Technology,
MMIS BERHAD,03027,"PT 14495, Persiaran Batu Gajah Perdana 4",Kawasan Perindustrian Batu Gajah Perdana,Batu Gajah,31000,6053621388,https://www.mmisb.com,Specialty Industrial Machinery,Industrials,
MMS VENTURES BERHAD,0113,"Plot 84A, Lintang Bayan Lepas 9",Bayan Lepas Industrial Park Phase 4,Bayan Lepas,11900,6046460888,https://www.mmsv.com.my,Semiconductor Equipment & Materials,Technology,
MN HOLDINGS BERHAD,0245,"F-07-01, Garden Shoppe One City",Jalan USJ 25/1B,Subang Jaya,47650,60351150008,https://www.mnholdings.com.my,Engineering & Construction,Industrials,
MNRB HOLDINGS BERHAD,6459,Bangunan Malaysian Re,"12th Floor No. 17, Lorong Dungun Damansara Heights",Kuala Lumpur,50490,60320968000,https://www.mnrb.com.my,Insurance—Reinsurance,Financial Services,1042.0
MOBILIA HOLDINGS BERHAD,0229,"Lot 2782, GRN 92507",Jalan Kempas 1 Mukim Jalan Bakri,Muar,84200,6069892075,https://mobiliainternational.com,"Furnishings, Fixtures & Appliances",Consumer Cyclical,
MPHB CAPITAL BERHAD,5237,Menara Multi-Purpose,"40th Floor Capital Square No. 8, Jalan Munshi Abdullah",Kuala Lumpur,50100,60326948333,https://www.mphbcap.com.my,Real Estate Services,Real Estate,
MQ TECHNOLOGY BERHAD,0070,Damansara Intan,"Unit 310, Block C No. 1, Jalan SS20/27",Petaling Jaya,47400,60377318701,https://www.mqtech.com.my,Tools & Accessories,Industrials,80.0
MR D.I.Y. GROUP (M) BERHAD,5296,"Lot 1907, Jalan KPB 11",Kawasan Perindustrian Balakong,Seri Kembangan,43300,60389611338,https://www.mrdiy.com,Home Improvement Retail,Consumer Cyclical,16500.0
MSM MALAYSIA HOLDINGS BERHAD,5202,Menara FELDA,"Level 44, Platinum Park No. 11, Persiaran KLCC",Kuala Lumpur,50088,60321815018,https://www.msmsugar.com,Confectioners,Consumer Defensive,1049.0
MTAG GROUP BERHAD,0213,"PLO 226, Jalan Kencana Mas",Kawasan Perindustrian Tebrau III,Johor Bahru,81100,6073513333,https://mtaggroup.com,Specialty Business Services,Industrials,
MTOUCHE TECHNOLOGY BERHAD,0092,Menara Lien Hoe,"Lot 11.3, 11th Floor No. 8, Persiaran Tropicana Tropicana Golf & Country Resort",Petaling Jaya,47410,60378860100,https://www.mtouche.com,Telecom Services,Communication Services,
MUAR BAN LEE GROUP BERHAD,5152,"JR52, Lot 1818, Jalan Raja",Kawasan Perindustrian Bukit Pasir,Muar,84300,6069859998,https://www.mbl.com,Specialty Industrial Machinery,Industrials,
MUDA HOLDINGS BERHAD,3883,Jalan 51A/241,Lot 7,Petaling Jaya,46100,60378759549,https://muda.com.my,Paper & Paper Products,Basic Materials,
MUDAJAYA GROUP BERHAD,5085,"PH1, Menara Mudajaya","No. 12A, Jalan PJU 7/3 Mutiara Damansara",Petaling Jaya,47810,60378067899,https://www.mudajaya.com/home/,Engineering & Construction,Industrials,
MUHIBBAH ENGINEERING (M) BHD,5703,Jalan Batu Tiga Lama,Lot 579 and 586 2nd Mile Darul Ehsan,Klang,41300,60333424323,https://www.muhibbah.com,Engineering & Construction,Industrials,
MUI PROPERTIES BERHAD,3913,"189, Jalan Ampang",,Kuala Lumpur,50450,60321451366,https://www.muiproperties.com.my,Real Estate—Development,Real Estate,
MULPHA INTERNATIONAL BERHAD,3905,"PH1, Menara Mudajaya","No. 12A, Jalan PJU 7/3 Mutiara Damansara",Petaling Jaya,47810,60377186288,https://www.mulpha.com.my,Conglomerates,Industrials,
MULTI-USAGE HOLDINGS BERHAD,9539,"12A.03, Menara Boustead Penang","39, Jalan Sultan Ahmad Shah",Penang,10050,6042272858,https://www.muh.com.my,Real Estate—Development,Real Estate,
MY E.G. SERVICES BERHAD,0138,"MYEG Tower, Empire City","Level 43A No. 8, Jalan Damansara PJU 8",Petaling Jaya,47820,60376648000,https://www.myeg.com.my,Information Technology Services,Technology,2184.0
MYCRON STEEL BERHAD,5087,Jalan Sungai Rasau,Lot 717 Seksyen 16,Shah Alam,40200,60355106608,https://www.mycronsteel.com,Steel,Basic Materials,
MYETF DOW JONES ISLAMIC MARKET MALAYSIA TITANS 25,0821EA,,,,,,,,,
MYETF DOW JONES U.S. TITANS 50,0827EA,,,,,,,,,
MYETF MSCI MALAYSIA ISLAMIC DIVIDEND,0824EA,,,,,,,,,
MYETF MSCI SEA ISLAMIC DIVIDEND,0825EA,,,,,,,,,
MYNEWS HOLDINGS BERHAD,5275,"Lot No. 3, Jalan Teknologi 3/1","Taman Sains Selangor 1 Seksyen 3, PJU 5 Kota Damansara",Petaling Jaya,47810,60361586000,https://mynews.com.my,Specialty Retail,Consumer Cyclical,2729.0
MYTECH GROUP BERHAD,7692,"K-09-01, Block K","No.2, Jalan Solaris Solaris Mont’ Kiara",Kuala Lumpur,50480,60362099000,https://www.mytechgroup.com.my,Tools & Accessories,Industrials,
N2N CONNECT BERHAD,0108,Wisma N2N,"Level 9, Tower 2 Avenue 3, Bangsar South No. 8, Jalan Kerinchi",Kuala Lumpur,59200,60322411818,https://www.n2nconnect.com,Software—Application,Technology,200.0
NAIM HOLDINGS BERHAD,5073,Wisma Naim,"9th Floor 2½ Mile, Rock Road",Kuching,93200,6082411667,https://www.naim.com.my,Engineering & Construction,Industrials,
NATIONGATE HOLDINGS BERHAD,0270,"2005, Tingkat Perusahaan Satu",Kawasan Perusahaan Perai,Perai,13600,6043989001,https://www.nationgate.com.my,Electronic Components,Technology,2248.0
NCT ALLIANCE BERHAD,0056,Menara NCT,"No. 2, Jalan BP 4/9 Bandar Bukit Puchong",Puchong,47100,60380643333,https://www.nctalliance.com,Information Technology Services,Technology,90.0
NEGRI SEMBILAN OIL PALMS BERHAD,2038,Plaza Sentral,"Suite 2B-3A-2, Block 2B, Level 3A Jalan Stesen Sentral 5 Kuala Lumpur Sentral",Kuala Lumpur,50470,60322614633,https://www.nsop.com.my,Farm Products,Consumer Defensive,
NESTCON BERHAD,0235,"No. 2-10, Jalan Kenari 13B",Bandar Puchong Jaya,Puchong,47180,60380807792,https://www.nestcon.my,Engineering & Construction,Industrials,703.0
NESTLE (MALAYSIA) BERHAD,4707,1 Powerhouse,"Level 22 No.1, Persiaran Bandar Utama Bandar Utama",Petaling Jaya,47800,60379656000,https://www.nestle.com.my,Packaged Foods,Consumer Defensive,4906.0
NETX HOLDINGS BERHAD,0020,"Lot 13.2, Menara Lien Hoe","13th Floor No. 8, Persiaran Tropicana Tropicana Golf & Country Resort",Petaling Jaya,47410,60378878818,https://www.netx.com.my,Information Technology Services,Technology,
NEW HOONG FATT HOLDINGS BERHAD,7060,Lot 5043,Jalan Teratai Meru,Klang,41050,60333926818,https://newhoongfatt.com.my,Auto Parts,Consumer Cyclical,939.0
NEXGRAM HOLDINGS BERHAD,0096,"11-01, MENARA MBMR 1",LEVEL 11 JALAN SYED PUTRA,Kuala Lumpur,58000,60322763199,https://nexgram.co,Software—Application,Technology,
NEXTGREEN GLOBAL BERHAD,7241,"Lot 6-02, Menara LGB","No.1, Jalan Wan Kadir Taman Tun Dr. Ismail",Kuala Lumpur,60000,60377252088,https://www.nextgreenglobal.com,Specialty Business Services,Industrials,
NI HSIN GROUP BERHAD,7215,"No.45, Jalan Taming Dua",Taman Taming Jaya,Seri Kembangan,43300,60389616815,https://www.ni-hsin.com,"Furnishings, Fixtures & Appliances",Consumer Cyclical,
NICHE CAPITAL EMAS HOLDINGS BERHAD,7139,"L11-03, KYM Tower","8, Jalan PJU 7/6, Mutiara Damansara",Petaling Jaya,47800,60377332599,https://www.nichecapital.com.my,Luxury Goods,Consumer Cyclical,
NOTION VTEC BERHAD,0083,Lot 6123,Jalan Haji Salleh Batu 5 1/2 Jalan Meru,Klang,41050,60333615615,https://www.notionvtec.com,Electronic Components,Technology,2441.0
NOVA MSC BERHAD,0026,"A-18-3, Tower A","Level 18 Northpoint, Mid Valley City No. 1, Medan Syed Putra Utara",Kuala Lumpur,59200,60322836628,https://www.nova-hub.com,Software—Application,Technology,
NOVA PHARMA SOLUTIONS BERHAD,03006,Sky Park One City,"Suite C-5-1 & 2 Level 5, Block C Jalan USJ 25/1",Subang Jaya,47650,60350222758,https://novapharmasolutions.com,Engineering & Construction,Industrials,
NOVA WELLNESS GROUP BERHAD,0201,"Lot 708, Nova Avenue",4th mile Sepang Selangor Darul Ehsan,Sungai Pelek,43950,60331421676,https://nova.my,Packaged Foods,Consumer Defensive,
NOVELPLUS TECHNOLOGY BERHAD,03045,Megan Avenue II,"B-13-6, Block B 13th Floor, Unit 6 No. 12, Jalan Yap Kwan Seng",Kuala Lumpur,50450,,https://www.novelplus.co,Software—Application,Technology,
NPC RESOURCES BERHAD,5047,"T3, Taman Tshun Ngen","Lot 9, Mile 5 Jalan Labuk North Road",Sandakan,90000,6089274488,https://www.npc.com.my,Farm Products,Consumer Defensive,
NTPM HOLDINGS BERHAD,5066,"No. 886, Jalan Bandar Baru",Sungai Kecil Seberang Perai Selatan,Nibong Tebal,14300,6045931296,https://www.ntpm.com.my,Household & Personal Products,Consumer Defensive,3640.0
NWP HOLDINGS BERHAD,5025,"No. 5-7, Menara MBMR","Level 5 No. 1, Jalan Syed Putra",Kuala Lumpur,58000,60322763213,https://nwp.com.my,Lumber & Wood Production,Basic Materials,
NYLEX (MALAYSIA) BERHAD,4944,Lot 16,Persiaran Selangor Section 15,Shah Alam,40200,60355191706,https://www.nylex.com,Specialty Chemicals,Basic Materials,
OCB BERHAD,5533,"2B-5, Jalan SS 6/6",Level 5 Kelana Jaya,Petaling Jaya,47301,60378807539,https://www.ocbb.com.my,Packaged Foods,Consumer Defensive,
OCEAN VANTAGE HOLDINGS BERHAD,0220,Lot 6073 & 6074,"1st & 2nd Floor, Block 11 Kuala Baram Land District Jalan Tudan, Bandar Baru Permyjaya",Miri,98000,6085491780,https://ovbhd.com,Oil & Gas Equipment & Services,Energy,
OCEANCASH PACIFIC BERHAD,0049,"Lot 73, Jalan P10/21",Taman Industri Selaman,Bandar Baru Bangi,43650,60389250000,https://oceancash.com,Household & Personal Products,Consumer Defensive,
OCK GROUP BERHAD,0172,"No. 18, Jalan Jurunilai U1/20",Seksyen U1 Hicom Glenmarie Industrial Park,Shah Alam,40150,60355659688,https://www.ock.com.my,Telecom Services,Communication Services,
OCR GROUP BERHAD,7071,"A-3A-01, Block Allamanda",10 Boulevard Lebuhraya Sprint PJU 6A,Petaling Jaya,47400,60377101000,https://www.ocrbhd.com,Real Estate—Development,Real Estate,
OKA CORPORATION BHD,7140,"6, Lebuhraya Chateau",Off Persiaran Kampar,Ipoh,30250,6052542741,https://www.oka.com.my,Building Materials,Basic Materials,
OLYMPIA INDUSTRIES BERHAD,3018,Menara Olympia,"Level 24 No. 8, Jalan Raja Chulan",Kuala Lumpur,50200,60320700033,https://www.oib.com.my,Gambling,Consumer Cyclical,50.0
OM HOLDINGS LIMITED,5298,"No. 09-03A, Singapore Post Centre",10 Eunos Road 8,Singapore,408600,6563465515,https://www.omholdingsltd.com,Other Industrial Metals & Mining,Basic Materials,
OMESTI BERHAD,9008,Ho Hup Tower – Aurora Place,"2-09-01 - Level 9 Plaza Bukit Jalil No. 1 Persiaran Jalil 1, Bandar Bukit Jalil",Kuala Lumpur,57000,60397791700,https://www.omesti.com,Specialty Business Services,Industrials,
ONE GLOVE GROUP BERHAD,5079,"Lot 73-86, Jalan Logam 5",Perindustrian Kamunting 3 Kamunting Raya Indutrial Estate,Kamunting,34600,6058913333,https://www.oneglovegroup.com,Medical Instruments & Supplies,Healthcare,383.0
ONETECH SOLUTIONS HOLDINGS BERHAD,03041,"A-3-5, Blok A","Pusat Perdagangan Icon City No. 1B, Jalan SS 8/39, SS8",Petaling Jaya,47300,60378779303,https://www.onetechholdings.com,Information Technology Services,Technology,
ONLY WORLD GROUP HOLDINGS BERHAD,5260,"No. 10, Jalan Pelukis U1/46",Seksyen U1 Temasya Industrial Park Glenmarie,Shah Alam,40150,60355668000,https://www.owg.com.my,Leisure,Consumer Cyclical,
OPCOM HOLDINGS BERHAD,0035,"11, Jalan Utas 15/7",,Shah Alam,40200,60355195599,https://www.opcom.com.my,Communication Equipment,Technology,
OPENSYS (M) BERHAD,0040,"Tower A, Pinnacle PJ",Level 26 Jalan Utara C,Petaling Jaya,46200,60379327888,https://www.myopensys.com,Software—Infrastructure,Technology,256.0
OPPSTAR BERHAD,0275,"I2U Building, Sains@USM","Level 6 10, Persiaran Bukit Jambul",Bayan Lepas,11900,6046116693,https://www.oppstar.com.my,Semiconductors,Technology,225.0
OPTIMAX HOLDINGS BERHAD,0222,"No.145, Jalan Radin Bagus",1st and 2nd Floor Seri Petaling,Kuala Lumpur,57000,60390546186,https://www.optimax2u.com,Medical Care Facilities,Healthcare,242.0
ORGABIO HOLDINGS BERHAD,0252,"Lot 83, Jalan Kesuma 2/3",Phase 5D Bandar Tasik Kesuma Techno Park,Beranang,43700,60380791878,https://orgabio.com,Beverages—Non-Alcoholic,Consumer Defensive,
ORIENTAL FOOD INDUSTRIES HOLDINGS BERHAD,7107,"No. 65, Jalan Usaha 7",Air Keroh Industrial Estate,Malacca,75450,6062310333,https://www.ofih.com.my,Confectioners,Consumer Defensive,
ORIENTAL HOLDINGS BERHAD,4006,25B Lebuh Farquhar,1st Floor,Penang,10200,6042638590,https://ohb.com.my,Auto & Truck Dealerships,Consumer Cyclical,9154.0
ORIENTAL INTEREST BERHAD,5827,"34 & 35, Lengkok Cempaka 2",Bandar Amanjaya,Sungai Petani,08000,6044481018,https://www.oibgroup.com,Real Estate—Development,Real Estate,
ORNAPAPER BERHAD,5065,"No. 8998, Kawasan Perindustrian Peringka",Batu Berendam,Malacca,75350,6063355888,https://www.ornapaper.com,Packaging & Containers,Consumer Cyclical,922.0
OSK HOLDINGS BERHAD,5053,Plaza OSK,21st Floor Jalan Ampang,Kuala Lumpur,50450,60321771999,https://www.oskgroup.com,Real Estate—Development,Real Estate,1038.0
OSK VENTURES INTERNATIONAL BERHAD,0053,Plaza OSK,21st Floor Jalan Ampang,Kuala Lumpur,50450,60321617233,https://www.oskvi.com,Asset Management,Financial Services,12.0
OVERSEA ENTERPRISE BERHAD,0153,Menara Lien Hoe,"Lot 12.2, 12th Floor No.8, Persiaran Tropicana Tropicana Golf & Country Resort",Petaling Jaya,47410,60378876838,https://www.oversea.com.my,Restaurants,Consumer Cyclical,
P.A. RESOURCES BERHAD,7225,Lot 424 & 440,Jalan Kuala Selangor Kampung Batu 8 Ijok,Kuala Selangor,45620,60332793328,https://www.pagroup.com.my,Metal Fabrication,Industrials,
P.I.E. INDUSTRIAL BERHAD,7095,Jalan Jelawat 1,Plot 4 Seberang Jaya Industrial Estate,Perai,13700,6043990401,https://pieib.com.my,Electrical Equipment & Parts,Industrials,2487.0
PACIFIC & ORIENT BERHAD,6009,Wisma Bumi Raya,"11th Floor No. 10, Jalan Raja Laut",Kuala Lumpur,50350,60326985033,https://www.pacific-orient.com,Insurance—Property & Casualty,Financial Services,
PADINI HOLDINGS BERHAD,7052,"No. 19, Jalan Jurunilai U1/20",Lot 115 Hicom Glenmarie Industrial Park,Shah Alam,40150,60350210500,https://corporate.padini.com,Apparel Retail,Consumer Cyclical,
PAN MALAYSIA CORPORATION BERHAD,4081,"189, Jalan Ampang",,Kuala Lumpur,50450,60321451366,https://pmcorporation.com.my,Confectioners,Consumer Defensive,
PAN MALAYSIA HOLDINGS BERHAD,1287,"189, Jalan Ampang",,Kuala Lumpur,50450,60321451366,https://www.pmholdings.com.my,Resorts & Casinos,Consumer Cyclical,
PANASONIC MANUFACTURING MALAYSIA BERHAD,3719,"No. 3, Jalan Sesiku 15/2",Section 15 Shah Alam Industrial Site,Shah Alam,40200,60358915000,https://pmma.panasonic.com.my,"Furnishings, Fixtures & Appliances",Consumer Cyclical,1532.0
PANSAR BERHAD,8419,Wisma Pansar,23-27 Jalan Bengkel PO Box 319,Sibu,96007,6084333366,https://pansar.com.my,Conglomerates,Industrials,
PANTECH GROUP HOLDINGS BERHAD,5125,"PTD 204334, Jalan Platinum Utama",Kawasan Perindustrian Pasir Gudang Zon 12B,Pasir Gudang,81700,6072597979,https://www.pantech-group.com,Steel,Basic Materials,1050.0
PAOS HOLDINGS BERHAD,5022,"No. 65, Persiaran Selangor",Section 15,Shah Alam,40200,60355104219,https://www.paos.com.my,Household & Personal Products,Consumer Defensive,148.0
PAPPAJACK BERHAD,0242,"No. 11B, Jalan TK1/11A",Taman Kinrara Jalan Puchong Seksyen 1,Puchong,47180,60380804884,https://www.pappajack.com.my,Credit Services,Financial Services,118.0
PARAGON GLOBE BERHAD,3611,Grand Paragon Hotel,"Level 10-02 No.18, Jalan Harimau Taman Century",Johor Bahru,80250,6072786668,https://www.pgbgroup.com.my,Real Estate—Development,Real Estate,
PARAGON UNION BERHAD,9407,Lot 14 Jalan CJ 1/1,Kawasan Perindustrian Cheras Jaya Batu 11 Cheras,Cheras,43200,60390861100,https://www.paragon.com.my,Auto Parts,Consumer Cyclical,
PARAMOUNT CORPORATION BERHAD,1724,Uptown 1,"Level 8 1, Jalan SS21/58 Damansara Uptown",Petaling Jaya,47400,60377123333,https://www.pcb.my,Real Estate—Development,Real Estate,486.0
PARKSON HOLDINGS BERHAD,5657,Lion Office Tower,Level 14 No. 1 Jalan Nagasari,Kuala Lumpur,50200,60321420155,https://www.lion.com.my/parkson,Department Stores,Consumer Cyclical,
PARKWOOD HOLDINGS BERHAD,2682,Menara LGB,"Unit 8-02, Level 8 No.1, Jalan Wan Kadir Taman Tun Dr. Ismail",Kuala Lumpur,60000,60327889322,https://parkwood.my,Real Estate—Diversified,Real Estate,
PARLO BERHAD,0022,Wisma Parlo,"No. 72, Jalan Kampong Attap",Kuala Lumpur,50460,60327266055,https://www.parlogroup.com,Travel Services,Consumer Cyclical,58.0
PASDEC HOLDINGS BERHAD,6912,Menara Zenith,Level 21 Jalan Putra Square 6 Putra Square,Kuantan,25200,6095133888,https://www.pasdec.com.my,Real Estate—Development,Real Estate,
PASUKHAS GROUP BERHAD,0177,Persoft Tower,"DF2-11-01, Level 11 6B, Persiaran Tropicana Tropicana Golf & Country Resort",Petaling Jaya,47410,60376656088,https://www.pasukhasgroup.com,Engineering & Construction,Industrials,
PAVILION REAL ESTATE INVESTMENT TRUST,5212,"Level 10, Pavilion Kuala Lumpur","168, Jalan Bukit Bintang",Kuala Lumpur,55100,60321188888,https://www.pavilion-reit.com,REIT—Retail,Real Estate,
PBA HOLDINGS BHD,5041,KOMTAR,Level 32 Jalan Penang,Georgetown,10000,6042006700,https://pbahb.com.my,Utilities—Regulated Water,Utilities,1473.0
PCCS GROUP BERHAD,6068,Mukim Simpang Kanan,"Lot 1376, GM 127 Jalan Kluang",Batu Pahat,83000,6074568871,https://www.pccsgroup.net,Apparel Manufacturing,Consumer Cyclical,2404.0
PDZ HOLDINGS BHD,6254,"No.1, Jalan Sungai Aur",,Port Klang,42000,60331692233,https://www.pdzlines.com,Marine Shipping,Industrials,
PECCA GROUP BERHAD,5271,"No. 1, Jalan Perindustrian Desa Aman 1A",Industri Desa Aman Kepong,Kuala Lumpur,52200,60362751800,https://www.peccaleather.com,Auto Parts,Consumer Cyclical,
PEGASUS HEIGHTS BERHAD,4464,"1-40-2, Menara Bangkok Bank","Berjaya Central Park No. 105, Jalan Ampang",Kuala Lumpur,50450,60321813553,https://www.pegasusheights.com,"Furnishings, Fixtures & Appliances",Consumer Cyclical,
PEKAT GROUP BERHAD,0233,"No. 3A, 5 & 6, Cubic Space","No. 6, Jalan Teknologi 3/4 Taman Sains Selangor 1 Kota Damansara",Petaling Jaya,47810,60323008010,https://www.pekat.com.my,Solar,Technology,210.0
PELIKAN INTERNATIONAL CORPORATION BERHAD,5231,No. 9 Jalan Pemaju U1/15,Seksyen U1 Hicom Glenmarie Industrial Park,Shah Alam,40150,60355695511,https://www.pelikan.com/picb,Specialty Business Services,Industrials,1654.0
PENSONIC HOLDINGS BERHAD,9997,"1165, Lorong Perindustrian Bukit Minyak",Taman Perindustrian Bukit Minyak,Simpang Ampat,14100,6045070393,https://www.pensonic.com,"Furnishings, Fixtures & Appliances",Consumer Cyclical,
PENTAMASTER CORPORATION BERHAD,7160,"Plot 18 & 19, Technoplex",Medan Bayan Lepas Taman Perindustrian Bayan Lepas Phase IV,Bayan Lepas,11900,6046469212,https://pentamaster.com.my,Specialty Industrial Machinery,Industrials,787.0
PERAK CORPORATION BERHAD,8346,Menara PKNP,"No. 1-A, Block B Jalan Meru Casuarina Bandar Meru Raya",Ipoh,30020,6055019888,https://www.perakcorp.com.my,Marine Shipping,Industrials,
PERAK TRANSIT BERHAD,0186,"E-6-2A, SOHO Ipoh 2",Jalan Sultan Idris Shah,Ipoh,30000,6052551128,https://www.peraktransit.com.my,Railroads,Industrials,83.0
PERDANA PETROLEUM BERHAD,7108,VSQ @ PJCC,Block 2 Level 18 Jalan Utara,Petaling Jaya,46200,60379318524,https://www.perdana.my,Oil & Gas Equipment & Services,Energy,2442.0
PERMAJU INDUSTRIES BERHAD,7080,Wisma Cergaz,Lot 45182 Sungai Penchala Off Jalan Damansara,Kuala Lumpur,60000,60377258855,https://www.permaju.com.my,Auto & Truck Dealerships,Consumer Cyclical,
PERTAMA DIGITAL BERHAD,8532,"WORQ Subang, The Podium Tower 3","Suite 37, Unit 2-1, Level 2 No. 1, Jalan Pengaturcara U151A UOA Business Park, Seksyen U1",Shah Alam,40150,,https://www.pertamadigital.com,Software—Application,Technology,
PERUSAHAAN SADUR TIMAH MALAYSIA (PERSTIMA) BHD,5436,"PLO 255, Jalan Timah 3",Kawasan Perindustrian Pasir Gudang Darul Takzim,Pasir Gudang,81700,6072981200,https://www.perstima.com.my,Packaging & Containers,Consumer Cyclical,491.0
PESONA METRO HOLDINGS BERHAD,8311,"39, Jalan SB Indah 1/19",Taman Sungai Besi Indah,Seri Kembangan,43300,60389410818,https://www.pesona.com.my,Engineering & Construction,Industrials,125.0
PESTECH INTERNATIONAL BERHAD,5219,"No. 26, Jalan Utarid U5/14",Seksyen U5,Shah Alam,40150,60378452186,https://www.pestech-international.com,Engineering & Construction,Industrials,
PETERLABS HOLDINGS BERHAD,0171,Jalan Nilam 3,Lot 16014 (PT No. 24341) Bandar Nilai Utama,Nilai,71800,6067999090,https://www.peterlabs.com.my,Drug Manufacturers—Specialty & Generic,Healthcare,
PETRA ENERGY BERHAD,5133,Menara OBYU,"Suite 13-02, Level 13 4, Jalan PJU 8/8A Bandar Damansara Perdana",Petaling Jaya,47820,60377265576,https://www.petraenergy.com.my,Oil & Gas Equipment & Services,Energy,546.0
PETRON MALAYSIA REFINING & MARKETING BHD,3042,Menara I & P Tower 1,"Level 12A No. 46, Jalan Dungun Damansara Heights",Kuala Lumpur,50490,60320828400,https://www.petron.com.my,Oil & Gas Refining & Marketing,Energy,658.0
PETRONAS CHEMICALS GROUP BERHAD,5183,PETRONAS Twin Towers,Tower 1 Kuala Lumpur City Centre,Kuala Lumpur,50088,60320515000,https://www.petronas.com,Chemicals,Basic Materials,
PETRONAS DAGANGAN BHD,5681,Tower 1,PETRONAS Twin Towers Level 27-32 Kuala Lumpur City Centre,Kuala Lumpur,50088,,https://www.mymesra.com.my,Oil & Gas Refining & Marketing,Energy,
PETRONAS GAS BERHAD,6033,"Tower 1, Level 49-50",PETRONAS Twin Towers Kuala Lumpur City Centre,Kuala Lumpur,50088,60320515000,https://www.petronas.com/pgb,Utilities—Regulated Gas,Utilities,
PGF CAPITAL BERHAD,8117,"No. 2449, Lorong Perusahaan Sepuluh",Kawasan Perusahaan Perai,Perai,13600,6043908460,https://pgfcapital.com.my,Specialty Chemicals,Basic Materials,260.0
PHARMANIAGA BERHAD,7081,"No. 7, Lorong Keluli 1B",Kawasan Perindustrian Bukit Raja Selatan Seksyen 7,Shah Alam,40000,60333429999,https://www.pharmaniaga.com,Medical Distribution,Healthcare,3778.0
PIMPINAN EHSAN BERHAD,5622,Sunway Tower,"Suite 22A-1, Level 22 No. 86, Jalan Ampang",Kuala Lumpur,50450,60320221828,https://www.pebhd.com.my,Shell Companies,Financial Services,
PINEAPPLE RESOURCES BERHAD,0006,Wisma Pineapple,"Lot 135 Jalan 1/8gB 3½ Miles, Off Jalan Sungai Besi",Kuala Lumpur,57100,60379876266,https://www.pineappleresources.com.my,Electronics & Computer Distribution,Technology,
PINEHILL PACIFIC BERHAD,1902,"No. 2-3, Jalan Suria Puchong 6",Third Floor Pusat Perniagaan Suria Puchong,Puchong,47110,60389389830,https://www.pinepac.com.my,Farm Products,Consumer Defensive,
PINTARAS JAYA BHD,9598,"No. 8, Jalan Majistret U1/26",HICOM-Glenmarie Industrial Park,Shah Alam,40150,60355691516,https://www.pintaras.com.my,Engineering & Construction,Industrials,
PJBUMI BERHAD,7163,"No.11, Jalan Ruang U8/109",Seksyen U8 Bukit Jelutong,Shah Alam,40150,60378310075,https://www.pjbumi.com.my,Engineering & Construction,Industrials,16.0
PLB ENGINEERING BERHAD,7055,"1320, Jalan Baru",Taman Chai Leng,Perai,13700,6043905737,https://www.plb.com.my,Engineering & Construction,Industrials,
PLENITUDE BERHAD,5075,"No. 2, Jalan Sri Hartamas 8",2nd Floor Sri Hartamas,Kuala Lumpur,50480,60362010888,https://plenitude.com.my,Real Estate—Development,Real Estate,
PLS PLANTATIONS BERHAD,9695,Menara TSR,"Unit 9-01, Level 9 No. 12, Jalan PJU 7/3 Mutiara Damansara",Petaling Jaya,47810,60377175888,https://www.plsplantations.my,Farm Products,Consumer Defensive,
PMB TECHNOLOGY BERHAD,7172,Lot 1797,Jalan Balakong Bukit Belimbing,Seri Kembangan,43300,60389615205,https://www.pmbtechnology.com,Aluminum,Basic Materials,674.0
PNE PCB BERHAD,6637,"No. 6, Jalan Firma 2/1",Kawasan Perindustrian Tebrau,Johor Bahru,81100,6073546448,https://pnepcb.com,Electronic Components,Technology,
POH HUAT RESOURCES HOLDINGS BERHAD,7088,"PLO 1, Jalan Raja",Kawasan Perindustrian Bukit Pasir Mukim Sungai Raya Bukit Pasir,Muar,84300,6069859688,https://www.pohhuat.com,"Furnishings, Fixtures & Appliances",Consumer Cyclical,3243.0
POH KONG HOLDINGS BERHAD,5080,"No.16-20, Jalan 52/4",,Petaling Jaya,46200,60379403333,https://www.pohkong.com.my,Luxury Goods,Consumer Cyclical,
POLYDAMIC GROUP BERHAD,03031,"1059, Lorong Perindustrian Bukit Minyak","17, Kawasan Perindustrian Bukit Minyak",Simpang Ampat,14100,6045018198,https://www.polydamic.com.my,Pollution & Treatment Controls,Industrials,
POS MALAYSIA BERHAD,4634,Ibu Pejabat Pos,Tingkat 8 Kompleks Dayabumi,Kuala Lumpur,50670,60322672267,https://www.pos.com.my,Integrated Freight & Logistics,Industrials,17825.0
POWER ROOT BERHAD,7237,"No. 30, Jalan Tago 9",Taman Perindustrian Tago,Kuala Lumpur,52200,60362720303,https://www.powerroot.com,Beverages—Non-Alcoholic,Consumer Defensive,887.0
POWERWELL HOLDINGS BERHAD,0217,"No. 1B, Jalan Anggerik Mokara 31/48",Seksyen 31 Kota Kemuning,Shah Alam,40460,60355213333,https://www.powerwell.com.my,Electrical Equipment & Parts,Industrials,254.0
PPB GROUP BERHAD,4065,UBN Tower,12th Floor No. 10 Jalan P. Ramlee Letter Box No. 115,Kuala Lumpur,50250,60327260088,https://www.ppbgroup.com,Farm Products,Consumer Defensive,4433.0
PRESS METAL ALUMINIUM HOLDINGS BERHAD,8869,Setia Avenue,"Suite 61 & 62 No. 2, Jalan Setia Prima S U13/S Setia Alam, Seksyen U13",Shah Alam,40170,60333622188,https://www.pressmetal.com,Aluminum,Basic Materials,7300.0
PRESTAR RESOURCES BERHAD,9873,"Lot 1298, Rawang Industrial Estate",16½ Miles Jalan Ipoh,Rawang,48000,60360908218,https://www.prestar.com.my,Steel,Basic Materials,614.0
PRG HOLDINGS BERHAD,7168,Plaza Damansara Block A,"Unit 4.02, Level 4 Bukit Damansara",Kuala Lumpur,50490,60320110888,https://www.prg.com.my,Textile Manufacturing,Consumer Cyclical,
PRICEWORTH INTERNATIONAL BERHAD,7123,"Lot 5, Block No. 4, Bandar Indah","1st Floor Mile 4, Jalan Utara PO Box 2848",Sandakan,90732,6089224772,https://www.pwibhmalaysia.com.my,Lumber & Wood Production,Basic Materials,351.0
PRINCIPAL FTSE ASEAN 40 MALAYSIA ETF,0822EA,,,,,,,,,
PRINCIPAL FTSE CHINA 50 ETF,0823EA,,,,,,,,,
PRIVASIA TECHNOLOGY BERHAD,0123,3 Two Square,"Unit C-21-02 No. 2, Jalan 19/1",Petaling Jaya,46300,60379679600,https://www.privasia.com,Information Technology Services,Technology,
PROGRESSIVE IMPACT CORPORATION BERHAD,7201,Mercu PICORP,"Suite 5.02 Lot 10, Jalan Astaka U8/84 Bukit Jelutong",Shah Alam,40150,60378456566,https://www.picorp.com.my,Waste Management,Industrials,589.0
PROLEXUS BERHAD,8966,PTD 94657,Batu 6 Jalan Mersing,Kluang,86000,6077010369,https://www.prolexus.com.my,Apparel Manufacturing,Consumer Cyclical,
PROPEL GLOBAL BERHAD,0091,,,,,,,,,
PROTASCO BERHAD,5070,Corporate Block,2nd Floor Unipark Suria Jalan Ikram-Uniten,Kajang,43000,60387383388,https://www.protasco.com.my,Engineering & Construction,Industrials,652.0
PT RESOURCES HOLDINGS BERHAD,0260,Kuantan Integrated Fish Processing Park (KIFPP),Jalan Seri Kemunting 2 Tanah Putih Darul Makmur,Kuantan,25100,6095156666,https://www.ptresourcesgroup.com.my,Packaged Foods,Consumer Defensive,261.0
PTT SYNERGY GROUP BERHAD,7010,"2A-1-1(B), Space U8","No.6, Persiaran Pasak Bumi Taman Bukit Jelutong Seksyen U8",Shah Alam,40150,60350372822,https://pttgroup.com.my,Building Products & Equipment,Industrials,
PUBLIC BANK BERHAD,1295,Menara Public Bank,27th Floor 146 Jalan Ampang,Kuala Lumpur,50450,60321766000,https://www.publicbankgroup.com,Banks—Regional,Financial Services,19188.0
PUBLIC PACKAGES HOLDINGS BHD,8273,Wisma Public Packages,Lintang Kampong Jawa Bayan Lepas Industrial Estate,Bayan Lepas,11900,6046444777,https://www.pph.com.my,Packaging & Containers,Consumer Cyclical,
PUC BERHAD,0007,Oasis Square Unit C-2-01,"Level 2, Capital 3 No. 2, Jalan PJU1A/7A Ara Damansara, PJU 1A",Petaling Jaya,47301,60376510188,https://www.puc.com,Advertising Agencies,Communication Services,80.0
PUNCAK NIAGA HOLDINGS BERHAD,6807,Wisma Rozali,"No. 4, Persiaran Sukan Seksyen 13",Shah Alam,40100,60355228589,https://www.puncakniaga.com.my,Conglomerates,Industrials,622.0
PWF CORPORATION BERHAD,7134,"Plot 127, Jalan Perindustrian Bukit Minyak 7",Taman Perindustrian Bukit Minyak,Bukit Mertajam,14100,6045081088,https://www.pwf.com.my,Farm Products,Consumer Defensive,
QES GROUP BERHAD,0196,"No.2, Jalan Jururancang U1/21",Hicom Glenmarie Industrial Park Seksyen U1,Shah Alam,40150,60358826668,https://www.qesnet.com,Electronics & Computer Distribution,Technology,420.0
QL RESOURCES BERHAD,7084,"No. 16A, Jalan Astaka U8/83",Bukit Jelutong,Shah Alam,40150,60378012288,https://www.ql.com.my,Farm Products,Consumer Defensive,14600.0
QUALITY CONCRETE HOLDINGS BERHAD,7544,Wisma Bukit Mata Kuching,2nd Floor Room 209 Jalan Tunku Abdul Rahman,Kuching,93100,6082206600,https://www.qchb.com.my,Engineering & Construction,Industrials,
RADIANT GLOBALTECH BERHAD,0202,"Unit 03-06 & 03-07, Tower B","Level 03 Vertical Business Suite, Avenue 3 Bangsar South, No. 8, Jalan Kerinchi",Kuala Lumpur,59200,60322422059,https://rgtech.com.my,Electronics & Computer Distribution,Technology,
RALCO CORPORATION BERHAD,7498,Nilai Industrial Estate,Lot 1476 Jalan Lengkok Emas 1,Nilai,71800,6067971999,https://www.ralco.net,Packaging & Containers,Consumer Cyclical,
RAMSSOL GROUP BERHAD,0236,"B-04-05, Tamarind Square",Persiaran Multimedia Cyber 10,Cyberjaya,63000,60388006611,https://www.ramssolgroup.com,Software—Application,Technology,
RANHILL UTILITIES BERHAD,5272,Bangunan Ranhill SAJ,Jalan Garuda Larkin,Johor Bahru,80350,6072255300,https://www.ranhill.com.my,Utilities—Regulated Water,Utilities,3186.0
RAPID SYNERGY BERHAD,7765,"161, Jalan Sungai Keluang",Bayan Lepas FIZ Phase 1,Bayan Lepas,11900,6046439300,https://www.rapidsynergy.com.my,Semiconductor Equipment & Materials,Technology,
RAY GO SOLAR HOLDINGS BERHAD,03052,"No.44, Jalan Serendah 26/39",Hicom Industrial Estate,Shah Alam,40400,60351019905,https://www.raygosolar.com,Solar,Technology,
RCE CAPITAL BERHAD,9296,Menara Teo Chew,20th Floor No. 1 Jalan Lumut,Kuala Lumpur,50400,60340470988,https://www.rce.com.my,Credit Services,Financial Services,201.0
REACH ENERGY BERHAD,5256,"D3-5-8, Block D3","Solaris Dutamas No. 1, Jalan Dutamas 1",Kuala Lumpur,50480,60364123000,https://www.reachenergy.com.my,Oil & Gas E&P,Energy,113.0
RED IDEAS HOLDINGS BERHAD,03002,"Unit 606, Block G","Pusat Dagangan Phileo Damansara 1 No. 9, Jalan 16/11 Seksyen 16",Petaling Jaya,46350,60379319911,https://www.redideasholdings.com,Software—Application,Technology,
RED SENA BERHAD,5270,,,,,,,,,
REDPLANET BERHAD,03036,"No. 1-8, The Boulevard",Level 8 Mid Valley City Lingkaran Syed Putra,Kuala Lumpur,59200,,https://www.redplanet.com.my,Information Technology Services,Technology,
REDTONE DIGITAL BERHAD,0032,IOI Business Park,5th Floor Suites 22-30,Puchong,47100,60380848888,https://www.redtone.com,Telecom Services,Communication Services,
REKATECH CAPITAL BERHAD,0081,"D-5-02, Capital 4, Oasis Square","No.1, Jalan PJU 1A/7A Ara Damansara",Petaling Jaya,47301,60364219986,https://www.megasuncity.com,Engineering & Construction,Industrials,
RENEUCO BERHAD,7130,"D2-3-1, SOLARIS DUTAMAS","NO. 1, JALAN DUTAMAS 1",Kuala Lumpur,50480,60362032929,https://www.reneuco.com,Engineering & Construction,Industrials,
RESERVOIR LINK ENERGY BHD,0219,"E-33-01, Menara SUEZCAP 2","KL Gateway No. 2, Jalan Kerinchi Gerbang Kerinchi Lestari",Kuala Lumpur,59200,60327112128,https://www.reservoirlink.com,Oil & Gas Equipment & Services,Energy,
RESINTECH BERHAD,7232,Lot 3 & 5,Jalan Waja 14 Kawasan Perindustrian Telok Panglima Garang,Telok Panglima Garang,42500,60331222422,https://www.resintechmalaysia.my,Building Products & Equipment,Industrials,
REVENUE GROUP BERHAD,0200,Wisma Revenue,"No. 12, Jalan Udang Harimau 2 Kepong Business Park",Kuala Lumpur,51200,60392123388,https://www.revenue.com.my,Software—Infrastructure,Technology,
REX INDUSTRY BERHAD,9946,Jalan Perindustrian Bukit Minyak 5,Plot 126 Seberang Perai Tengah,Simpang Ampat,14100,6045088288,https://www.rexmalaysia.com,Packaged Foods,Consumer Defensive,
REXIT BERHAD,0106,"42, Jalan BM 1/2",Taman Bukit Mayang Emas,Petaling Jaya,47301,60378031131,https://www.rexit.com,Information Technology Services,Technology,
RGB INTERNATIONAL BHD,0037,"8, Green Hall",,George Town,10200,6042631111,https://www.rgbgames.com,Gambling,Consumer Cyclical,467.0
RGT BERHAD,9954,"1032, Jalan Perindustrian Bukit Minyak",Taman Perindustrian Bukit Minyak Simpang,Penang,14100,6045013990,https://rgtberhad.com,Specialty Chemicals,Basic Materials,
RHB BANK BERHAD,1066,Tower One,Level 10 RHB Centre Jalan Tun Razak,Kuala Lumpur,50400,60392878888,https://www.rhbgroup.com,Banks—Regional,Financial Services,14139.0
RHONE MA HOLDINGS BERHAD,5278,Lot 18A & 18B,Jalan 241 Seksyen 51A,Petaling Jaya,46100,60378737355,https://www.rhonema.com,Drug Manufacturers—Specialty & Generic,Healthcare,
RHONG KHEN INTERNATIONAL BERHAD,7006,Lot 3356,Batu 7¾ Jalan Kapar,Kapar,42200,60332915401,https://rkibhd.com,"Furnishings, Fixtures & Appliances",Consumer Cyclical,
RIMBUNAN SAWIT BERHAD,5113,Menara Rimbunan Hijau,"North Wing 101, Pusat Suria Permata Jalan Upper Lanang",Sibu,96000,6084218555,https://www.rsb.com.my,Farm Products,Consumer Defensive,
RIVERVIEW RUBBER ESTATES BERHAD,2542,Riverview Estate,Tanjung Tualang,Ulu Kinta,31800,6053609201,https://www.riverview.com.my,Farm Products,Consumer Defensive,420.0
ROHAS TECNIC BERHAD,9741,Rohas Tecnic,"15th Floor East Wing No. 9, Jalan P. Ramlee",Kuala Lumpur,50250,60321633900,https://rohastecnic.com,Engineering & Construction,Industrials,858.0
RTS TECHNOLOGY HOLDINGS BERHAD,03039,"11-5-2, Cheras Business Centre","Block F, Jalan 4/101C",Kuala Lumpur,56100,60391309918,https://www.rts.com.my,Information Technology Services,Technology,
S & F CAPITAL BERHAD,8745,Faber Towers,"Lot 1307, Level 13, Tower 2 Jalan Desa Bahagia Taman Desa",Kuala Lumpur,58100,60379823366,https://www.snfcapital.com.my,Real Estate—Diversified,Real Estate,
S P SETIA BERHAD,8664,"No. 12, Persiaran Setia Dagang",Setia Alam Seksyen U13,Shah Alam,40170,60333482255,https://www.spsetia.com,Real Estate—Development,Real Estate,1984.0
SAFETYWARE GROUP BERHAD,03056,Lengkok Perindustrian Bukit Minyak 3,Plot 237 Bukit Minyak Industrial Estate,Simpang Ampat,14100,6045023882,https://safetyware.com,Medical Instruments & Supplies,Healthcare,
SALCON BERHAD,8567,Menara Summit,"15th Floor Persiaran Kewajipan, USJ 1",Subang Jaya,47600,60380248822,https://www.salcon.com.my,Waste Management,Industrials,438.0
SALUTICA BERHAD,0183,3 Jalan Zarib 6,Kawasan Perindustrian Zarib Lahat,Ipoh,31500,6053206800,https://www.salutica.com,Consumer Electronics,Technology,
SAM ENGINEERING & EQUIPMENT (M) BERHAD,9822,"Plot 17, Hilir Sungai Keluang Tiga",Bayan Lepas Free Industrial Zone Phase IV,Penang,11900,6046436789,https://www.sam-malaysia.com,Aerospace & Defense,Industrials,
SAMAIDEN GROUP BERHAD,0223,"No. 7, Lorong Teknologi 3/4A",Nouvelle Industrial Park 2 Taman Sains Selangor 1 Kota Damansara,Petaling Jaya,47810,60361507941,https://www.samaiden.com.my,Engineering & Construction,Industrials,
SAMCHEM HOLDINGS BERHAD,5147,"Lot 6, Jalan Sungai Kayu Ara 32/39",Seksyen 32 Taman Perindustrian Berjaya,Shah Alam,40460,60357402000,https://www.samchem.com.my,Chemicals,Basic Materials,
SANCY BERHAD,03057,"B-1-12, TTDI Plaza, Jalan Wan Kadir 3",Taman Tun Dr. Ismail,Kuala Lumpur,60000,60397724613,https://www.sancyberhad.com,Information Technology Services,Technology,
SAND NISKO CAPITAL BERHAD,7943,"Tower 8 Avenue 5, The Horizon Phase 2",Ground Floor Office 1 Bangsar South City Jalan Kerinchi,Kuala Lumpur,59200,60322411872,https://www.sncbhd.com.my,Engineering & Construction,Industrials,
SANICHI TECHNOLOGY BERHAD,0133,PLO 135,Jalan Cyber 5 Kawasan Perindustrian Senai Fasa 3,Senai,81400,6075988866,https://www.sanichimould.com,Tools & Accessories,Industrials,
SAPURA ENERGY BERHAD,5218,"No. 7, Jalan Tasik",Mines Resort City,Seri Kembangan,43300,60386598800,https://www.sapuraenergy.com,Oil & Gas Equipment & Services,Energy,2439.0
SAPURA INDUSTRIAL BERHAD,7811,"Lot 2 & 4, Jalan P/11",Seksyen 10 Kawasan Perindustrian Bangi,Bandar Baru Bangi,43650,60389256011,https://www.sapuraindustrial.com.my,Auto Parts,Consumer Cyclical,
SAPURA RESOURCES BERHAD,4596,Sapura@Mines,"Ground Floor No. 7, Jalan Tasik The Mines Resort City",Seri Kembangan,43300,60389497000,https://www.sapura-resources.com,Conglomerates,Industrials,
SARAWAK CABLE BERHAD,5170,"Lot 767, Block 8",Muara Tebas Land District Demak Laut Industrial Estate Phase III Jalan Bako,Kuching,93050,6082434311,https://www.sarawakcable.com,Electrical Equipment & Parts,Industrials,
SARAWAK CONSOLIDATED INDUSTRIES BERHAD,9237,Pending Industrial Estate,Lot 1258 Jalan Utama,Kuching,93450,6082334485,https://scib.com.my,Building Materials,Basic Materials,
SARAWAK OIL PALMS BERHAD,5126,"No. 124-126, Jalan Bendahara",P.O. Box 547,Miri,98007,6085436969,https://www.sop.com.my,Farm Products,Consumer Defensive,
SARAWAK PLANTATION BERHAD,5135,Wisma SPB,"Lot 1174, Block 9 MCLD Miri Waterfront Jalan Permaisuri",Miri,98000,6085413814,https://spbgroup.com.my,Farm Products,Consumer Defensive,
SASBADI HOLDINGS BERHAD,5252,"Lot 12, Jalan Teknologi 3/4",Taman Sains Selangor 1 Kota Damansara,Petaling Jaya,47810,60361451188,https://www.sasbadiholdings.com,Publishing,Communication Services,
SAUDEE GROUP BERHAD,5157,Plot 331,Taman Perindustrian Sungai Petani Phase III,Sungai Petani,08000,6044426800,https://saudee.com,Packaged Foods,Consumer Defensive,
SBC CORPORATION BERHAD,5207,"Unit No. C-01, Concourse Level","PJX-HM Shah Tower No. 16A, Persiaran Barat",Petaling Jaya,46050,60379321628,https://www.sbcgroup.com.my,Real Estate—Development,Real Estate,
SC ESTATE BUILDER BERHAD,0109,"E-9-08, Oasis Square","Block E, Level 9 No. 2, Jalan PJU 1A/7A Capital 5, Ara Damansara",Petaling Jaya,47301,60376104388,https://www.scestatebuilder.com.my,Engineering & Construction,Industrials,
SCANWOLF CORPORATION BERHAD,7239,"No.19, 19A, 19B, 19C",Jalan Pusat Perniagaan Falim 5 Pusat Perniagaan Falim,Ipoh,30200,6052850063,https://www.scanwolf.com,"Furnishings, Fixtures & Appliances",Consumer Cyclical,
SCC HOLDINGS BERHAD,0158,"19-21, Jalan Hujan",Taman Overseas Union 5th Mile Jalan Kelang Lama,Kuala Lumpur,58200,60377828384,https://www.sccholdings.com.my,Food Distribution,Consumer Defensive,
SCGM BHD,7247,PTD 109444,Jalan Sengkang Kawasan Perusahaan Sri Sengkang,Kulai,81000,6076522288,https://www.scgmberhad.com,Packaging & Containers,Consumer Cyclical,
SCICOM (MSC) BERHAD,0099,Menara TA One,"25th Floor 22, Jalan P. Ramlee",Kuala Lumpur,50250,60321621088,https://scicom-intl.com,Specialty Business Services,Industrials,
SCIENTEX BERHAD,4731,"No. 9, Persiaran Selangor",Seksyen 15,Shah Alam,40200,60355248888,https://www.scientex.com.my,Packaging & Containers,Consumer Cyclical,
SCIENTEX PACKAGING (AYER KEROH) BERHAD,8125,Lot 3 & 7,Phase IV Air Keroh Industrial Estate,Melaka Pindah,75450,6062312746,https://scientexpackagingak.com.my,Packaging & Containers,Consumer Cyclical,1241.0
SCOMI ENERGY SERVICES BHD,7045,"No. 1-1, Block C-1",Jalan PJU 1/41 Dataran Prima,Petaling Jaya,47301,60377173000,https://scomienergy.com.my,Oil & Gas Equipment & Services,Energy,
SCOMI GROUP BERHAD,7158,,,,,,,,,
SCOPE INDUSTRIES BERHAD,0028,Jalan Perusahaan 2,Lot 6181 Kawasan Perindustrian,Parit Buntar,34200,6057169605,https://www.scope.com.my,Electronic Components,Technology,
SDS GROUP BERHAD,0212,"5, Jalan Selatan 8",Off Jalan Kempas Lama Kawasan Perusahaan Ringan Pulai,Johor Bahru,81200,6072888305,https://sdsgroups.com,Packaged Foods,Consumer Defensive,1507.0
SEACERA GROUP BERHAD,7073,DF2-11-01 (Unit 1),"Level 11, Persoft Tower 6B, Persiaran Tropicana Tropicana Golf & Country Resort",Petaling Jaya,47410,60376887517,https://www.seacera.com.my,Building Products & Equipment,Industrials,
SEAL INCORPORATED BERHAD,4286,ELIT Avenue Business Park,"Level 3A 1-3A-18, Jalan Mayang Pasir 3",Bayan Baru,11950,6046183333,https://www.sib.com.my,Real Estate—Development,Real Estate,
SEALINK INTERNATIONAL BERHAD,5145,Lot 1035,"Block 4, MCLD Piasau Industrial Area",Miri,98000,6085651778,https://www.asiasealink.com,Marine Shipping,Industrials,
SECUREMETRIC BERHAD,0203,Taman Teknologi Mranti,"Level 5-E-6, Hive 5 Lebuhraya Puchong - Sg. Besi Bukit Jalil",Kuala Lumpur,57000,60389968225,https://www.securemetric.com,Software—Infrastructure,Technology,129.0
SEDANIA INNOVATOR BERHAD,0178,Kelana Parkview Tower,Level 10 Jalan SS6/2,Petaling Jaya,47301,60378802001,https://www.sedaniainnovator.com,Communication Equipment,Technology,84.0
SEE HUP CONSOLIDATED BERHAD,7053,"No. 1062, Mukim","6, Jalan Perusahaan Kawasan Perusahaan Perai",Perai,13600,6046882688,https://www.seehup.com.my,Integrated Freight & Logistics,Industrials,407.0
SEERS BERHAD,03009,,,,,,,,,
SEG INTERNATIONAL BHD,9792,SEGi University,"6th Floor, No. 9, Jalan Teknologi Taman Sains Selangor Kota Damansara, PJU 5",Petaling Jaya,47810,60362873777,https://segi.investor.net.my,Education & Training Services,Consumer Defensive,
SELANGOR DREDGING BERHAD,2224,West Block,"18th Floor Wisma Golden Eagle Realty 142-C, Jalan Ampang",Kuala Lumpur,50450,60321613377,https://www.sdb.com.my,Real Estate—Development,Real Estate,213.0
SENG FONG HOLDINGS BERHAD,5308,"No. 12, Tingkat Bawah",Taman Sri Jeram Jalan Bakri,Muar,84000,6069864268,https://sengfongholdings.com,Specialty Chemicals,Basic Materials,
SENHENG NEW RETAIL BERHAD,5305,"No. 44B, Jalan Pandan 3/2",Pandan Jaya,Kuala Lumpur,55100,60392854544,https://www.senheng.com,Consumer Electronics,Technology,1837.0
SENI JAYA CORPORATION BERHAD,9431,"A-01-01, Block Allamanda","10 Boulevard, Lebuhraya Sprint Jalan PJU 6A",Petaling Jaya,47400,60377291795,https://senijayacorp.com,Advertising Agencies,Communication Services,
SENTORIA GROUP BERHAD,5213,"No. 56 & 58, Jalan Dagang SB 4/2",Taman Sungai Besi Indah,Seri Kembangan,43300,60389438388,https://www.sentoria.com.my,Real Estate—Development,Real Estate,
SENTRAL REIT,5123,"Level 35, Menara NU 2","No. 203, Jalan Tun Sambanthan Kuala Lumpur Sentral",Kuala Lumpur,50470,60327868080,https://www.sentralreit.com/,REIT—Office,Real Estate,
SERBA DINAMIK HOLDINGS BERHAD,5279,Menara Serba Dinamik,"Level 15, Presint 3.4 Persiaran Perbandaran Seksyen 14",Shah Alam,40000,60355166100,https://www.e-serbadk.com,Engineering & Construction,Industrials,
SEREMBAN ENGINEERING BERHAD,5163,Lorong Bunga Tanjung 1/3,Lot 1A - 1C Senawang Industrial Park,Seremban,70400,6066775898,https://www.seb.net.my,Metal Fabrication,Industrials,
SERN KOU RESOURCES BERHAD,7180,Lot PTD 6019 (Lot 8804),Jalan Perindustrian 1 Kawasan Perindustrian Bukit Bakri Mukim Bakri,Muar,84200,6069865562,https://www.sernkou.com,"Furnishings, Fixtures & Appliances",Consumer Cyclical,
SERSOL BERHAD,0055,"No. 28, Jalan Canggih 1",Taman Perindustrian Cemerlang,Ulu Tiram,81800,6078611112,https://www.sersol.com.my,Specialty Chemicals,Basic Materials,
SFP TECH HOLDINGS BERHAD,0251,Lorong Perindustrian Bukit Minyak 20,"Plot 350(B), Penang Science Park MK13, Kawasan Perindustrian Bukit Minyak Seberang Perai Tengah",Bukit Mertajam,14100,6045059270,https://www.sfptechholdings.com,Specialty Industrial Machinery,Industrials,356.0
SHANGRI-LA HOTELS (MALAYSIA) BERHAD,5517,Shangri-La’s Rasa Sayang Resort & Spa,10th Mile Batu Feringgi Beach,Batu Ferringhi,11100,,https://www.shangri-la.com,Lodging,Consumer Cyclical,1805.0
SHH RESOURCES HOLDINGS BERHAD,7412,"PLO 1, Kawasan Perindustrian Pagoh",Pagoh,Muar,84600,6069736384,https://shh.com.my,"Furnishings, Fixtures & Appliances",Consumer Cyclical,
SHIN YANG SHIPPING CORPORATION BERHAD,5173,Sublot 153 (Parent Lot 70),Jalan Kuala Baram Kuala Baram,Miri,98100,6085428399,https://www.syshippingcorp.com.my,Marine Shipping,Industrials,
SHL CONSOLIDATED BHD,6017,Wisma Sin Heap Lee,"6th Floor 346, Jalan Tun Razak",Kuala Lumpur,50400,60321637788,https://www.shlcb.com.my,Real Estate Services,Real Estate,177.0
SIAB HOLDINGS BERHAD,0241,"No. 82, Jalan BP 7/8",Bandar Bukit,Puchong,47120,60380527117,https://www.siabmy.com,Engineering & Construction,Industrials,
SIGNATURE INTERNATIONAL BERHAD,7246,Jalan Teknologi,"Lot 24 Taman Sains Selangor 1 Kota Damansara, PJU 5",Petaling Jaya,47810,60362867000,https://www.signatureinternational.com.my,"Furnishings, Fixtures & Appliances",Consumer Cyclical,470.0
SILVER RIDGE HOLDINGS BHD,0129,"4 – 6, Jalan 28/70A",Desa Sri Hartamas,Kuala Lumpur,50480,60323000163,https://www.silverridge.com.my,Communication Equipment,Technology,
SIME DARBY BERHAD,4197,Menara Sime Darby,"Level 9 Oasis Corporate Park Jalan PJU 1A/2, Ara Damansara",Petaling Jaya,47301,60376232000,https://www.simedarby.com,Auto Manufacturers,Consumer Cyclical,20000.0
SIME DARBY PLANTATION BERHAD,5285,Plantation Tower,"Main Block, Level 10 No.2, Jalan PJU 1A/7 Ara Damansara",Petaling Jaya,47301,60378484000,https://www.simedarbyplantation.com,Packaged Foods,Consumer Defensive,80000.0
SIME DARBY PROPERTY BERHAD,5288,"Block G, No.2, Jalan PJU 1A/7A",Level 10 Ara Damansara,Petaling Jaya,47301,60378495000,https://www.simedarbyproperty.com,Real Estate—Development,Real Estate,1458.0
SIN HENG CHAN (MALAYA) BERHAD,4316,Wisma E & C,"Level 3 No. 2, Lorong Dungun Kiri Damansara Heights",Kuala Lumpur,50490,60320947992,https://www.shcm.com.my,Farm Products,Consumer Defensive,
SINARAN ADVANCE GROUP BERHAD,5172,No. 125-127 Jiangtou Qianjin Road North,Jiangtou Industrial Zone Jiangtou Village Chendai Town,Jinjiang,362211,8659585182868,https://www.sinaranadvance.com.my,Footwear & Accessories,Consumer Cyclical,
SINMAH CAPITAL BERHAD,9776,"No. 88, Jalan KU 4",Taman Krubong Utama Krubong,Malacca,75260,6063353329,https://www.sinmah.com.my,Packaged Foods,Consumer Defensive,
SKB SHUTTERS CORPORATION BERHAD,7115,Jalan Teknologi,Lot 22 Taman Sains Selangor 1 Kota Damansara,Petaling Jaya,47810,60361572277,https://www.skb-shutters.com,Metal Fabrication,Industrials,
SKP RESOURCES BHD,7155,No. 421,"4th Miles, Jalan Kluang",Batu Pahat,83000,6074325707,https://www.skpres.com,Specialty Chemicals,Basic Materials,7983.0
SL INNOVATION CAPITAL BERHAD,03008,"23-1, Block D1",Jalan PJU 1/41 Dataran Prima,Petaling Jaya,47301,60378040778,https://slinfo.com.my,Information Technology Services,Technology,
SLP RESOURCES BERHAD,7248,Plot 1,Lot 57-A Lorong Perusahaan 5 Kulim Industrial Estate,Kulim,09000,6044891858,https://sinliplas.com.my,Packaging & Containers,Consumer Cyclical,
SMILE-LINK HEALTHCARE GLOBAL BERHAD,03023,Lot PT 7221,Jalan Merah Caga Bandar Baru Seri Petaling,Kuala Lumpur,57000,60390571801,https://smile-link.com,Medical Care Facilities,Healthcare,
SMIS CORPORATION BERHAD,7132,"Lot 3, Jalan Pemaju U1/15",Seksyen U1 Hicom Glenmarie Industrial Park,Shah Alam,40150,60355691218,https://www.smis.com.my,Auto Parts,Consumer Cyclical,
SMRT HOLDINGS BERHAD,0117,CUCMS Campus,"Tower Block, Level 8 Persiaran Bestari Cyber 11",Cyberjaya,63000,60327709199,https://www.smrt.holdings,Education & Training Services,Consumer Defensive,
SMTRACK BERHAD,0169,"SetiaWalk Mall, Block K","Unit 6, Level 4 SetiaWalk, Persiaran Wawasan Pusat Bandar Puchong",Puchong,47160,60386022145,https://www.smtrackberhad.my,Information Technology Services,Technology,
SNOWFIT GROUP BERHAD,03054,"Lot 33842-A, Jalan Balakong",,Balakong,43300,60390825396,https://www.snowfit.my,Consumer Electronics,Technology,
SNS NETWORK TECHNOLOGY BERHAD,0259,"No.61, Jalan Sultan Nazrin Shah",,Ipoh,30250,6052424616,https://www.sns.com.my,Electronics & Computer Distribution,Technology,304.0
SOLARVEST HOLDINGS BERHAD,0215,"L1-01, Pacific 63 @ PJ Centre","No. 5, Jalan 13/6 Seksyen 13",Petaling Jaya,46200,60376253211,https://www.solarvest.my,Solar,Technology,181.0
SOLID AUTOMOTIVE BERHAD,5242,"PLO 436, Jalan Gangsa",Kawasan Perindustrian Pasir Gudang,Pasir Gudang,81700,6072881313,https://www.solidautomotive.com,Auto Parts,Consumer Cyclical,
SOLUTION GROUP BERHAD,0093,PT 13796,Jalan Tekno Usahawan 2 Technology Park Malaysia,Kuala Lumpur,57000,60327803890,https://solutiongroup.com.my,Scientific & Technical Instruments,Technology,
SOUTH MALAYSIA INDUSTRIES BERHAD,4375,Menara SMI,15th Floor No. 6 Lorong P. Ramlee,Kuala Lumpur,50250,60320781522,https://www.smib.com.my,Electrical Equipment & Parts,Industrials,
SOUTHERN ACIDS (M) BERHAD,5134,Centro Tower,"Level 29 No. 8, Jalan Batu Tiga Lama",Klang,41300,60332583333,https://www.southernacids.com,Conglomerates,Industrials,1737.0
SOUTHERN CABLE GROUP BERHAD,0225,Jalan Merbau Pulas,Lot 42 Kawasan Perusahaan,Kuala Ketil,09300,6044161600,https://www.southerncable.com.my,Electrical Equipment & Parts,Industrials,677.0
SOUTHERN SCORE BUILDERS BERHAD,0045,Platinum Hill PV7,"Unit 21-3, 3rd Floor Taman Melati Utama Setapak",Kuala Lumpur,53100,60341628289,https://southernscore.com.my,Shell Companies,Financial Services,
SOUTHERN STEEL BERHAD,5665,"2435, Lorong Perusahaan 12",Prai Industrial Estate,Perai,13600,6043906540,https://www.southsteel.com,Steel,Basic Materials,
SPORTS TOTO BERHAD,1562,Berjaya Times Square,"Lot 13-01, Level 13 (East Wing) No. 1 Jalan Imbi",Kuala Lumpur,55100,60321491999,https://www.berjaya.com/sports-toto-berhad,Gambling,Consumer Cyclical,
SPRING ART HOLDINGS BERHAD,0216,Lot Plo 49,Jalan Rami 4 Kawasan Perindustrian Bukit Pasir Bukit Pasir,Muar,84300,6069859971,https://www.springart.com,"Furnishings, Fixtures & Appliances",Consumer Cyclical,
SPRITZER BHD,7103,"Lot 898, Jalan Reservoir",Off Jalan Air Kuning,Taiping,34000,6058012663,https://www.spritzer.com.my,Beverages—Non-Alcoholic,Consumer Defensive,960.0
STAR MEDIA GROUP BERHAD,6084,Menara Star,Level 15 Jalan 16/11,Petaling Jaya,46350,60379671388,https://www.starmediagroup.my,Publishing,Communication Services,940.0
STEEL HAWK BERHAD,03049,Dataran Prima,"23-2 & 25-2, BLOCK H Jalan PJU 1/37",Petaling Jaya,47301,60378807818,https://www.steelhawk.com.my,Oil & Gas Midstream,Energy,
STELLA HOLDINGS BERHAD,5006,"A-13A, Pusat Komersial Arena Bintang",Jalan Zuhal U5/178 Seksyen U5,Shah Alam,40150,60327794003,https://www.stella-holdings.com.my,Engineering & Construction,Industrials,56.0
STRAITS ENERGY RESOURCES BERHAD,0080,"B-07-06, Plaza Mont' Kiara",2 Jalan Kiara Mont' Kiara,Kuala Lumpur,50480,60364191266,https://www.straits-interlogistics.com,Integrated Freight & Logistics,Industrials,
SUBUR TIASA HOLDINGS BERHAD,6904,"No. 66-78, Pusat Suria Permata",Jalan Upper Lanang C.D.T. 123,Sibu,96000,6084211555,https://www.suburtiasa.com,Lumber & Wood Production,Basic Materials,
SUCCESS TRANSFORMER CORPORATION BERHAD,7207,"No. 3, 5 & 7, Jalan TSB 8",Taman Industri Sungai Buloh,Sungai Buloh,47000,60362792800,https://www.stcgroup.com.my,Electrical Equipment & Parts,Industrials,
SUNGEI BAGAN RUBBER COMPANY (MALAYA) BERHAD,2569,Sungei Bagan Estate,Pos Office Machang,Machang,18500,,https://www.sungeibagan.com,Farm Products,Consumer Defensive,
SUNMOW HOLDING BERHAD,03050,F-G-01 Bintulu Paragon,Old Airport Place,Bintulu,97000,6086339951,https://sunmow.com.my,Engineering & Construction,Industrials,
SUNSURIA BERHAD,3743,Main Tower,"Suite 8, Sunsuria Avenue Persiaran Mahogani Kota Damansara, PJU 5",Petaling Jaya,47810,60361457777,https://www.sunsuria.com,Real Estate—Development,Real Estate,221.0
SUNVIEW GROUP BERHAD,0262,"01-9, Menara Symphony","9th Floor No. 5, Jalan Professor Khoo Kay Kim Seksyen 13",Petaling Jaya,46200,60376607628,https://www.sunview.com.my,Utilities—Renewable,Utilities,124.0
SUNWAY BERHAD,5211,Menara Sunway,Level 16 Jalan Lagoon Timur Bandar Sunway,Subang Jaya,47500,60356398889,https://www.sunway.com.my,Conglomerates,Industrials,16000.0
SUNWAY CONSTRUCTION GROUP BERHAD,5263,Menara Sunway,Level 8 Jalan Lagoon Timur Bandar Sunway,Subang Jaya,47500,60356399696,https://www.sunwayconstruction.com.my,Engineering & Construction,Industrials,
SUNWAY REAL ESTATE INVESTMENT TRUST,5176,"Level 15, Menara Sunway",Jalan Lagoon Timur Bandar Sunway,Subang Jaya,47500,60356398889,https://www.sunwayreit.com,REIT—Retail,Real Estate,21.0
SUNZEN BIOTECH BERHAD,0148,"No. 11, Jalan Anggerik Mokara 31/47",Kota Kemuning,Shah Alam,40460,60351218998,https://www.sunzen.com.my,Packaged Foods,Consumer Defensive,
SUPERCOMNET TECHNOLOGIES BERHAD,0001,"Lot 172, Jalan PKNK 3/8",Kawasan Perusahaan Sungai Petani,Sungai Petani,08000,6043719808,https://supercomnet.com.my,Electrical Equipment & Parts,Industrials,759.0
SUPERGENICS BERHAD,03033,The Place @ One City,Suite A-01-03 Jalan USJ 25/1A,Subang Jaya,47650,60351150437,https://www.supergenic.com.my,Diagnostics & Research,Healthcare,
SUPERLON HOLDINGS BERHAD,7235,"Lot 2567, Jalan Sungai Jati",,Klang,41200,60333821688,https://www.superlon.com.my,Building Products & Equipment,Industrials,
SUPERMAX CORPORATION BERHAD,7106,"Lot 38, Putra Industrial Park",Bukit Rahman Putra,Sungai Buloh,47000,60361452328,https://www.supermax.com.my,Medical Instruments & Supplies,Healthcare,
SUPREME CONSOLIDATED RESOURCES BERHAD,03018,Demak Laut Industrial Park,"Lot 919, Block 7 Muara Tebas Land District Sejingkat",Kuching,93050,6082439511,https://supremegroup.my,Food Distribution,Consumer Defensive,
SURIA CAPITAL HOLDINGS BERHAD,6521,JQ Central,"Unit 3-03 - 3-31, Level 3 Coastal Highway Off Jalan Tun Fuad Stephens",Kota Kinabalu,88400,6088257788,https://suriagroup.com.my,Marine Shipping,Industrials,1088.0
SWIFT HAULAGE BERHAD,5303,Intan Millennium Square 2 (IMS 2),"Suite 8.02, Level 8 No. 88, Jalan Batai Laut 4 Taman Intan",Klang,41300,60333613555,https://www.swiftlogistics.com.my,Integrated Freight & Logistics,Industrials,3562.0
SWS CAPITAL BERHAD,7186,"PTD 6001, Jalan Perindustrian 5",Kawasan Perindustrian Bukit Bakri Batu 8,Muar,84200,6069865236,https://www.swscap.com,"Furnishings, Fixtures & Appliances",Consumer Cyclical,
SYARIKAT TAKAFUL MALAYSIA KELUARGA BERHAD,6139,Annexe Block,"27th Floor Menara Takaful Malaysia No. 4, Jalan Sultan Sulaiman",Kuala Lumpur,50000,60322681984,https://www.takaful-malaysia.com.my,Insurance—Specialty,Financial Services,967.0
SYCAL VENTURES BERHAD,9717,Plaza Prima,Lot 4.21 4th Floor 4 ½ Miles Old Klang Road,Kuala Lumpur,58200,60379839099,https://www.sycalberhad.com,Engineering & Construction,Industrials,
SYF RESOURCES BERHAD,7082,"No. 47-11, The Boulevard",Mid Valley City Lingkaran Syed Putra,Kuala Lumpur,59200,60322842911,https://syf.com.my,"Furnishings, Fixtures & Appliances",Consumer Cyclical,
SYMPHONY LIFE BERHAD,1538,Menara Symphony,"01-3, 3rd Floor No. 5, Jalan Prof. Khoo Kay Kim Seksyen 13",Petaling Jaya,46200,60376881888,https://www.symphonylife.my,Real Estate—Development,Real Estate,130.0
SYSTECH BHD,0050,Tower Block,"Unit T05, Plaza Dwitasik Jalan Tasik Permaisuri 1 Bandar Sri Permaisuri",Kuala Lumpur,56000,60391719600,https://www.systech.asia,Software—Application,Technology,121.0
T7 GLOBAL BERHAD,7228,"C-16-01, KL Trillion Corporate Tower","Level 16 Block C 338, Jalan Tun Razak",Kuala Lumpur,50400,60327857777,https://www.t7global.com.my,Oil & Gas Equipment & Services,Energy,175.0
TA ANN HOLDINGS BERHAD,5012,Ta Ann Building,"No. 6, Jalan Rawang",Sibu,96000,6084320200,https://www.taann.com.my,Farm Products,Consumer Defensive,3850.0
TA WIN HOLDINGS BERHAD,7097,Q Sentral,Unit 26-11 and 26-12 Level 26 Jalan Stesen Sentral 2,Kuala Lumpur,50470,60322766522,https://www.ta-win.com,Electrical Equipment & Parts,Industrials,
TAFI INDUSTRIES BERHAD,7211,"PLO 3, Kawasan Perindustrian Bukit Pasir",Mukim Sungai Raya Bukit Pasir,Muar,84300,6069859781,https://welcome.tafi.com.my,"Furnishings, Fixtures & Appliances",Consumer Cyclical,210.0
TALAM TRANSFORM BERHAD,2259,Menara Maxisegar,Level 21 Jalan Pandan Indah 4/2 Pandan Indah,Kuala Lumpur,55100,60342962000,https://www.ttransform.com.my,Real Estate—Development,Real Estate,62.0
TALIWORKS CORPORATION BERHAD,8524,Menara LGB,"Level 19 No. 1, Jalan Wan Kadir Taman Tun Dr. Ismail",Kuala Lumpur,60000,60327889100,https://taliworks.com.my,Waste Management,Industrials,
TAMBUN INDAH LAND BERHAD,5191,12-01 Penthouse Wisma Pantai,Jalan Wisma Pantai Kampung Gajah,Butterworth,12200,6043240088,https://www.tambunindah.com,Real Estate—Diversified,Real Estate,79.0
TAN CHONG MOTOR HOLDINGS BERHAD,4405,62-68 Jalan Sultan Azlan Shah,,Kuala Lumpur,51200,60340478888,https://www.tanchonggroup.com,Auto Manufacturers,Consumer Cyclical,
TANCO HOLDINGS BERHAD,2429,"No. 1, Jalan Bandar 1",Pusat Bandar Puchong,Puchong,47160,60380708288,https://www.tancoholdings.com,Real Estate—Diversified,Real Estate,
TAS OFFSHORE BERHAD,5149,"Lot 199, Jalan Sg Ma’aw",Sg Bidut,Sibu,96000,6084310211,https://www.tasoffshore.com,Aerospace & Defense,Industrials,60.0
TASCO BERHAD,5140,Persiaran Jubli Perak,Lot No.1A Jalan 22/1 Seksyen 22,Shah Alam,40300,60351018888,https://www.tasco.com.my,Integrated Freight & Logistics,Industrials,
TASHIN HOLDINGS BERHAD,0211,"Plot 40, Lorong Perusahaan Maju 7",Kawasan Perusahaan 4,Perai,13600,6045090888,https://www.tashin.com.my,Steel,Basic Materials,
TCS GROUP HOLDINGS BERHAD,0221,"No. 1 & 3, Bangunan TCS",Jalan SP 1/1 Bandar Saujana Putra,Jenjarom,42610,60351038888,https://tcsgroup.com.my,Engineering & Construction,Industrials,
TDM BERHAD,2054,Wisma TDM,"443D, Jalan Kamaruddin",Kuala Terengganu,20400,6096204800,https://www.tdmberhad.com.my,Farm Products,Consumer Defensive,4308.0
TECHBOND GROUP BERHAD,5289,"No. 36, Jalan Anggerik Mokara 31/59",Seksyen 31 Kota Kemuning,Shah Alam,40460,60351223333,https://www.techbond.com.my,Specialty Chemicals,Basic Materials,
TECHNA-X BERHAD,2739,"Unit 2.2, Work@Clearwater",Level 2 Jalan Changkat Semantan Damansara Heights,Kuala Lumpur,50490,60327158688,https://www.techna-x.com,Information Technology Services,Technology,250.0
TECHNODEX BHD,0132,Menara Suezcap 2,"Unit E-07-03, KL Gateway No. 2, Jalan Kerinchi Gerbang Kerinchi Lestari",Kuala Lumpur,59200,60379320111,https://www.technodex.com,Information Technology Services,Technology,
TECK GUAN PERDANA BERHAD,7439,"No. 318, Teck Guan Regency",Jalan St. Patrick Off Jalan Belunu,Tawau,91000,6089772275,https://www.teckguan.com/tgp,Packaged Foods,Consumer Defensive,
TEK SENG HOLDINGS BERHAD,7200,Jalan Perindustrian Bukit Minyak 7,"Plot 159, MK 13 Bukit Minyak Industrial Park",Bukit Mertajam,14000,6045075805,https://www.tekseng.com.my,Textile Manufacturing,Consumer Cyclical,
TELADAN SETIA GROUP BERHAD,0230,Wisma Teladan,Lot 13253 Jalan Batu Berendam,Batu Berendam,75350,6063173236,https://teladansetia.com,Residential Construction,Consumer Cyclical,61.0
TELEKOM MALAYSIA BERHAD,4863,Menara TM,Jalan Pantai Baharu,Kuala Lumpur,50672,60322409494,https://www.tm.com.my,Telecom Services,Communication Services,19499.0
TENAGA NASIONAL BHD,5347,"No. 3, Jalan Bukit Pantai",Bangsar,Kuala Lumpur,59100,60322965566,https://www.tnb.com.my,Utilities—Regulated Electric,Utilities,31130.0
TEO GUAN LEE CORPORATION BERHAD,9369,Lorong Perusahaan Maju 4,Plot 28 Prai Industrial Estate,Perai,13600,6045076228,https://www.tglcorp.com.my,Apparel Manufacturing,Consumer Cyclical,
TEO SENG CAPITAL BERHAD,7252,Jalan Air Hitam,Lot PTD 25740 Batu 4,Yong Peng,83700,6074672289,https://www.teoseng.com.my,Farm Products,Consumer Defensive,
TEX CYCLE TECHNOLOGY (M) BERHAD,0089,"Lot 8942, Jalan Telok Gong",,Port Klang,42000,60331703987,https://texcycle.com.my,Waste Management,Industrials,
TEXCHEM RESOURCES BERHAD,8702,Menara Boustead Penang,Level 18 39 Jalan Sultan Ahmad Shah,Penang,10050,6042296000,https://texchemgroup.com,Conglomerates,Industrials,2877.0
TFP SOLUTIONS BERHAD,0145,Wisma LMS,"No. 6, Jalan Abd. Rahman Idris Off Jalan Raja Muda Aziz",Kuala Lumpur,50300,60392130688,https://www.tfp.com.my,Information Technology Services,Technology,
TH PLANTATIONS BERHAD,5112,Level 23,Menara TH Selborn 153 Jalan Tun Razak,Kuala Lumpur,50400,60326034800,https://www.thplantations.my,Farm Products,Consumer Defensive,5303.0
THETA EDGE BERHAD,9075,"Lot 11B, Jalan 223",Seksyen 51A,Petaling Jaya,46100,60360430000,https://www.theta-edge.com,Information Technology Services,Technology,197.0
THONG GUAN INDUSTRIES BERHAD,7034,Jalan PKNK 1/6,Lot 52 Kawasan Perusahaan Sungai Petani,Sungai Petani,08000,6044417888,https://www.thongguan.com,Packaging & Containers,Consumer Cyclical,2378.0
THREE-A RESOURCES BERHAD,0012,"AL 308, Lot 590 & Lot 4196",Jalan Industri U19 Kampung Baru Sungai Buloh,Shah Alam,40160,60361562655,https://www.three-a.com.my,Packaged Foods,Consumer Defensive,572.0
THRIVEN GLOBAL BERHAD,7889,"PS1-08, Lumi Tropicana","No.2, Persiaran Tropicana PJU 3",Petaling Jaya,47410,60376881266,https://www.thriven.com.my,Real Estate—Diversified,Real Estate,128.0
TIEN WAH PRESS HOLDINGS BERHAD,7374,"Lot 03-8, Menara Symphony","8th Floor No. 5, Jalan Professor Khoo Kay Kim Seksyen 13",Petaling Jaya,46200,60350313980,https://www.tienwah.com,Specialty Business Services,Industrials,
TIMBERWELL BERHAD,7854,Wisma BSN Sabah Jalan Kemajuan,2nd Floor Karamunsing PO Box 15826,Kota Kinabalu,88000,6088214222,https://timwell.com.my,Lumber & Wood Production,Basic Materials,54.0
TIME DOTCOM BERHAD,5031,"No. 14, Jalan Majistret U1/26",Level 4 HICOM Glenmarie Industrial Park,Shah Alam,40150,60350393000,https://www.time.com.my,Telecom Services,Communication Services,1479.0
TIONG NAM LOGISTICS HOLDINGS BERHAD,8397,Jalan Kempas Baru,Lot 30462,Johor Bahru,81200,6072321299,https://www.tiongnam.com,Integrated Freight & Logistics,Industrials,3000.0
TITIJAYA LAND BERHAD,5239,"N-16-01, Penthouse",Level 16 First Subang Jalan SS15/4G,Subang Jaya,47500,60380229999,https://titijaya.com.my,Real Estate—Development,Real Estate,
TMC LIFE SCIENCES BERHAD,0101,"No. 11, Jalan Teknologi","Level 11 Taman Sains Selangor 1, PJU 5 Kota Damansara",Petaling Jaya,47810,60362871111,https://www.tmclife.com,Medical Care Facilities,Healthcare,
TOMEI CONSOLIDATED BERHAD,7230,Project Jaya Industrial Estate,"8-1, Jalan 2/131A Batu 6 Jalan Kelang Lama",Kuala Lumpur,58200,60377848136,https://www.tomei.com.my,Luxury Goods,Consumer Cyclical,800.0
TOMYPAK HOLDINGS BERHAD,7285,"No.11, Jalan Tahana",Kawasan Perindustrian Tampoi,Johor Bahru,80350,6075352222,https://www.tomypak.com.my,Packaging & Containers,Consumer Cyclical,
TONG HERR RESOURCES BERHAD,5010,"No. 2515, Tingkat Perusahaan 4A",Perai Free Trade Zone,Perai,13600,6043903970,https://www.tong.com.my,Tools & Accessories,Industrials,
TOP BUILDERS CAPITAL BERHAD,5268,,,,,,,,,
TOP GLOVE CORPORATION BHD,7113,Top Glove Tower,"Level 21 16, Persiaran Setia Dagang Setia Alam, Seksyen U13",Shah Alam,40170,60333623098,https://www.topglove.com,Medical Instruments & Supplies,Healthcare,10700.0
TOPVISION EYE SPECIALIST BERHAD,03013,Setia Avenue: Unit 11-2 & 11-3,"No.2,Block 2, Jalan Setia Prima(S) U13/S Setia Alam Seksyen U13",Shah Alam,40170,60333439911,https://www.tvesc.com,Medical Care Facilities,Healthcare,
TOWER REAL ESTATE INVESTMENT TRUST,5111,Plaza Zurich,12 Jalan Gelenggang Bukit Damansara,Kuala Lumpur,50490,,,REIT—Office,Real Estate,
TOYO VENTURES HOLDINGS BERHAD,7173,"PT 3477, Jalan 6/1",Kawasan Perusahaan Seri Kembangan,Seri Kembangan,43300,60389423335,https://www.toyoventures.com.my,Specialty Chemicals,Basic Materials,
TPC PLUS BERHAD,7176,Simpang Ampat,Lot 942,Alor Gajah,78000,6065529355,https://www.tpc.com.my,Farm Products,Consumer Defensive,
TRADEPLUS DWA MALAYSIA MOMENTUM TRACKER,0836EA,,,,,,,,,
TRADEPLUS HSCEI DAILY (-1X) INVERSE TRACKER,0833EA,,,,,,,,,
TRADEPLUS HSCEI DAILY (2X) LEVERAGED TRACKER,0832EA,,,,,,,,,
TRADEPLUS MSCI ASIA EX JAPAN REITS TRACKER,0837EA,,,,,,,,,
TRADEPLUS NYSE FANG+ DAILY (-1X) INVERSE TRACKER,0831EA,,,,,,,,,
TRADEPLUS NYSE FANG+ DAILY (2X) LEVERAGED TRACKER,0830EA,,,,,,,,,
TRADEPLUS S&P NEW CHINA TRACKER-MYR,0829EA,,,,,,,,,
TRADEPLUS S&P NEW CHINA TRACKER-USD,0829EB,,,,,,,,,
TRADEPLUS SHARIAH GOLD TRACKER,0828EA,,,,,,,,,
TRANSOCEAN HOLDINGS BHD,7218,"Lot 2955, 2956 & 2957",Jalan Perusahaan Sungai Lokan 3 Kawasan Perusahaan Sungai Lokan,Butterworth,13400,6043322650,https://www.transocean.com.my,Integrated Freight & Logistics,Industrials,
TRC SYNERGY BERHAD,5054,TRC Business Centre,Jalan Andaman Utama,Ampang,68000,60341038000,https://www.trc.com.my,Engineering & Construction,Industrials,821.0
TRI-MODE SYSTEM (M) BERHAD,0199,Wisma Tri-Mode,No 1 (Lot 48) Jalan Sungai Chandong 24/KS11 Taman Perindustrian Pulau Indah (Fasa 3),Klang,42920,60330938118,https://www.trimode-malaysia.com.my,Integrated Freight & Logistics,Industrials,243.0
TRIVE PROPERTY GROUP BERHAD,0118,Tower 11,"Avenue 5 Level 7 No. 8, Jalan Kerinchi Bangsar South",Kuala Lumpur,59200,60322422828,https://www.trivegroup.com.my,Solar,Technology,
TROPICANA CORPORATION BERHAD,5401,Tropicana Gardens Office Tower,"Unit 1301, Level 13 No. 2A, Persiaran Surian Tropicana Indah",Petaling Jaya,47810,60376636888,https://www.tropicanacorp.com.my,Real Estate Services,Real Estate,772.0
TSH RESOURCES BERHAD,9059,Bangunan TSH,"TB 9, KM 7 Apas Road",Tawau,91000,6089912020,https://www.tsh.com.my,Farm Products,Consumer Defensive,
TSR CAPITAL BERHAD,5042,Menara TSR,"Level 16 No. 12, Jalan PJU 7/3 Mutiara Damansara",Petaling Jaya,47810,60377177717,https://www.tsrcap.com.my,Engineering & Construction,Industrials,
TT VISION HOLDINGS BERHAD,0272,Plot 106,Hilir Sungai Keluang 5 Bayan Lepas Industrial Zone Phase IV,Bayan Lepas,11900,6046456294,https://www.ttvision-tech.com,Software—Application,Technology,
TUJU SETIA BERHAD,5297,"No. 31-1, Jalan Puteri 4/8",Bandar Puteri,Puchong,47100,60380668800,https://tujusetia.my,Engineering & Construction,Industrials,212.0
TUNE PROTECT GROUP BERHAD,5230,Damansara Heights,"Level 9, Wisma Tune No. 19 Lorong Dungun Wisma Tune",Kuala Lumpur,50490,60320879000,https://www.tuneprotect.com,Insurance—Diversified,Financial Services,484.0
TURBO-MECH BERHAD,5167,"39-5, Jalan PJU 1/41",Block D1 Dataran Prima,Petaling Jaya,47301,60378055592,https://www.turbomech.com.my,Industrial Distribution,Industrials,
TURIYA BERHAD,4359,Wisma Chase Perdana,"Suite 7.3, 7th Floor Changkat Semantan Damansara Heights",Kuala Lumpur,50490,60327183800,https://www.turiya.com.my,Semiconductor Equipment & Materials,Technology,
TWL HOLDINGS BERHAD,7079,T3-13A-20,"Level 13A Menara 3, 3 Towers Jalan Ampang",Kuala Lumpur,50450,60327330038,https://twlholdings.com.my,Real Estate—Development,Real Estate,
UCHI TECHNOLOGIES BERHAD,7100,"3097, Tingkat Perusahaan 4A",Free Trade Zone,Perai,13600,6043990035,https://www.uchi.net,Electronic Components,Technology,471.0
UCI RESOURCES BERHAD,03043,"No. 6-1 & 6-2, Jalan Opera G U2/G",Taman TTDI Jaya,Shah Alam,40150,60378475955,https://utamaconcrete.com.my,Building Materials,Basic Materials,
UCREST BERHAD,0005,KPMG Tower,"Lot 6.04, Level 6 8, First Avenue Bandar Utama",Petaling Jaya,47800,60377289880,https://www.ucrest.net,Health Information Services,Healthcare,11.0
UEM EDGENTA BERHAD,1368,"Menara UEM, Tower 1","Level 17, Avenue 7 No. 8 Jalan Kerinchi The Horizon, Bangsar South City",Kuala Lumpur,59200,60327256688,https://www.uemedgenta.com,Engineering & Construction,Industrials,16481.0
UEM SUNRISE BERHAD,5148,Solaris Dutamas,"Block C5 Level U2 No. 1, Jalan Dutamas 1",Kuala Lumpur,50480,60327187788,https://www.uemsunrise.com,Real Estate—Development,Real Estate,855.0
UMEDIC GROUP BERHAD,0256,"PMT 790, Jalan Cassia Selatan 5/2",Taman Perindustrian Batu Kawan Bandar Cassia,Penang,14110,6045899676,https://www.umedic.com.my,Medical Devices,Healthcare,
UMS HOLDINGS BERHAD,7137,"No. 2, Jalan Segambut Pusat",Segambut,Kuala Lumpur,51200,60362587211,https://www.umsh.com,Industrial Distribution,Industrials,
UMS-NEIKEN GROUP BERHAD,7227,Rawang Integrated Industrial Park,"Lot 48, Jalan Industri 2/1",Rawang,48000,60360914146,https://www.ums-neiken.com,Electrical Equipment & Parts,Industrials,
UMW HOLDINGS BERHAD,4588,Menara UMW,Level 6 Jalan Puncak Off Jalan P. Ramlee,Kuala Lumpur,50250,60320252025,https://www.umw.com.my,Auto & Truck Dealerships,Consumer Cyclical,6313.0
UNI WALL APS HOLDINGS BERHAD,03017,"15, Jalan Kesuma 2/3",Bandar Tasik Kesuma,Semenyih,43700,60387231088,https://www.uniwall.com.my,Building Materials,Basic Materials,
UNIMECH GROUP BERHAD,7091,Wisma Unimech,"4934, Jalan Chain Ferry",Butterworth,12100,6043328823,https://www.unimechgroup.com,Metal Fabrication,Industrials,
UNIQUE FIRE HOLDINGS BERHAD,0257,"No. 9, Jalan Anggerik Mokara 31/55","Kota Kemuning, Seksyen 31",Shah Alam,40460,60351311226,https://www.uniquefire.com,Security & Protection Services,Industrials,159.0
UNISEM (M) BERHAD,5005,UBN Tower,"9th Floor No. 10, Jalan P. Ramlee Lot No. 9(H)",Kuala Lumpur,50250,60320723760,https://www.unisemgroup.com,Semiconductors,Technology,
UNITED MALACCA BERHAD,2593,"No. 61, Jalan Melaka Raya 8",6th Floor,Taman Melaka Raya,75000,6062823700,https://www.unitedmalacca.com.my,Farm Products,Consumer Defensive,4520.0
UNITED PLANTATIONS BERHAD,2089,Jendarata Estate,,Teluk Intan,36009,6056411411,https://www.unitedplantations.com,Farm Products,Consumer Defensive,6381.0
UNITED U-LI CORPORATION BERHAD,7133,"No. 33, Jalan Kartunis U1/47",Temasya Industrial Park Seksyen U1,Shah Alam,40150,60355695999,https://www.uli.com.my,Building Products & Equipment,Industrials,
UNITRADE INDUSTRIES BERHAD,0247,"2, Jalan Astaka U8/87",Seksyen U8 Bukit Jelutong,Shah Alam,40150,60378432828,https://www.unitrade.com.my,Industrial Distribution,Industrials,215.0
UOA DEVELOPMENT BHD,5200,VERTICAL CORPORATE TOWER B,"SUITE G-1, AVENUE 10 NO. 8, JALAN KERINCHI The Vertical, Bangsar South City",Kuala Lumpur,59200,60322459188,https://uoa.com.my/investor-relations/uoa-development,Real Estate—Development,Real Estate,
UOA REAL ESTATE INVESTMENT TRUST,5110,UOA Corporate Tower,"Lobby A, Avenue 10, The Vertical Bangsar South City No. 8, Jalan Kerinchi",Kuala Lumpur,59200,60322459188,https://www.uoareit.com.my,REIT—Diversified,Real Estate,
UPA CORPORATION BHD,7757,"Lot 8228, Batu 6.5 Miles",Jalan Kuchai Lama,Kuala Lumpur,58200,60379823888,https://www.upa.com.my,Conglomerates,Industrials,
UWC BERHAD,5292,"PMT 744-745, Jalan Cassia Selatan 5/1",Taman Perindustrian Batu Kawan Bandar Cassia,Penang,14110,6045556937,https://www.uwcberhad.com.my,Metal Fabrication,Industrials,
UZMA BERHAD,7250,Uzma Tower,"No. 2, Jalan PJU 8/8A Damansara Perdana",Petaling Jaya,47820,60376114000,https://www.uzmagroup.com,Oil & Gas Integrated,Energy,
V.S. INDUSTRY BERHAD,6963,"No. 88, Jalan I-Park SAC 5",Taman Perindustrian I-Park SAC,Senai,81400,6075528888,https://www.vs-i.com,Electronic Components,Technology,
VELESTO ENERGY BERHAD,5243,Plaza Sentral,Level 18 Block 3A Jalan Stesen Sentral 5,Kuala Lumpur,50470,60320968788,https://velesto.com,Oil & Gas Drilling,Energy,520.0
VERSATILE CREATIVE BERHAD,4995,Jalan Pandan Indah,Lot 30745 Pandan Indah,Kuala Lumpur,55100,60342921288,https://www.vc-b.com,Packaging & Containers,Consumer Cyclical,
VESTLAND BERHAD,0273,Subplace Boulevard Pusat Komersil Vestland,"Level 20 No.6, Jalan Juruanalisis U1/35 Seksyen U1",Shah Alam,40150,60350351718,https://www.vestland.com.my,Real Estate—Development,Real Estate,219.0
VINVEST CAPITAL HOLDINGS BERHAD,0069,"No.4, Jalan Seri Utara 1",Off Jalan Ipoh Batu Caves,Kuala Lumpur,68100,60362573333,https://www.vinvest.com.my,Engineering & Construction,Industrials,
VISDYNAMICS HOLDINGS BERHAD,0120,Lot 3844,Jalan TU 52 Kawasan Perindustrian Tasik Utama,Ayer Keroh,75450,6062323023,https://www.vis-dynamics.com,Semiconductor Equipment & Materials,Technology,105.0
VITROX CORPORATION BERHAD,0097,"746, Persiaran Cassia Selatan 3",Batu Kawan Industrial Park Bandar Cassia,Simpang Ampat,14110,6045459988,https://www.vitrox.com,Semiconductor Equipment & Materials,Technology,
VIZIONE HOLDINGS BERHAD,7070,PJX-HM Shah Tower,"Level 22 No. 16A, Persiaran Barat",Petaling Jaya,46050,60386053355,https://vizione.com.my,Real Estate—Development,Real Estate,
VOLCANO BERHAD,0232,"1411, Jalan Perusahaan",Kawasan Perusahaan Perai 1,Perai,13600,6043991200,https://volcano.com.my,Metal Fabrication,Industrials,
VP-DJ SHARIAH CHINA A-SHARES 100 ETF - MYR,0838EA,,,,,,,,,
VSOLAR GROUP BERHAD,0066,Menara Lien Hoe,"Lot 13.3, 13th Floor No. 8, Persiaran Tropicana Tropicana Golf & Country Resort",Petaling Jaya,47410,60376226981,https://www.vsolar.com.my,Electronics & Computer Distribution,Technology,
VSTECS BERHAD,5162,Jalan Teknologi 3/5,Lot 3 Taman Sains Selangor Kota Damansara,Petaling Jaya,47810,60362868222,https://www.vstecs.com.my,Electronics & Computer Distribution,Technology,393.0
WAH SEONG CORPORATION BERHAD,5142,"No. 59-7, The Boulevard",Mid Valley City Lingkaran Syed Putra,Kuala Lumpur,59200,60322812222,https://wahseong.com,Oil & Gas Equipment & Services,Energy,3865.0
WAJA KONSORTIUM BERHAD,0102,"No. 20-2, Pusat Perdagangan Salak II","Jalan 2/125, Taman Desa Petaling Desa Petaling",Kuala Lumpur,57100,60390540554,https://www.waja.my,Communication Equipment,Technology,
WANG-ZHENG BERHAD,7203,No.1 Jalan Utarid U5/19,Section U5,Shah Alam,40150,60378013333,https://www.wangzhengberhad.com,Paper & Paper Products,Basic Materials,
WARISAN TC HOLDINGS BERHAD,5016,"No. 15, Jalan Ipoh Kecil",3rd Floor,Kuala Lumpur,50350,60340479733,https://www.warisantc.com.my,Conglomerates,Industrials,953.0
WATTA HOLDING BERHAD,7226,Menara Cosway,12th Floor Plaza Berjaya Jalan Imbi,Kuala Lumpur,55100,60321442929,https://www.watta.com.my,Communication Equipment,Technology,
WCE HOLDINGS BERHAD,3565,Pejabat Pengurusan Lebuhraya,Pesisiran Pantai Barat Jalan Meru/KU5 Bandar Bukit Raja,Klang,41050,60330821999,https://www.wcehb.com.my,Engineering & Construction,Industrials,
WCT HOLDINGS BERHAD,9679,"B-30-01, The Ascent, Paradigm","No. 1, Jalan SS7/26A Kelana Jaya",Petaling Jaya,47301,60378066688,https://www.wct.com.my,Engineering & Construction,Industrials,1443.0
WEGMANS HOLDINGS BERHAD,0197,Lot PTD 6967,Jalan Kempas 3 Kawasan Perindustrian Bakri,Muar,84200,6069867897,https://www.wegmans.com.my,"Furnishings, Fixtures & Appliances",Consumer Cyclical,
WELLCALL HOLDINGS BERHAD,7231,"Plot 48, Jalan Johan 2/5",Kawasan Perindustrian Pengkalan II Fasa II Lahat,Pusing,31550,6053668805,https://www.wellcallholdings.com,Auto Parts,Consumer Cyclical,
WELLSPIRE HOLDINGS BERHAD,0271,"Tower 1, Etiqa Twins","Level 12 Lot D/E 11, Jalan Pinang",Kuala Lumpur,50450,60397797066,https://www.wellspireholdings.com,Food Distribution,Consumer Defensive,
WESTPORTS HOLDINGS BERHAD,5246,Westports,PO Box 266 Pulau Indah,Port Klang,42009,60331694000,https://www.westportsholdings.com,Marine Shipping,Industrials,5773.0
WHITE HORSE BERHAD,5009,"PLO 464, Jalan Gangsa",Pasir Gudang Industrial Estate,Pasir Gudang,81700,6072511111,https://www.whitehorse.my,Building Materials,Basic Materials,1385.0
WIDAD GROUP BERHAD,0162,WBG Penthouse,"Widad Semantan No. 3, Jalan Semantan Damansara Heights",Kuala Lumpur,50490,60320940009,https://widadgroup.com,Engineering & Construction,Industrials,
WILLOWGLEN MSC BERHAD,0008,Taman Sri Endah,No. 17 Jalan 2/149B Bandar Baru Sri Petaling,Kuala Lumpur,57000,60390571228,https://www.willowglen.com.my,Computer Hardware,Technology,
WMG HOLDINGS BERHAD,6378,"Wisma WMG, Lot 1 & 2",Jalan Indah Jaya Taman Indah Jaya Jalan Lintas Selatan,Sandakan,90000,6089212133,https://www.wmghb.com.my,Building Materials,Basic Materials,
WONG ENGINEERING CORPORATION BERHAD,7050,Kulim Hi-Tech Park (Phase 1),Lot 24 Jalan Hi-Tech 4,Kulim,09000,6044271788,https://www.wec.com.my,Metal Fabrication,Industrials,
WOODLANDOR HOLDINGS BHD,7025,Sungai Lalang,"Lot 1339, Batu 22 1/2",Semenyih,43500,60387232233,https://www.woodlandor.com.my,Lumber & Wood Production,Basic Materials,
WTK HOLDINGS BERHAD,4243,Bangunan Hung Ann,"No. 1, Jalan Bujang Suntong",Sibu,96000,6084326155,https://wtkholdings.com,Lumber & Wood Production,Basic Materials,
XIDELANG HOLDINGS LTD,5156,XiDeLang Industrial Park,Neikeng Town,Jinjiang,,8659586776888,https://www.xidelang.com.my,Footwear & Accessories,Consumer Cyclical,
XIN HWA HOLDINGS BERHAD,5267,"No. 2, Jalan Permatang 2",Kempas Baru,Johor Bahru,81200,6072316999,https://www.xinhwa.com.my,Integrated Freight & Logistics,Industrials,672.0
XL HOLDINGS BERHAD,7121,"B-09-09, Gateway Corporate Suites","Gateway Kiaramas No. 1, Jalan Desa Kiara Mont Kiara",Kuala Lumpur,50480,60364191385,https://www.xlhb.com.my,Farm Products,Consumer Defensive,
XOX BHD,0165,Menara Lien Hoe,"Lot 8.1, 8th Floor No. 8, Persiaran Tropicana Tropicana Golf & Country Resort",Petaling Jaya,47410,60378842388,https://www.xox.com.my,Telecom Services,Communication Services,
XOX NETWORKS BERHAD,0140,Menara Lien Hoe,"7th Floor No. 8, Persiaran Tropicana Tropicana, Golf & Country Resort",Petaling Jaya,47410,60103098998,https://www.macpie.asia,Electronics & Computer Distribution,Technology,
XOX TECHNOLOGY BERHAD,0017,Menara Lien Hoe,"Lot 17.1, 17th Floor No. 8, Persiaran Tropicana Tropicana Golf & Country Resort",Petaling Jaya,47410,60376126242,https://www.xoxtech.com.my,Telecom Services,Communication Services,
Y&G CORPORATION BHD,7003,"Lot G-01, Tower B","Ground Floor PJ City Development No. 15A, Jalan 219, Seksyen 51A",Petaling Jaya,46100,60378761188,https://www.ygcorp.com.my,Real Estate Services,Real Estate,42.0
Y.S.P.SOUTHEAST ASIA HOLDING BERHAD,7178,Menara LGB,"Level 22 No. 1, Jalan Wan Kadir Taman Tun Dr. Ismail",Kuala Lumpur,60000,60377276390,https://www.yspsah.com,Drug Manufacturers—Specialty & Generic,Healthcare,
YB VENTURES BERHAD,5048,"Lot 7020, Batu 23",Jalan Air Hitam,Kulai,81000,6076522652,https://www.alpha-tiles.com.my,Building Materials,Basic Materials,
YBS INTERNATIONAL BERHAD,0025,"K27, Jalan Perindustrian",Kawasan Perindustrian Tanjung Agas,Muar,84000,6069536088,https://www.ybsinternational.com,Specialty Industrial Machinery,Industrials,
YENHER HOLDINGS BERHAD,5300,"No. 1628, Jalan IKS Simpang Ampat 1",Taman IKS Simpang Ampat Seberang Perai Selatan,Simpang Ampat,14100,6045880887,https://yenher.com.my,Packaged Foods,Consumer Defensive,154.0
YEW LEE PACIFIC GROUP BERHAD,0248,"No 18, Jalan Johan 2/1",Kawasan Perindustrian Pengkalan II,Pusing,31550,6053668608,https://www.yewlee.com.my,Industrial Distribution,Industrials,109.0
YGL CONVERGENCE BERHAD,0086,"No. 35, Scotland Road",,Penang,10450,6042290619,https://www.yglworld.com,Electronics & Computer Distribution,Technology,
YINSON HOLDINGS BERHAD,7293,Menara South Point,Level 16 Mid Valley City Medan Syed Putra Selatan,Kuala Lumpur,59200,60322893888,https://www.yinson.com,Oil & Gas Equipment & Services,Energy,1488.0
YKGI HOLDINGS BERHAD,7020,Demak Laut Industrial Park,Lot 712 Block 7,Kuching,93050,6082433888,https://www.asteel.com.my,Steel,Basic Materials,
YLI HOLDINGS BERHAD,7014,"45, Lorong Rahim Kajai 13",Taman Tun Dr. Ismail,Kuala Lumpur,60000,60377222296,https://www.yli.com.my,Steel,Basic Materials,
YNH PROPERTY BERHAD,3158,"No. 188, Jalan PPMP 3/3",Pusat Perniagaan Manjung Point 3,Seri Manjung,32040,6056881128,https://www.ynhb.com.my,Real Estate—Development,Real Estate,
YONG TAI BERHAD,7066,"No 3, Jalan KSB - Impression 8",Impression City @ Kota Syahbandar,Malacca,75200,6062707799,https://www.yongtai.com.my,Real Estate—Development,Real Estate,
YOONG ONN CORPORATION BERHAD,5159,Jalan Permata 2,Lot No. PT 16690 - 16692 Arab-Malaysian Industrial Park,Nilai,71800,6067996012,https://www.yoongonn.com,Textile Manufacturing,Consumer Cyclical,
